ref,name,postcode,management,pupils_total_2022_23,religion_protestant_est_mid_2022_23,religion_catholic_est_mid_2022_23,religion_other_est_mid_2022_23,pcd,lat,lon,color,color_string,red,green,blue,radius
101-0012,Belmont Primary School ,BT42AG,Controlled,254.0,112.0,13.0,129.0,BT42AG,54.598815,-5.867075,"(1.0, 0.4980392156862745, 0.054901960784313725)",#ff7f0e80,255,127,14,159.37377450509229
101-0063,Currie Primary School ,BT153AB,Controlled,211.0,98.0,9.0,104.0,BT153AB,54.615987,-5.930782,"(1.0, 0.4980392156862745, 0.054901960784313725)",#ff7f0e80,255,127,14,145.25839046333948
101-0146,Euston Street Primary School ,BT69AG,Controlled,344.0,148.0,37.0,159.0,BT69AG,54.588914,-5.898412,"(1.0, 0.4980392156862745, 0.054901960784313725)",#ff7f0e80,255,127,14,185.47236990991408
101-0157,Rosetta Primary School ,BT60JA,Controlled,300.0,92.0,34.0,174.0,BT60JA,54.570179,-5.91184,"(1.0, 0.4980392156862745, 0.054901960784313725)",#ff7f0e80,255,127,14,173.20508075688775
101-0205,Forth River Primary School ,BT133PQ,Controlled,213.0,133.0,0.0,80.0,BT133PQ,54.61246,-5.969755,"(1.0, 0.4980392156862745, 0.054901960784313725)",#ff7f0e80,255,127,14,145.94519519326423
101-0221,Springfield Primary School ,BT127DJ,Controlled,175.0,153.0,0.0,22.0,BT127DJ,54.601149,-5.969327,"(1.0, 0.4980392156862745, 0.054901960784313725)",#ff7f0e80,255,127,14,132.2875655532295
101-0252,Strandtown Primary School ,BT43DJ,Controlled,970.0,480.0,73.0,417.0,BT43DJ,54.597401,-5.875551,"(1.0, 0.4980392156862745, 0.054901960784313725)",#ff7f0e80,255,127,14,311.44823004794875
101-0255,Elmgrove Primary School ,BT54RS,Controlled,616.0,324.0,45.0,247.0,BT54RS,54.591444,-5.893547,"(1.0, 0.4980392156862745, 0.054901960784313725)",#ff7f0e80,255,127,14,248.19347291981714
101-0266,Seaview Primary School ,BT153NB,Controlled,465.0,187.0,26.0,252.0,BT153NB,54.626744,-5.927231,"(1.0, 0.4980392156862745, 0.054901960784313725)",#ff7f0e80,255,127,14,215.63858652847824
101-0267,Nettlefield Primary School ,BT68BG,Controlled,410.0,225.0,52.0,133.0,BT68BG,54.592931,-5.906235,"(1.0, 0.4980392156862745, 0.054901960784313725)",#ff7f0e80,255,127,14,202.48456731316588
101-0273,Orangefield Primary School ,BT56BA,Controlled,466.0,227.0,14.0,225.0,BT56BA,54.58303,-5.879935,"(1.0, 0.4980392156862745, 0.054901960784313725)",#ff7f0e80,255,127,14,215.870331449229
101-0282,Carr's Glen Primary School ,BT146QX,Controlled,330.0,197.0,9.0,124.0,BT146QX,54.62434,-5.961854,"(1.0, 0.4980392156862745, 0.054901960784313725)",#ff7f0e80,255,127,14,181.6590212458495
101-0301,Taughmonagh Primary School ,BT96QL,Controlled,266.0,147.0,22.0,97.0,BT96QL,54.559872,-5.967716,"(1.0, 0.4980392156862745, 0.054901960784313725)",#ff7f0e80,255,127,14,163.0950643030009
101-0304,Greenwood Primary School & Nursery,BT43HS,Controlled,304.0,105.0,15.0,184.0,BT43HS,54.59561,-5.861099,"(1.0, 0.4980392156862745, 0.054901960784313725)",#ff7f0e80,255,127,14,174.35595774162695
101-0307,Springhill Primary School ,BT133NH,Controlled,189.0,122.0,2.0,65.0,BT133NH,54.605993,-5.978496,"(1.0, 0.4980392156862745, 0.054901960784313725)",#ff7f0e80,255,127,14,137.4772708486752
101-0323,Edenbrooke Primary School ,BT133GG,Controlled,372.0,332.0,2.0,38.0,BT133GG,54.609933,-5.953627,"(1.0, 0.4980392156862745, 0.054901960784313725)",#ff7f0e80,255,127,14,192.8730152198591
101-0324,Stranmillis Primary School ,BT95EH,Controlled,470.0,51.0,152.0,267.0,BT95EH,54.567386,-5.937621,"(1.0, 0.4980392156862745, 0.054901960784313725)",#ff7f0e80,255,127,14,216.794833886788
101-0325,Ligoniel Primary School ,BT148BW,Controlled,198.0,116.0,7.0,75.0,BT148BW,54.62425,-5.978984,"(1.0, 0.4980392156862745, 0.054901960784313725)",#ff7f0e80,255,127,14,140.71247279470288
101-0806,Finaghy Primary School ,BT100DR,Controlled,391.0,190.0,34.0,167.0,BT100DR,54.560269,-5.983898,"(1.0, 0.4980392156862745, 0.054901960784313725)",#ff7f0e80,255,127,14,197.7371993328519
101-0831,Cavehill Primary School ,BT155FG,Controlled,400.0,197.0,61.0,142.0,BT155FG,54.635449,-5.947218,"(1.0, 0.4980392156862745, 0.054901960784313725)",#ff7f0e80,255,127,14,200.0
101-3018,Knocknagoney Primary School ,BT42NR,Controlled,258.0,135.0,15.0,108.0,BT42NR,54.618774,-5.85352,"(1.0, 0.4980392156862745, 0.054901960784313725)",#ff7f0e80,255,127,14,160.6237840420901
101-6059,Blackmountain Primary School ,BT133TT,Controlled,188.0,140.0,0.0,48.0,BT133TT,54.600382,-5.978248,"(1.0, 0.4980392156862745, 0.054901960784313725)",#ff7f0e80,255,127,14,137.11309200802089
101-6060,Donegall Road Primary School ,BT126HE,Controlled,210.0,96.0,2.0,112.0,BT126HE,54.589134,-5.95317,"(1.0, 0.4980392156862745, 0.054901960784313725)",#ff7f0e80,255,127,14,144.9137674618944
101-6076,Ballysillan Primary School ,BT148LT,Controlled,236.0,170.0,2.0,64.0,BT148LT,54.630789,-5.969197,"(1.0, 0.4980392156862745, 0.054901960784313725)",#ff7f0e80,255,127,14,153.62291495737216
101-6205,Fane Street Primary School ,BT97BW,Controlled,324.0,68.0,16.0,240.0,BT97BW,54.585229,-5.951262,"(1.0, 0.4980392156862745, 0.054901960784313725)",#ff7f0e80,255,127,14,180.0
101-6207,Blythefield Primary School ,BT125HX,Controlled,197.0,160.0,2.0,35.0,BT125HX,54.590606,-5.940935,"(1.0, 0.4980392156862745, 0.054901960784313725)",#ff7f0e80,255,127,14,140.356688476182
101-6242,Dundela Infants School,BT43BL,Controlled,278.0,113.0,22.0,143.0,BT43BL,54.599769,-5.876341,"(1.0, 0.4980392156862745, 0.054901960784313725)",#ff7f0e80,255,127,14,166.73332000533065
101-6485,Glenwood Primary School ,BT133GW,Controlled,523.0,437.0,11.0,75.0,BT133GW,54.605844,-5.956231,"(1.0, 0.4980392156862745, 0.054901960784313725)",#ff7f0e80,255,127,14,228.69193252058545
101-6498,Malvern Primary School ,BT131HW,Controlled,157.0,68.0,2.0,87.0,BT131HW,54.606006,-5.944089,"(1.0, 0.4980392156862745, 0.054901960784313725)",#ff7f0e80,255,127,14,125.29964086141668
101-6499,Botanic Primary School ,BT71QY,Controlled,224.0,53.0,18.0,153.0,BT71QY,54.582133,-5.929312,"(1.0, 0.4980392156862745, 0.054901960784313725)",#ff7f0e80,255,127,14,149.66629547095766
101-6532,Wheatfield Primary School ,BT147JE,Controlled,171.0,93.0,2.0,76.0,BT147JE,54.61958,-5.963036,"(1.0, 0.4980392156862745, 0.054901960784313725)",#ff7f0e80,255,127,14,130.7669683062202
101-6537,Lowwood Primary School ,BT154BL,Controlled,237.0,116.0,11.0,110.0,BT154BL,54.634469,-5.924499,"(1.0, 0.4980392156862745, 0.054901960784313725)",#ff7f0e80,255,127,14,153.94804318340653
101-6604,Harmony Primary School ,BT133SY,Controlled,284.0,247.0,2.0,35.0,BT133SY,54.615422,-5.982998,"(1.0, 0.4980392156862745, 0.054901960784313725)",#ff7f0e80,255,127,14,168.5229954635272
101-6647,Bunscoil Mhic Reachtain,BT151EZ,Controlled,68.0,0.0,66.0,2.0,BT151EZ,54.606314,-5.929988,"(1.0, 0.4980392156862745, 0.054901960784313725)",#ff7f0e80,255,127,14,82.46211251235322
101-6655,Victoria Park Primary School,BT41LX,Controlled,383.0,229.0,16.0,138.0,BT41LX,54.604443,-5.882118,"(1.0, 0.4980392156862745, 0.054901960784313725)",#ff7f0e80,255,127,14,195.70385790780927
103-0194,Holy Cross Boys' Primary School ,BT147EX,Roman Catholic Maintained,401.0,0.0,399.0,2.0,BT147EX,54.613824,-5.95902,"(0.17254901960784313, 0.6274509803921569, 0.17254901960784313)",#2ca02c80,44,160,44,200.24984394500788
103-0313,Our Lady of Lourdes Primary School ,BT155GQ,Roman Catholic Maintained,618.0,2.0,583.0,33.0,BT155GQ,54.645265,-5.936343,"(0.17254901960784313, 0.6274509803921569, 0.17254901960784313)",#2ca02c80,44,160,44,248.59605789312104
103-0326,Our Lady's Girls' Primary School ,BT146NN,Roman Catholic Maintained,215.0,0.0,202.0,13.0,BT146NN,54.622333,-5.954723,"(0.17254901960784313, 0.6274509803921569, 0.17254901960784313)",#2ca02c80,44,160,44,146.6287829861518
103-0327,Holy Rosary Primary School ,BT73DB,Roman Catholic Maintained,469.0,25.0,221.0,223.0,BT73DB,54.575726,-5.924069,"(0.17254901960784313, 0.6274509803921569, 0.17254901960784313)",#2ca02c80,44,160,44,216.56407827707713
103-0331,Holy Cross Girls' Primary School ,BT147HZ,Roman Catholic Maintained,195.0,2.0,187.0,6.0,BT147HZ,54.619665,-5.968111,"(0.17254901960784313, 0.6274509803921569, 0.17254901960784313)",#2ca02c80,44,160,44,139.64240043768942
103-0868,St Anne's Primary School ,BT100NE,Roman Catholic Maintained,882.0,2.0,804.0,76.0,BT100NE,54.553711,-5.99478,"(0.17254901960784313, 0.6274509803921569, 0.17254901960784313)",#2ca02c80,44,160,44,296.98484809834997
103-6041,Mercy Primary School ,BT147GL,Roman Catholic Maintained,233.0,0.0,218.0,15.0,BT147GL,54.616832,-5.970079,"(0.17254901960784313, 0.6274509803921569, 0.17254901960784313)",#2ca02c80,44,160,44,152.64337522473747
103-6042,St Vincent de Paul Primary School ,BT148DP,Roman Catholic Maintained,289.0,5.0,261.0,23.0,BT148DP,54.626198,-5.98375,"(0.17254901960784313, 0.6274509803921569, 0.17254901960784313)",#2ca02c80,44,160,44,170.0
103-6048,St Mary's Star of the Sea Primary School ,BT154HL,Roman Catholic Maintained,134.0,2.0,120.0,12.0,BT154HL,54.64153,-5.92493,"(0.17254901960784313, 0.6274509803921569, 0.17254901960784313)",#2ca02c80,44,160,44,115.75836902790226
103-6075,St Bride's Primary School ,BT96FP,Roman Catholic Maintained,855.0,29.0,567.0,259.0,BT96FP,54.578167,-5.943836,"(0.17254901960784313, 0.6274509803921569, 0.17254901960784313)",#2ca02c80,44,160,44,292.4038303442689
103-6132,St Therese of Lisieux Primary School ,BT155GF,Roman Catholic Maintained,420.0,2.0,385.0,33.0,BT155GF,54.630367,-5.938957,"(0.17254901960784313, 0.6274509803921569, 0.17254901960784313)",#2ca02c80,44,160,44,204.93901531919195
103-6140,St Michael's Primary School ,BT60BW,Roman Catholic Maintained,416.0,2.0,365.0,49.0,BT60BW,54.579297,-5.91224,"(0.17254901960784313, 0.6274509803921569, 0.17254901960784313)",#2ca02c80,44,160,44,203.9607805437114
103-6246,St Joseph's Primary School ,BT56EH,Roman Catholic Maintained,385.0,6.0,309.0,70.0,BT56EH,54.594685,-5.870834,"(0.17254901960784313, 0.6274509803921569, 0.17254901960784313)",#2ca02c80,44,160,44,196.21416870348583
103-6388,"St Mary's Primary School, Divis Street",BT124AL,Roman Catholic Maintained,135.0,26.0,45.0,64.0,BT124AL,54.599591,-5.938794,"(0.17254901960784313, 0.6274509803921569, 0.17254901960784313)",#2ca02c80,44,160,44,116.1895003862225
103-6466,St Malachy's Primary School ,BT72BJ,Roman Catholic Maintained,392.0,2.0,188.0,202.0,BT72BJ,54.593294,-5.923624,"(0.17254901960784313, 0.6274509803921569, 0.17254901960784313)",#2ca02c80,44,160,44,197.9898987322333
103-6471,Sacred Heart Primary School ,BT146HH,Roman Catholic Maintained,158.0,2.0,145.0,11.0,BT146HH,54.616187,-5.949969,"(0.17254901960784313, 0.6274509803921569, 0.17254901960784313)",#2ca02c80,44,160,44,125.69805089976535
103-6505,St Matthew's Primary School ,BT54EW,Roman Catholic Maintained,334.0,2.0,252.0,80.0,BT54EW,54.599014,-5.906743,"(0.17254901960784313, 0.6274509803921569, 0.17254901960784313)",#2ca02c80,44,160,44,182.75666882497066
103-6565,St Kevin's Primary School ,BT126EN,Roman Catholic Maintained,564.0,2.0,468.0,94.0,BT126EN,54.588061,-5.97004,"(0.17254901960784313, 0.6274509803921569, 0.17254901960784313)",#2ca02c80,44,160,44,237.48684174075834
103-6566,Holy Family Primary School ,BT152HP,Roman Catholic Maintained,486.0,2.0,394.0,90.0,BT152HP,54.615547,-5.935015,"(0.17254901960784313, 0.6274509803921569, 0.17254901960784313)",#2ca02c80,44,160,44,220.45407685048602
103-6576,Holy Child Primary School ,BT118JF,Roman Catholic Maintained,493.0,0.0,491.0,2.0,BT118JF,54.576323,-5.991334,"(0.17254901960784313, 0.6274509803921569, 0.17254901960784313)",#2ca02c80,44,160,44,222.03603311174518
103-6589,St Teresa's Primary School ,BT118BL,Roman Catholic Maintained,612.0,0.0,576.0,36.0,BT118BL,54.581356,-5.989771,"(0.17254901960784313, 0.6274509803921569, 0.17254901960784313)",#2ca02c80,44,160,44,247.3863375370596
103-6602,St Oliver Plunkett Primary School ,BT118AY,Roman Catholic Maintained,643.0,2.0,632.0,9.0,BT118AY,54.576265,-6.013392,"(0.17254901960784313, 0.6274509803921569, 0.17254901960784313)",#2ca02c80,44,160,44,253.57444666211933
103-6620,St Peter's Primary School ,BT124JD,Roman Catholic Maintained,295.0,2.0,291.0,2.0,BT124JD,54.597812,-5.947287,"(0.17254901960784313, 0.6274509803921569, 0.17254901960784313)",#2ca02c80,44,160,44,171.75564037317667
103-6621,St Joseph's Primary School ,BT124LD,Roman Catholic Maintained,334.0,2.0,269.0,63.0,BT124LD,54.595862,-5.946689,"(0.17254901960784313, 0.6274509803921569, 0.17254901960784313)",#2ca02c80,44,160,44,182.75666882497066
103-6623,Holy Trinity Primary School ,BT118EG,Roman Catholic Maintained,640.0,2.0,630.0,8.0,BT118EG,54.587676,-5.992709,"(0.17254901960784313, 0.6274509803921569, 0.17254901960784313)",#2ca02c80,44,160,44,252.98221281347037
103-6624,St Paul's Primary School ,BT127NN,Roman Catholic Maintained,372.0,2.0,266.0,104.0,BT127NN,54.595691,-5.967959,"(0.17254901960784313, 0.6274509803921569, 0.17254901960784313)",#2ca02c80,44,160,44,192.8730152198591
103-6630,St Clare's Primary School,BT132SE,Roman Catholic Maintained,470.0,9.0,369.0,92.0,BT132SE,54.601173,-5.959514,"(0.17254901960784313, 0.6274509803921569, 0.17254901960784313)",#2ca02c80,44,160,44,216.794833886788
103-6688,St John the Baptist Primary School ,BT119EH,Roman Catholic Maintained,385.0,2.0,363.0,20.0,BT119EH,54.571853,-5.994307,"(0.17254901960784313, 0.6274509803921569, 0.17254901960784313)",#2ca02c80,44,160,44,196.21416870348583
103-6697,John Paul II Primary School ,BT127FW,Roman Catholic Maintained,326.0,0.0,312.0,14.0,BT127FW,54.594043,-5.987119,"(0.17254901960784313, 0.6274509803921569, 0.17254901960784313)",#2ca02c80,44,160,44,180.55470085267788
103-6698,St Patricks Primary School,BT152BP,Roman Catholic Maintained,438.0,2.0,357.0,79.0,BT152BP,54.609663,-5.935127,"(0.17254901960784313, 0.6274509803921569, 0.17254901960784313)",#2ca02c80,44,160,44,209.2844953645635
104-6501,Bunscoil Phobal Feirste,BT119QS,Other Maintained,423.0,0.0,387.0,36.0,BT119QS,54.574239,-6.004938,"(0.17254901960784313, 0.6274509803921569, 0.17254901960784313)",#2ca02c80,44,160,44,205.66963801203133
104-6571,Gaelscoil na BhFál,BT126AW,Other Maintained,219.0,0.0,195.0,24.0,BT126AW,54.590618,-5.96176,"(0.17254901960784313, 0.6274509803921569, 0.17254901960784313)",#2ca02c80,44,160,44,147.9864858694874
104-6593,Bunscoil An Tsleibhe Dhuibh,BT127JL,Other Maintained,215.0,0.0,196.0,19.0,BT127JL,54.592225,-5.980463,"(0.17254901960784313, 0.6274509803921569, 0.17254901960784313)",#2ca02c80,44,160,44,146.6287829861518
104-6596,Naíscoil & Bunscoil Bheann Mhadagáin,BT146HP,Other Maintained,202.0,0.0,190.0,12.0,BT146HP,54.616937,-5.949653,"(0.17254901960784313, 0.6274509803921569, 0.17254901960784313)",#2ca02c80,44,160,44,142.12670403551894
104-6641,Scoil an Droichid,BT72EP,Other Maintained,188.0,2.0,133.0,53.0,BT72EP,54.588406,-5.922093,"(0.17254901960784313, 0.6274509803921569, 0.17254901960784313)",#2ca02c80,44,160,44,137.11309200802089
104-6671,Gaelscoil na Móna,BT118QB,Other Maintained,117.0,0.0,115.0,2.0,BT118QB,54.586173,-5.993123,"(0.17254901960784313, 0.6274509803921569, 0.17254901960784313)",#2ca02c80,44,160,44,108.16653826391969
104-6672,Gaelscoil an Lonnain,BT124PD,Other Maintained,52.0,0.0,50.0,2.0,BT124PD,54.598146,-5.952671,"(0.17254901960784313, 0.6274509803921569, 0.17254901960784313)",#2ca02c80,44,160,44,72.11102550927978
105-0232,Harding Memorial Integrated Primary School ,BT68PZ,Controlled Integrated,224.0,66.0,40.0,118.0,BT68PZ,54.582608,-5.89852,"(0.12156862745098039, 0.4666666666666667, 0.7058823529411765)",#1f77b480,31,119,180,149.66629547095766
105-6483,Cliftonville Integrated Primary School ,BT146JQ,Controlled Integrated,409.0,95.0,158.0,156.0,BT146JQ,54.617719,-5.946517,"(0.12156862745098039, 0.4666666666666667, 0.7058823529411765)",#1f77b480,31,119,180,202.23748416156684
105-6535,Forge Integrated Primary School ,BT73HE,Controlled Integrated,393.0,81.0,130.0,182.0,BT73HE,54.571426,-5.914854,"(0.12156862745098039, 0.4666666666666667, 0.7058823529411765)",#1f77b480,31,119,180,198.2422760159901
106-6531,Hazelwood Integrated Primary School ,BT367EN,Grant Maintained Integrated,447.0,107.0,188.0,152.0,BT367EN,54.653708,-5.930399,"(0.12156862745098039, 0.4666666666666667, 0.7058823529411765)",#1f77b480,31,119,180,211.42374511865972
106-6580,Cranmore Integrated Primary School ,BT100JB,Grant Maintained Integrated,229.0,91.0,90.0,48.0,BT100JB,54.567245,-5.9836,"(0.12156862745098039, 0.4666666666666667, 0.7058823529411765)",#1f77b480,31,119,180,151.32745950421557
201-0380,Londonderry Model Primary School ,BT487HJ,Controlled,274.0,13.0,171.0,90.0,BT487HJ,55.001857,-7.327068,"(1.0, 0.4980392156862745, 0.054901960784313725)",#ff7f0e80,255,127,14,165.52945357246847
201-0382,Ebrington Primary and Nursery School,BT476LR,Controlled,468.0,305.0,31.0,132.0,BT476LR,55.00355,-7.294566,"(1.0, 0.4980392156862745, 0.054901960784313725)",#ff7f0e80,255,127,14,216.33307652783938
201-1787,Kesh Primary School ,BT931RF,Controlled,242.0,198.0,13.0,31.0,BT931RF,54.5185,-7.724128,"(1.0, 0.4980392156862745, 0.054901960784313725)",#ff7f0e80,255,127,14,155.56349186104046
201-1789,Moat Primary School ,BT920JH,Controlled,131.0,110.0,2.0,19.0,BT920JH,54.250571,-7.441829,"(1.0, 0.4980392156862745, 0.054901960784313725)",#ff7f0e80,255,127,14,114.45523142259597
201-1860,Belleek Primary School ,BT933EZ,Controlled,38.0,27.0,2.0,9.0,BT933EZ,54.478584,-8.088848,"(1.0, 0.4980392156862745, 0.054901960784313725)",#ff7f0e80,255,127,14,61.64414002968976
201-1873,Aghadrumsee Primary School ,BT927AU,Controlled,35.0,33.0,0.0,2.0,BT927AU,54.228318,-7.273448,"(1.0, 0.4980392156862745, 0.054901960784313725)",#ff7f0e80,255,127,14,59.16079783099616
201-1879,Newtownbutler Primary School ,BT928JE,Controlled,34.0,32.0,0.0,2.0,BT928JE,54.184655,-7.363636,"(1.0, 0.4980392156862745, 0.054901960784313725)",#ff7f0e80,255,127,14,58.309518948453004
201-1881,Florencecourt Primary School ,BT921BZ,Controlled,139.0,102.0,6.0,31.0,BT921BZ,54.267656,-7.705226,"(1.0, 0.4980392156862745, 0.054901960784313725)",#ff7f0e80,255,127,14,117.89826122551595
201-1893,Ballinamallard Primary School ,BT942NY,Controlled,156.0,103.0,11.0,42.0,BT942NY,54.423759,-7.595463,"(1.0, 0.4980392156862745, 0.054901960784313725)",#ff7f0e80,255,127,14,124.89995996796796
201-1894,Brookeborough Primary School ,BT944EZ,Controlled,67.0,60.0,0.0,7.0,BT944EZ,54.315124,-7.405276,"(1.0, 0.4980392156862745, 0.054901960784313725)",#ff7f0e80,255,127,14,81.85352771872451
201-1899,Derrygonnelly Primary School ,BT936HY,Controlled,61.0,59.0,0.0,2.0,BT936HY,54.418231,-7.814745,"(1.0, 0.4980392156862745, 0.054901960784313725)",#ff7f0e80,255,127,14,78.10249675906654
201-2052,Culmore Primary School ,BT488JH,Controlled,56.0,16.0,31.0,9.0,BT488JH,55.047404,-7.2733,"(1.0, 0.4980392156862745, 0.054901960784313725)",#ff7f0e80,255,127,14,74.83314773547883
201-2095,Ballougry Primary School ,BT489XN,Controlled,45.0,6.0,21.0,18.0,BT489XN,54.973231,-7.381453,"(1.0, 0.4980392156862745, 0.054901960784313725)",#ff7f0e80,255,127,14,67.0820393249937
201-2227,Drumahoe Primary School ,BT473SD,Controlled,289.0,240.0,2.0,47.0,BT473SD,54.978992,-7.274787,"(1.0, 0.4980392156862745, 0.054901960784313725)",#ff7f0e80,255,127,14,170.0
201-2245,Eglinton Primary School ,BT473AH,Controlled,204.0,112.0,26.0,66.0,BT473AH,55.022296,-7.181148,"(1.0, 0.4980392156862745, 0.054901960784313725)",#ff7f0e80,255,127,14,142.82856857085702
201-2261,Newbuildings Primary School ,BT472RL,Controlled,193.0,168.0,2.0,23.0,BT472RL,54.959422,-7.358562,"(1.0, 0.4980392156862745, 0.054901960784313725)",#ff7f0e80,255,127,14,138.92443989449805
201-2298,Ballykelly Primary School ,BT499JS,Controlled,288.0,101.0,153.0,34.0,BT499JS,55.036151,-7.018907,"(1.0, 0.4980392156862745, 0.054901960784313725)",#ff7f0e80,255,127,14,169.70562748477138
201-2344,Mcclintock Primary School ,BT781UQ,Controlled,117.0,84.0,13.0,20.0,BT781UQ,54.516792,-7.252568,"(1.0, 0.4980392156862745, 0.054901960784313725)",#ff7f0e80,255,127,14,108.16653826391969
201-2638,Edwards Primary School ,BT817HY,Controlled,237.0,217.0,2.0,18.0,BT817HY,54.712165,-7.587335,"(1.0, 0.4980392156862745, 0.054901960784313725)",#ff7f0e80,255,127,14,153.94804318340653
201-2641,Killen Primary School ,BT817SD,Controlled,136.0,106.0,0.0,30.0,BT817SD,54.676376,-7.62298,"(1.0, 0.4980392156862745, 0.054901960784313725)",#ff7f0e80,255,127,14,116.61903789690601
201-2648,Gillygooley Primary School ,BT785PX,Controlled,23.0,18.0,0.0,5.0,BT785PX,54.611252,-7.386787,"(1.0, 0.4980392156862745, 0.054901960784313725)",#ff7f0e80,255,127,14,47.958315233127195
201-2660,Denamona Primary School ,BT782BN,Controlled,85.0,52.0,5.0,28.0,BT782BN,54.497618,-7.312571,"(1.0, 0.4980392156862745, 0.054901960784313725)",#ff7f0e80,255,127,14,92.19544457292886
201-2669,Queen Elizabeth II Primary School ,BT783RJ,Controlled,42.0,40.0,0.0,2.0,BT783RJ,54.442087,-7.538532,"(1.0, 0.4980392156862745, 0.054901960784313725)",#ff7f0e80,255,127,14,64.8074069840786
201-2671,Langfield Primary School ,BT784PG,Controlled,22.0,20.0,0.0,2.0,BT784PG,54.616985,-7.493971,"(1.0, 0.4980392156862745, 0.054901960784313725)",#ff7f0e80,255,127,14,46.9041575982343
201-2691,Omagh County Primary School ,BT790AJ,Controlled,370.0,229.0,50.0,91.0,BT790AJ,54.600998,-7.292169,"(1.0, 0.4980392156862745, 0.054901960784313725)",#ff7f0e80,255,127,14,192.35384061671343
201-2707,Dromore Primary School ,BT783EE,Controlled,46.0,38.0,4.0,4.0,BT783EE,54.510784,-7.454496,"(1.0, 0.4980392156862745, 0.054901960784313725)",#ff7f0e80,255,127,14,67.82329983125268
201-2708,Strabane Primary School,BT828DX,Controlled,270.0,66.0,166.0,38.0,BT828DX,54.83205,-7.461078,"(1.0, 0.4980392156862745, 0.054901960784313725)",#ff7f0e80,255,127,14,164.31676725154983
201-2711,Donemana Primary School ,BT820PH,Controlled,112.0,73.0,2.0,37.0,BT820PH,54.877979,-7.302308,"(1.0, 0.4980392156862745, 0.054901960784313725)",#ff7f0e80,255,127,14,105.83005244258362
201-6003,Jones Memorial Primary School ,BT745QF,Controlled,140.0,64.0,43.0,33.0,BT745QF,54.328868,-7.656817,"(1.0, 0.4980392156862745, 0.054901960784313725)",#ff7f0e80,255,127,14,118.32159566199232
201-6029,Drumachose Primary School ,BT490BS,Controlled,399.0,247.0,46.0,106.0,BT490BS,55.051176,-6.94439,"(1.0, 0.4980392156862745, 0.054901960784313725)",#ff7f0e80,255,127,14,199.74984355438178
201-6068,Artigarvan Primary School ,BT820HN,Controlled,168.0,128.0,11.0,29.0,BT820HN,54.855847,-7.407479,"(1.0, 0.4980392156862745, 0.054901960784313725)",#ff7f0e80,255,127,14,129.6148139681572
201-6071,Greenhaw Primary School ,BT488BA,Controlled,324.0,7.0,301.0,16.0,BT488BA,55.021889,-7.317524,"(1.0, 0.4980392156862745, 0.054901960784313725)",#ff7f0e80,255,127,14,180.0
201-6089,Gibson Primary School ,BT797EG,Controlled,327.0,179.0,64.0,84.0,BT797EG,54.604154,-7.29572,"(1.0, 0.4980392156862745, 0.054901960784313725)",#ff7f0e80,255,127,14,180.83141320025123
201-6102,Tempo Primary School ,BT943LU,Controlled,81.0,52.0,2.0,27.0,BT943LU,54.377149,-7.461287,"(1.0, 0.4980392156862745, 0.054901960784313725)",#ff7f0e80,255,127,14,90.0
201-6124,Ashlea Primary School ,BT473QT,Controlled,101.0,92.0,0.0,9.0,BT473QT,54.973507,-7.287503,"(1.0, 0.4980392156862745, 0.054901960784313725)",#ff7f0e80,255,127,14,100.4987562112089
201-6127,Maguiresbridge Primary School ,BT944PJ,Controlled,125.0,106.0,2.0,17.0,BT944PJ,54.301344,-7.481555,"(1.0, 0.4980392156862745, 0.054901960784313725)",#ff7f0e80,255,127,14,111.80339887498948
201-6151,Irvinestown Primary School ,BT941DY,Controlled,162.0,104.0,26.0,32.0,BT941DY,54.472202,-7.642599,"(1.0, 0.4980392156862745, 0.054901960784313725)",#ff7f0e80,255,127,14,127.27922061357856
201-6152,Enniskillen Model Primary School ,BT746HZ,Controlled,423.0,224.0,68.0,131.0,BT746HZ,54.341165,-7.620475,"(1.0, 0.4980392156862745, 0.054901960784313725)",#ff7f0e80,255,127,14,205.66963801203133
201-6184,Lack Primary School ,BT930BU,Controlled,25.0,23.0,0.0,2.0,BT930BU,54.546551,-7.579352,"(1.0, 0.4980392156862745, 0.054901960784313725)",#ff7f0e80,255,127,14,50.0
201-6203,Lisnagelvin Primary School ,BT475QZ,Controlled,567.0,293.0,97.0,177.0,BT475QZ,54.99271,-7.290194,"(1.0, 0.4980392156862745, 0.054901960784313725)",#ff7f0e80,255,127,14,238.11761799581316
201-6218,Lisbellaw Primary School ,BT945BF,Controlled,211.0,180.0,2.0,29.0,BT945BF,54.313563,-7.541601,"(1.0, 0.4980392156862745, 0.054901960784313725)",#ff7f0e80,255,127,14,145.25839046333948
201-6262,Newtownstewart Model Primary School ,BT784EX,Controlled,64.0,48.0,0.0,16.0,BT784EX,54.717583,-7.393252,"(1.0, 0.4980392156862745, 0.054901960784313725)",#ff7f0e80,255,127,14,80.0
201-6372,Cumber Claudy Primary School ,BT474HX,Controlled,151.0,121.0,9.0,21.0,BT474HX,54.911407,-7.16597,"(1.0, 0.4980392156862745, 0.054901960784313725)",#ff7f0e80,255,127,14,122.88205727444507
201-6395,Gortin Primary School ,BT798QB,Controlled,67.0,56.0,2.0,9.0,BT798QB,54.721979,-7.232268,"(1.0, 0.4980392156862745, 0.054901960784313725)",#ff7f0e80,255,127,14,81.85352771872451
201-6426,Limavady Central Primary School ,BT490NB,Controlled,326.0,218.0,28.0,80.0,BT490NB,55.040775,-6.937312,"(1.0, 0.4980392156862745, 0.054901960784313725)",#ff7f0e80,255,127,14,180.55470085267788
201-6442,Sion Mills Primary School ,BT829HP,Controlled,235.0,61.0,160.0,14.0,BT829HP,54.784039,-7.47395,"(1.0, 0.4980392156862745, 0.054901960784313725)",#ff7f0e80,255,127,14,153.29709716755892
201-6564,Fountain Primary School ,BT486RE,Controlled,72.0,48.0,5.0,19.0,BT486RE,54.992945,-7.320312,"(1.0, 0.4980392156862745, 0.054901960784313725)",#ff7f0e80,255,127,14,84.85281374238569
201-6645,Bready Jubilee Primary School ,BT820DN,Controlled,123.0,101.0,2.0,20.0,BT820DN,54.922304,-7.424609,"(1.0, 0.4980392156862745, 0.054901960784313725)",#ff7f0e80,255,127,14,110.90536506409418
201-6656,Drumrane Primary School,BT474NL,Controlled,140.0,120.0,2.0,18.0,BT474NL,54.969592,-6.939161,"(1.0, 0.4980392156862745, 0.054901960784313725)",#ff7f0e80,255,127,14,118.32159566199232
201-6663,Cooley Primary School ,BT799DH,Controlled,102.0,83.0,12.0,7.0,BT799DH,54.556212,-7.124179,"(1.0, 0.4980392156862745, 0.054901960784313725)",#ff7f0e80,255,127,14,100.99504938362077
201-6700,Gaelscoil Neachtain ,BT474RF,Controlled,149.0,0.0,147.0,2.0,BT474RF,54.960912,-6.920609,"(1.0, 0.4980392156862745, 0.054901960784313725)",#ff7f0e80,255,127,14,122.06555615733703
201-6701,Ardstraw Jubilee Primary School ,BT784LA,Controlled,85.0,55.0,0.0,30.0,BT784LA,54.730514,-7.437064,"(1.0, 0.4980392156862745, 0.054901960784313725)",#ff7f0e80,255,127,14,92.19544457292886
203-0364,Rosemount Primary School ,BT489DD,Roman Catholic Maintained,380.0,0.0,374.0,6.0,BT489DD,55.00123,-7.333908,"(0.17254901960784313, 0.6274509803921569, 0.17254901960784313)",#2ca02c80,44,160,44,194.93588689617926
203-0373,Nazareth House Primary School ,BT486UN,Roman Catholic Maintained,235.0,0.0,233.0,2.0,BT486UN,54.990118,-7.328968,"(0.17254901960784313, 0.6274509803921569, 0.17254901960784313)",#2ca02c80,44,160,44,153.29709716755892
203-0381,Holy Child Primary School ,BT489QQ,Roman Catholic Maintained,317.0,0.0,315.0,2.0,BT489QQ,54.995642,-7.345406,"(0.17254901960784313, 0.6274509803921569, 0.17254901960784313)",#2ca02c80,44,160,44,178.04493814764857
203-1828,St Patrick's Primary School ,BT943AD,Roman Catholic Maintained,184.0,0.0,176.0,8.0,BT943AD,54.354685,-7.561968,"(0.17254901960784313, 0.6274509803921569, 0.17254901960784313)",#2ca02c80,44,160,44,135.64659966250537
203-1863,Tattygar Primary School ,BT945GT,Roman Catholic Maintained,67.0,0.0,65.0,2.0,BT945GT,54.323129,-7.534164,"(0.17254901960784313, 0.6274509803921569, 0.17254901960784313)",#2ca02c80,44,160,44,81.85352771872451
203-1868,St Tierney's Primary School ,BT927JS,Roman Catholic Maintained,126.0,2.0,122.0,2.0,BT927JS,54.244237,-7.179598,"(0.17254901960784313, 0.6274509803921569, 0.17254901960784313)",#2ca02c80,44,160,44,112.24972160321825
203-1869,St Mary's Primary School ,BT928JJ,Roman Catholic Maintained,178.0,2.0,174.0,2.0,BT928JJ,54.176603,-7.361462,"(0.17254901960784313, 0.6274509803921569, 0.17254901960784313)",#2ca02c80,44,160,44,133.41664064126334
203-1874,St Patrick's Primary School ,BT936LR,Roman Catholic Maintained,124.0,0.0,122.0,2.0,BT936LR,54.423359,-7.825537,"(0.17254901960784313, 0.6274509803921569, 0.17254901960784313)",#2ca02c80,44,160,44,111.35528725660043
203-1876,St Mary's Primary School ,BT944HY,Roman Catholic Maintained,66.0,0.0,64.0,2.0,BT944HY,54.31662,-7.402704,"(0.17254901960784313, 0.6274509803921569, 0.17254901960784313)",#2ca02c80,44,160,44,81.24038404635961
203-1880,St Ninnidh's Primary School ,BT929JZ,Roman Catholic Maintained,143.0,2.0,139.0,2.0,BT929JZ,54.195598,-7.586252,"(0.17254901960784313, 0.6274509803921569, 0.17254901960784313)",#2ca02c80,44,160,44,119.58260743101398
203-1884,St Mary's Primary School ,BT923ET,Roman Catholic Maintained,88.0,0.0,86.0,2.0,BT923ET,54.255454,-7.69017,"(0.17254901960784313, 0.6274509803921569, 0.17254901960784313)",#2ca02c80,44,160,44,93.8083151964686
203-1887,St John the Baptist Primary School ,BT933DP,Roman Catholic Maintained,27.0,2.0,25.0,0.0,BT933DP,54.466277,-8.0356,"(0.17254901960784313, 0.6274509803921569, 0.17254901960784313)",#2ca02c80,44,160,44,51.96152422706632
203-1890,St Mary's Primary School ,BT922AB,Roman Catholic Maintained,142.0,0.0,140.0,2.0,BT922AB,54.290964,-7.669003,"(0.17254901960784313, 0.6274509803921569, 0.17254901960784313)",#2ca02c80,44,160,44,119.16375287812984
203-1895,St Mary's Primary School ,BT944RG,Roman Catholic Maintained,151.0,0.0,149.0,2.0,BT944RG,54.289934,-7.464837,"(0.17254901960784313, 0.6274509803921569, 0.17254901960784313)",#2ca02c80,44,160,44,122.88205727444507
203-1897,Killyhommon Primary School ,BT748BZ,Roman Catholic Maintained,70.0,2.0,66.0,2.0,BT748BZ,54.363711,-7.803869,"(0.17254901960784313, 0.6274509803921569, 0.17254901960784313)",#2ca02c80,44,160,44,83.66600265340756
203-1898,St Paul's Primary School ,BT941EY,Roman Catholic Maintained,247.0,6.0,241.0,0.0,BT941EY,54.474003,-7.646918,"(0.17254901960784313, 0.6274509803921569, 0.17254901960784313)",#2ca02c80,44,160,44,157.1623364550171
203-1901,St Ronan's Primary School ,BT920LA,Roman Catholic Maintained,364.0,0.0,358.0,6.0,BT920LA,54.260906,-7.452585,"(0.17254901960784313, 0.6274509803921569, 0.17254901960784313)",#2ca02c80,44,160,44,190.78784028338913
203-2212,Glendermott Primary School ,BT473QZ,Roman Catholic Maintained,202.0,2.0,194.0,6.0,BT473QZ,54.965896,-7.266061,"(0.17254901960784313, 0.6274509803921569, 0.17254901960784313)",#2ca02c80,44,160,44,142.12670403551894
203-2263,St Canice's Primary School ,BT474TW,Roman Catholic Maintained,93.0,0.0,91.0,2.0,BT474TW,54.8857,-7.015088,"(0.17254901960784313, 0.6274509803921569, 0.17254901960784313)",#2ca02c80,44,160,44,96.43650760992955
203-2278,Broadbridge Primary School ,BT473PG,Roman Catholic Maintained,420.0,2.0,399.0,19.0,BT473PG,55.027708,-7.179036,"(0.17254901960784313, 0.6274509803921569, 0.17254901960784313)",#2ca02c80,44,160,44,204.93901531919195
203-2286,St Matthew's Primary School ,BT490PX,Roman Catholic Maintained,104.0,2.0,100.0,2.0,BT490PX,54.985183,-6.856552,"(0.17254901960784313, 0.6274509803921569, 0.17254901960784313)",#2ca02c80,44,160,44,101.9803902718557
203-2287,Termoncanice Primary School ,BT499BH,Roman Catholic Maintained,509.0,0.0,501.0,8.0,BT499BH,55.046781,-6.951358,"(0.17254901960784313, 0.6274509803921569, 0.17254901960784313)",#2ca02c80,44,160,44,225.61028345356956
203-2294,St Mary's Primary School ,BT474DP,Roman Catholic Maintained,133.0,0.0,131.0,2.0,BT474DP,54.867191,-7.077576,"(0.17254901960784313, 0.6274509803921569, 0.17254901960784313)",#2ca02c80,44,160,44,115.32562594670796
203-2573,St Brigid's Primary School ,BT799JA,Roman Catholic Maintained,38.0,0.0,36.0,2.0,BT799JA,54.524815,-7.085406,"(0.17254901960784313, 0.6274509803921569, 0.17254901960784313)",#2ca02c80,44,160,44,61.64414002968976
203-2603,Tummery Primary School ,BT783JZ,Roman Catholic Maintained,29.0,0.0,27.0,2.0,BT783JZ,54.494715,-7.522985,"(0.17254901960784313, 0.6274509803921569, 0.17254901960784313)",#2ca02c80,44,160,44,53.85164807134504
203-2607,St Mary's Primary School ,BT797LT,Roman Catholic Maintained,329.0,0.0,320.0,9.0,BT797LT,54.60895,-7.269869,"(0.17254901960784313, 0.6274509803921569, 0.17254901960784313)",#2ca02c80,44,160,44,181.38357147217053
203-2628,Knocknagor Primary School ,BT783TX,Roman Catholic Maintained,45.0,0.0,43.0,2.0,BT783TX,54.492553,-7.554537,"(0.17254901960784313, 0.6274509803921569, 0.17254901960784313)",#2ca02c80,44,160,44,67.0820393249937
203-2662,St Brigid's Primary School ,BT797PT,Roman Catholic Maintained,66.0,0.0,64.0,2.0,BT797PT,54.651132,-7.172937,"(0.17254901960784313, 0.6274509803921569, 0.17254901960784313)",#2ca02c80,44,160,44,81.24038404635961
203-2676,St Patrick's Primary School ,BT798PU,Roman Catholic Maintained,83.0,0.0,81.0,2.0,BT798PU,54.716106,-7.228345,"(0.17254901960784313, 0.6274509803921569, 0.17254901960784313)",#2ca02c80,44,160,44,91.10433579144299
203-2677,Drumlish Primary School ,BT783BJ,Roman Catholic Maintained,28.0,0.0,26.0,2.0,BT783BJ,54.543814,-7.45424,"(0.17254901960784313, 0.6274509803921569, 0.17254901960784313)",#2ca02c80,44,160,44,52.91502622129181
203-2682,St Eugene's Primary School ,BT829JH,Roman Catholic Maintained,65.0,2.0,61.0,2.0,BT829JH,54.759388,-7.457354,"(0.17254901960784313, 0.6274509803921569, 0.17254901960784313)",#2ca02c80,44,160,44,80.62257748298549
203-2684,St Lawrence's Primary School ,BT782NR,Roman Catholic Maintained,243.0,0.0,241.0,2.0,BT782NR,54.493603,-7.323812,"(0.17254901960784313, 0.6274509803921569, 0.17254901960784313)",#2ca02c80,44,160,44,155.88457268119896
203-2685,St Brigid's Primary School ,BT798LR,Roman Catholic Maintained,24.0,0.0,22.0,2.0,BT798LR,54.780986,-7.08428,"(0.17254901960784313, 0.6274509803921569, 0.17254901960784313)",#2ca02c80,44,160,44,48.98979485566356
203-2688,St Eugene's Primary School ,BT797SN,Roman Catholic Maintained,22.0,0.0,20.0,2.0,BT797SN,54.676899,-7.283284,"(0.17254901960784313, 0.6274509803921569, 0.17254901960784313)",#2ca02c80,44,160,44,46.9041575982343
203-2694,St Caireall's Primary School ,BT817XF,Roman Catholic Maintained,128.0,2.0,124.0,2.0,BT817XF,54.689938,-7.70262,"(0.17254901960784313, 0.6274509803921569, 0.17254901960784313)",#2ca02c80,44,160,44,113.13708498984761
203-2700,St Joseph's Primary School ,BT784QY,Roman Catholic Maintained,140.0,0.0,138.0,2.0,BT784QY,54.611889,-7.488989,"(0.17254901960784313, 0.6274509803921569, 0.17254901960784313)",#2ca02c80,44,160,44,118.32159566199232
203-2704,St Ronan's Recarson Primary School ,BT790NE,Roman Catholic Maintained,119.0,0.0,117.0,2.0,BT790NE,54.595891,-7.235386,"(0.17254901960784313, 0.6274509803921569, 0.17254901960784313)",#2ca02c80,44,160,44,109.08712114635713
203-2705,St Patrick's Primary School ,BT782RJ,Roman Catholic Maintained,110.0,0.0,108.0,2.0,BT782RJ,54.484556,-7.201639,"(0.17254901960784313, 0.6274509803921569, 0.17254901960784313)",#2ca02c80,44,160,44,104.88088481701516
203-2721,Sacred Heart Primary School ,BT781LA,Roman Catholic Maintained,74.0,0.0,72.0,2.0,BT781LA,54.537255,-7.294308,"(0.17254901960784313, 0.6274509803921569, 0.17254901960784313)",#2ca02c80,44,160,44,86.02325267042627
203-2723,Roscavey Primary School ,BT790RE,Roman Catholic Maintained,60.0,0.0,58.0,2.0,BT790RE,54.508016,-7.161058,"(0.17254901960784313, 0.6274509803921569, 0.17254901960784313)",#2ca02c80,44,160,44,77.45966692414834
203-2730,St Columba's Primary School ,BT829QY,Roman Catholic Maintained,105.0,0.0,103.0,2.0,BT829QY,54.793982,-7.530534,"(0.17254901960784313, 0.6274509803921569, 0.17254901960784313)",#2ca02c80,44,160,44,102.46950765959598
203-2731,St Teresa's Primary School ,BT799LG,Roman Catholic Maintained,183.0,0.0,181.0,2.0,BT799LG,54.627131,-7.10262,"(0.17254901960784313, 0.6274509803921569, 0.17254901960784313)",#2ca02c80,44,160,44,135.27749258468683
203-2737,St Colmcille's Primary School ,BT799BE,Roman Catholic Maintained,405.0,0.0,403.0,2.0,BT799BE,54.598316,-7.035423,"(0.17254901960784313, 0.6274509803921569, 0.17254901960784313)",#2ca02c80,44,160,44,201.24611797498108
203-3706,Faughanvale Primary School ,BT473EE,Roman Catholic Maintained,163.0,0.0,161.0,2.0,BT473EE,55.025393,-7.10922,"(0.17254901960784313, 0.6274509803921569, 0.17254901960784313)",#2ca02c80,44,160,44,127.67145334803703
203-3708,St Aidan's Primary School Magilligan,BT490LL,Roman Catholic Maintained,64.0,2.0,60.0,2.0,BT490LL,55.151115,-6.90718,"(0.17254901960784313, 0.6274509803921569, 0.17254901960784313)",#2ca02c80,44,160,44,80.0
203-6008,St Patrick's Primary School ,BT784AQ,Roman Catholic Maintained,104.0,0.0,102.0,2.0,BT784AQ,54.715358,-7.379801,"(0.17254901960784313, 0.6274509803921569, 0.17254901960784313)",#2ca02c80,44,160,44,101.9803902718557
203-6032,St John's Primary School ,BT489PJ,Roman Catholic Maintained,436.0,2.0,432.0,2.0,BT489PJ,54.995505,-7.338315,"(0.17254901960784313, 0.6274509803921569, 0.17254901960784313)",#2ca02c80,44,160,44,208.80613017821102
203-6045,St Canice's Primary School ,BT474SE,Roman Catholic Maintained,282.0,0.0,280.0,2.0,BT474SE,54.922312,-6.91358,"(0.17254901960784313, 0.6274509803921569, 0.17254901960784313)",#2ca02c80,44,160,44,167.92855623746664
203-6069,St Anne's Primary School ,BT480EY,Roman Catholic Maintained,384.0,0.0,382.0,2.0,BT480EY,55.005322,-7.333246,"(0.17254901960784313, 0.6274509803921569, 0.17254901960784313)",#2ca02c80,44,160,44,195.95917942265424
203-6070,St Joseph's Primary School ,BT930HA,Roman Catholic Maintained,153.0,0.0,141.0,12.0,BT930HA,54.53127,-7.658811,"(0.17254901960784313, 0.6274509803921569, 0.17254901960784313)",#2ca02c80,44,160,44,123.6931687685298
203-6082,St Colmcille's Primary School ,BT474HR,Roman Catholic Maintained,264.0,2.0,254.0,8.0,BT474HR,54.912439,-7.156686,"(0.17254901960784313, 0.6274509803921569, 0.17254901960784313)",#2ca02c80,44,160,44,162.48076809271922
203-6084,Steelstown Primary School ,BT488EX,Roman Catholic Maintained,455.0,2.0,451.0,2.0,BT488EX,55.027308,-7.308315,"(0.17254901960784313, 0.6274509803921569, 0.17254901960784313)",#2ca02c80,44,160,44,213.3072900770154
203-6085,St Peter's & St Paul's Primary School ,BT474PJ,Roman Catholic Maintained,57.0,2.0,53.0,2.0,BT474PJ,54.92985,-7.030482,"(0.17254901960784313, 0.6274509803921569, 0.17254901960784313)",#2ca02c80,44,160,44,75.4983443527075
203-6090,St Naile's Primary School ,BT924FJ,Roman Catholic Maintained,102.0,0.0,100.0,2.0,BT924FJ,54.226683,-7.645845,"(0.17254901960784313, 0.6274509803921569, 0.17254901960784313)",#2ca02c80,44,160,44,100.99504938362077
203-6094,St Patrick's Primary School ,BT817EE,Roman Catholic Maintained,313.0,2.0,300.0,11.0,BT817EE,54.716013,-7.596249,"(0.17254901960784313, 0.6274509803921569, 0.17254901960784313)",#2ca02c80,44,160,44,176.91806012954132
203-6095,St Mary's Primary School ,BT820BE,Roman Catholic Maintained,156.0,0.0,154.0,2.0,BT820BE,54.88006,-7.415771,"(0.17254901960784313, 0.6274509803921569, 0.17254901960784313)",#2ca02c80,44,160,44,124.89995996796796
203-6097,St Peter's Primary School ,BT798AF,Roman Catholic Maintained,74.0,2.0,70.0,2.0,BT798AF,54.768753,-7.253756,"(0.17254901960784313, 0.6274509803921569, 0.17254901960784313)",#2ca02c80,44,160,44,86.02325267042627
203-6105,St Martin's Primary School ,BT934AE,Roman Catholic Maintained,104.0,2.0,100.0,2.0,BT934AE,54.419779,-8.088937,"(0.17254901960784313, 0.6274509803921569, 0.17254901960784313)",#2ca02c80,44,160,44,101.9803902718557
203-6107,St Joseph's Primary School ,BT925BE,Roman Catholic Maintained,72.0,0.0,70.0,2.0,BT925BE,54.216796,-7.390917,"(0.17254901960784313, 0.6274509803921569, 0.17254901960784313)",#2ca02c80,44,160,44,84.85281374238569
203-6116,St Conor's Primary School ,BT785JQ,Roman Catholic Maintained,446.0,0.0,444.0,2.0,BT785JQ,54.598425,-7.324659,"(0.17254901960784313, 0.6274509803921569, 0.17254901960784313)",#2ca02c80,44,160,44,211.18712081942874
203-6142,"St Brigid's Primary School & Nursery, Carnhill",BT488BZ,Roman Catholic Maintained,410.0,0.0,408.0,2.0,BT488BZ,55.024672,-7.317226,"(0.17254901960784313, 0.6274509803921569, 0.17254901960784313)",#2ca02c80,44,160,44,202.48456731316588
203-6143,St Oliver Plunkett Primary School ,BT476XA,Roman Catholic Maintained,196.0,2.0,176.0,18.0,BT476XA,55.031244,-7.268792,"(0.17254901960784313, 0.6274509803921569, 0.17254901960784313)",#2ca02c80,44,160,44,140.0
203-6149,St Finlough's Primary School Sistrakeel,BT499JL,Roman Catholic Maintained,68.0,0.0,66.0,2.0,BT499JL,55.013004,-7.039372,"(0.17254901960784313, 0.6274509803921569, 0.17254901960784313)",#2ca02c80,44,160,44,82.46211251235322
203-6153,St Scire's Primary School ,BT783RB,Roman Catholic Maintained,144.0,0.0,142.0,2.0,BT783RB,54.44771,-7.489048,"(0.17254901960784313, 0.6274509803921569, 0.17254901960784313)",#2ca02c80,44,160,44,120.0
203-6181,St Mary's Primary School ,BT929QF,Roman Catholic Maintained,133.0,0.0,131.0,2.0,BT929QF,54.154498,-7.525775,"(0.17254901960784313, 0.6274509803921569, 0.17254901960784313)",#2ca02c80,44,160,44,115.32562594670796
203-6186,St Dympna's Primary School ,BT783FE,Roman Catholic Maintained,212.0,2.0,203.0,7.0,BT783FE,54.513523,-7.456266,"(0.17254901960784313, 0.6274509803921569, 0.17254901960784313)",#2ca02c80,44,160,44,145.60219778561037
203-6187,St John's Primary School Dernaflaw,BT474PN,Roman Catholic Maintained,167.0,0.0,165.0,2.0,BT474PN,54.924055,-6.967172,"(0.17254901960784313, 0.6274509803921569, 0.17254901960784313)",#2ca02c80,44,160,44,129.22847983320085
203-6213,St Columban's Primary School ,BT935DS,Roman Catholic Maintained,95.0,2.0,91.0,2.0,BT935DS,54.3074,-7.895129,"(0.17254901960784313, 0.6274509803921569, 0.17254901960784313)",#2ca02c80,44,160,44,97.46794344808963
203-6227,St Paul's Primary School Slievemore,BT488QZ,Roman Catholic Maintained,217.0,2.0,208.0,7.0,BT488QZ,55.04889,-7.263448,"(0.17254901960784313, 0.6274509803921569, 0.17254901960784313)",#2ca02c80,44,160,44,147.30919862656233
203-6247,St Columba's Primary School ,BT472QS,Roman Catholic Maintained,47.0,0.0,45.0,2.0,BT472QS,54.957264,-7.358034,"(0.17254901960784313, 0.6274509803921569, 0.17254901960784313)",#2ca02c80,44,160,44,68.55654600401044
203-6258,St Davog's Primary School ,BT933FJ,Roman Catholic Maintained,104.0,2.0,94.0,8.0,BT933FJ,54.481322,-8.090659,"(0.17254901960784313, 0.6274509803921569, 0.17254901960784313)",#2ca02c80,44,160,44,101.9803902718557
203-6259,Sacred Heart Primary School ,BT472DT,Roman Catholic Maintained,427.0,2.0,420.0,5.0,BT472DT,54.985033,-7.307949,"(0.17254901960784313, 0.6274509803921569, 0.17254901960784313)",#2ca02c80,44,160,44,206.63978319771826
203-6288,"Good Shepherd Primary & Nursery, Derry",BT476BW,Roman Catholic Maintained,430.0,6.0,388.0,36.0,BT476BW,54.993609,-7.309067,"(0.17254901960784313, 0.6274509803921569, 0.17254901960784313)",#2ca02c80,44,160,44,207.3644135332772
203-6291,St Oliver Plunkett Primary School ,BT790TH,Roman Catholic Maintained,123.0,0.0,121.0,2.0,BT790TH,54.544478,-7.171157,"(0.17254901960784313, 0.6274509803921569, 0.17254901960784313)",#2ca02c80,44,160,44,110.90536506409418
203-6356,"St Mary's Primary School, Tempo",BT943HU,Roman Catholic Maintained,151.0,0.0,149.0,2.0,BT943HU,54.385507,-7.466087,"(0.17254901960784313, 0.6274509803921569, 0.17254901960784313)",#2ca02c80,44,160,44,122.88205727444507
203-6415,Our Lady of Lourdes Primary School ,BT797QP,Roman Catholic Maintained,112.0,0.0,110.0,2.0,BT797QP,54.692109,-7.087182,"(0.17254901960784313, 0.6274509803921569, 0.17254901960784313)",#2ca02c80,44,160,44,105.83005244258362
203-6449,Christ the King Primary School ,BT797HX,Roman Catholic Maintained,196.0,7.0,187.0,2.0,BT797HX,54.613757,-7.300491,"(0.17254901960784313, 0.6274509803921569, 0.17254901960784313)",#2ca02c80,44,160,44,140.0
203-6458,"St Mary’s Primary School, Gortnaghey ",BT474PZ,Roman Catholic Maintained,77.0,2.0,75.0,0.0,BT474PZ,54.956429,-6.97026,"(0.17254901960784313, 0.6274509803921569, 0.17254901960784313)",#2ca02c80,44,160,44,87.74964387392123
203-6459,St Theresa's Primary School ,BT829NZ,Roman Catholic Maintained,92.0,2.0,88.0,2.0,BT829NZ,54.786624,-7.49033,"(0.17254901960784313, 0.6274509803921569, 0.17254901960784313)",#2ca02c80,44,160,44,95.91663046625439
203-6461,St Therese Primary School ,BT488NX,Roman Catholic Maintained,361.0,2.0,359.0,0.0,BT488NX,55.032088,-7.324654,"(0.17254901960784313, 0.6274509803921569, 0.17254901960784313)",#2ca02c80,44,160,44,190.0
203-6465,Chapel Road Primary School ,BT472BD,Roman Catholic Maintained,175.0,5.0,160.0,10.0,BT472BD,54.990062,-7.307753,"(0.17254901960784313, 0.6274509803921569, 0.17254901960784313)",#2ca02c80,44,160,44,132.2875655532295
203-6472,Holy Family Primary School ,BT480AZ,Roman Catholic Maintained,530.0,0.0,528.0,2.0,BT480AZ,55.018162,-7.345367,"(0.17254901960784313, 0.6274509803921569, 0.17254901960784313)",#2ca02c80,44,160,44,230.21728866442675
203-6473,St Eithne's Primary School ,BT480LT,Roman Catholic Maintained,331.0,0.0,329.0,2.0,BT480LT,55.013553,-7.353712,"(0.17254901960784313, 0.6274509803921569, 0.17254901960784313)",#2ca02c80,44,160,44,181.93405398660252
203-6475,Longtower Primary School ,BT486QQ,Roman Catholic Maintained,277.0,0.0,268.0,9.0,BT486QQ,54.993057,-7.327653,"(0.17254901960784313, 0.6274509803921569, 0.17254901960784313)",#2ca02c80,44,160,44,166.43316977093238
203-6533,Hollybush Primary School ,BT488JN,Roman Catholic Maintained,438.0,2.0,417.0,19.0,BT488JN,55.051981,-7.269556,"(0.17254901960784313, 0.6274509803921569, 0.17254901960784313)",#2ca02c80,44,160,44,209.2844953645635
203-6555,St Eugene's Primary School ,BT487DS,Roman Catholic Maintained,171.0,2.0,152.0,17.0,BT487DS,54.999738,-7.327291,"(0.17254901960784313, 0.6274509803921569, 0.17254901960784313)",#2ca02c80,44,160,44,130.7669683062202
203-6557,All Saints Primary School ,BT785BR,Roman Catholic Maintained,102.0,0.0,100.0,2.0,BT785BR,54.560881,-7.411751,"(0.17254901960784313, 0.6274509803921569, 0.17254901960784313)",#2ca02c80,44,160,44,100.99504938362077
203-6574,Bunscoil Cholmcille & Naíscoil Dhoire,BT488EX,Roman Catholic Maintained,143.0,0.0,136.0,7.0,BT488EX,55.027308,-7.308315,"(0.17254901960784313, 0.6274509803921569, 0.17254901960784313)",#2ca02c80,44,160,44,119.58260743101398
203-6581,St Patricks Primary School ,BT487RD,Roman Catholic Maintained,774.0,0.0,772.0,2.0,BT487RD,55.021037,-7.317757,"(0.17254901960784313, 0.6274509803921569, 0.17254901960784313)",#2ca02c80,44,160,44,278.20855486487113
203-6632,Holy Trinity Primary School ,BT746AZ,Roman Catholic Maintained,624.0,22.0,526.0,76.0,BT746AZ,54.350536,-7.641488,"(0.17254901960784313, 0.6274509803921569, 0.17254901960784313)",#2ca02c80,44,160,44,249.79991993593592
203-6659,St Macartan's Primary School ,BT927NQ,Roman Catholic Maintained,89.0,2.0,87.0,0.0,BT927NQ,54.227755,-7.257756,"(0.17254901960784313, 0.6274509803921569, 0.17254901960784313)",#2ca02c80,44,160,44,94.33981132056603
203-6674,Holy Family Primary School,BT785HZ,Roman Catholic Maintained,341.0,0.0,335.0,6.0,BT785HZ,54.602108,-7.310223,"(0.17254901960784313, 0.6274509803921569, 0.17254901960784313)",#2ca02c80,44,160,44,184.66185312619388
203-6696,St Mary's Primary School,BT829EF,Roman Catholic Maintained,704.0,0.0,698.0,6.0,BT829EF,54.815208,-7.473653,"(0.17254901960784313, 0.6274509803921569, 0.17254901960784313)",#2ca02c80,44,160,44,265.32998322843196
203-6703,St Catherine’s Primary School ,BT828HT,Roman Catholic Maintained,473.0,0.0,471.0,2.0,BT828HT,54.823083,-7.456593,"(0.17254901960784313, 0.6274509803921569, 0.17254901960784313)",#2ca02c80,44,160,44,217.48563170931547
203-6711,Our Lady of Fatima Primary School ,BT473AU,Roman Catholic Maintained,,,,,BT473AU,54.986995,-7.181367,"(0.17254901960784313, 0.6274509803921569, 0.17254901960784313)",#2ca02c80,44,160,44,
203-6712,"St Michael's Primary School, Dunamanagh",BT820QN,Roman Catholic Maintained,82.0,0.0,80.0,2.0,BT820QN,54.871389,-7.309213,"(0.17254901960784313, 0.6274509803921569, 0.17254901960784313)",#2ca02c80,44,160,44,90.55385138137417
204-6638,Gaelscoil Uí Dhochartaigh,BT829AQ,Other Maintained,159.0,2.0,155.0,2.0,BT829AQ,54.817641,-7.461006,"(0.17254901960784313, 0.6274509803921569, 0.17254901960784313)",#2ca02c80,44,160,44,126.09520212918491
204-6646,Naíscoil & Gaelscoil Éadain Mhóir,BT486NP,Other Maintained,196.0,0.0,155.0,41.0,BT486NP,54.989937,-7.333673,"(0.17254901960784313, 0.6274509803921569, 0.17254901960784313)",#2ca02c80,44,160,44,140.0
204-6669,Bunscoil an Traonaigh,BT920PE,Other Maintained,57.0,0.0,55.0,2.0,BT920PE,54.263484,-7.462464,"(0.17254901960784313, 0.6274509803921569, 0.17254901960784313)",#2ca02c80,44,160,44,75.4983443527075
204-6677,Gaelscoil na gCrann,BT790JP,Other Maintained,185.0,0.0,180.0,5.0,BT790JP,54.601822,-7.245673,"(0.17254901960784313, 0.6274509803921569, 0.17254901960784313)",#2ca02c80,44,160,44,136.01470508735443
204-6687,Gaelscoil na Daróige,BT480ND,Other Maintained,110.0,0.0,101.0,9.0,BT480ND,55.023657,-7.346622,"(0.17254901960784313, 0.6274509803921569, 0.17254901960784313)",#2ca02c80,44,160,44,104.88088481701516
204-6689,Gaelscoil Léim an Mhadaidh,BT490BX,Other Maintained,104.0,0.0,99.0,5.0,BT490BX,55.052445,-6.942573,"(0.17254901960784313, 0.6274509803921569, 0.17254901960784313)",#2ca02c80,44,160,44,101.9803902718557
206-6549,Enniskillen Integrated Primary School ,BT744FH,Grant Maintained Integrated,425.0,107.0,198.0,120.0,BT744FH,54.364444,-7.647982,"(0.12156862745098039, 0.4666666666666667, 0.7058823529411765)",#1f77b480,31,119,180,206.15528128088303
206-6552,Omagh Integrated Primary School ,BT790GW,Grant Maintained Integrated,300.0,39.0,126.0,135.0,BT790GW,54.60206,-7.269962,"(0.12156862745098039, 0.4666666666666667, 0.7058823529411765)",#1f77b480,31,119,180,173.20508075688775
206-6558,Oakgrove Integrated Primary School ,BT476JY,Grant Maintained Integrated,420.0,75.0,188.0,157.0,BT476JY,54.999642,-7.305307,"(0.12156862745098039, 0.4666666666666667, 0.7058823529411765)",#1f77b480,31,119,180,204.93901531919195
206-6665,Roe Valley Integrated Primary School ,BT499EX,Grant Maintained Integrated,189.0,50.0,100.0,39.0,BT499EX,55.037408,-6.949867,"(0.12156862745098039, 0.4666666666666667, 0.7058823529411765)",#1f77b480,31,119,180,137.4772708486752
301-0404,Tildarg Primary School ,BT399JU,Controlled,46.0,37.0,0.0,9.0,BT399JU,54.794311,-6.056293,"(1.0, 0.4980392156862745, 0.054901960784313725)",#ff7f0e80,255,127,14,67.82329983125268
301-0486,Larne and Inver Primary School ,BT403AY,Controlled,191.0,107.0,2.0,82.0,BT403AY,54.848481,-5.823055,"(1.0, 0.4980392156862745, 0.054901960784313725)",#ff7f0e80,255,127,14,138.20274961085255
301-0553,Carrickfergus Model Primary School ,BT388BU,Controlled,384.0,222.0,8.0,154.0,BT388BU,54.712131,-5.817412,"(1.0, 0.4980392156862745, 0.054901960784313725)",#ff7f0e80,255,127,14,195.95917942265424
301-0558,Duneane Primary School ,BT413RD,Controlled,19.0,17.0,0.0,2.0,BT413RD,54.752938,-6.412306,"(1.0, 0.4980392156862745, 0.054901960784313725)",#ff7f0e80,255,127,14,43.58898943540674
301-0570,Straid Primary School ,BT399NQ,Controlled,30.0,28.0,0.0,2.0,BT399NQ,54.751376,-5.926334,"(1.0, 0.4980392156862745, 0.054901960784313725)",#ff7f0e80,255,127,14,54.772255750516614
301-0572,Carrowreagh Primary School ,BT537JL,Controlled,82.0,57.0,2.0,23.0,BT537JL,55.017755,-6.505919,"(1.0, 0.4980392156862745, 0.054901960784313725)",#ff7f0e80,255,127,14,90.55385138137417
301-0594,Garryduff Primary School ,BT537DR,Controlled,77.0,64.0,0.0,13.0,BT537DR,55.03175,-6.447717,"(1.0, 0.4980392156862745, 0.054901960784313725)",#ff7f0e80,255,127,14,87.74964387392123
301-0631,Ballyclare Primary School ,BT399BG,Controlled,550.0,330.0,13.0,207.0,BT399BG,54.751327,-6.00478,"(1.0, 0.4980392156862745, 0.054901960784313725)",#ff7f0e80,255,127,14,234.5207879911715
301-0642,Parkgate Primary School ,BT390DH,Controlled,47.0,35.0,0.0,12.0,BT390DH,54.725222,-6.092681,"(1.0, 0.4980392156862745, 0.054901960784313725)",#ff7f0e80,255,127,14,68.55654600401044
301-0646,Olderfleet Primary School ,BT401BX,Controlled,118.0,72.0,2.0,44.0,BT401BX,54.851256,-5.804001,"(1.0, 0.4980392156862745, 0.054901960784313725)",#ff7f0e80,255,127,14,108.62780491200215
301-0696,Woodburn Primary School ,BT389AB,Controlled,202.0,131.0,2.0,69.0,BT389AB,54.728669,-5.843831,"(1.0, 0.4980392156862745, 0.054901960784313725)",#ff7f0e80,255,127,14,142.12670403551894
301-0714,Buick Memorial Primary School ,BT421BW,Controlled,287.0,200.0,2.0,85.0,BT421BW,54.888188,-6.353409,"(1.0, 0.4980392156862745, 0.054901960784313725)",#ff7f0e80,255,127,14,169.41074346097417
301-0726,Dunseverick Primary School ,BT578SR,Controlled,89.0,70.0,2.0,17.0,BT578SR,55.22619,-6.445024,"(1.0, 0.4980392156862745, 0.054901960784313725)",#ff7f0e80,255,127,14,94.33981132056603
301-0741,Creavery Primary School ,BT412LH,Controlled,48.0,41.0,2.0,5.0,BT412LH,54.755374,-6.230061,"(1.0, 0.4980392156862745, 0.054901960784313725)",#ff7f0e80,255,127,14,69.28203230275508
301-0745,Loanends Primary School ,BT294YR,Controlled,191.0,118.0,6.0,67.0,BT294YR,54.66345,-6.105637,"(1.0, 0.4980392156862745, 0.054901960784313725)",#ff7f0e80,255,127,14,138.20274961085255
301-0754,Doagh Primary School ,BT390QL,Controlled,130.0,79.0,2.0,49.0,BT390QL,54.738077,-6.042388,"(1.0, 0.4980392156862745, 0.054901960784313725)",#ff7f0e80,255,127,14,114.0175425099138
301-0779,The Thompson Primary School,BT399RX,Controlled,166.0,89.0,2.0,75.0,BT399RX,54.716772,-6.001527,"(1.0, 0.4980392156862745, 0.054901960784313725)",#ff7f0e80,255,127,14,128.84098726725125
301-0780,Kirkinriola Primary School ,BT436TB,Controlled,81.0,50.0,9.0,22.0,BT436TB,54.896659,-6.262434,"(1.0, 0.4980392156862745, 0.054901960784313725)",#ff7f0e80,255,127,14,90.0
301-0781,Harryville Primary School ,BT424BY,Controlled,226.0,79.0,7.0,140.0,BT424BY,54.859392,-6.273023,"(1.0, 0.4980392156862745, 0.054901960784313725)",#ff7f0e80,255,127,14,150.33296378372907
301-0785,Eden Primary School ,BT387NL,Controlled,209.0,140.0,2.0,67.0,BT387NL,54.728552,-5.774239,"(1.0, 0.4980392156862745, 0.054901960784313725)",#ff7f0e80,255,127,14,144.5683229480096
301-0787,Lislagan Primary School ,BT537JF,Controlled,116.0,80.0,2.0,34.0,BT537JF,55.047731,-6.505037,"(1.0, 0.4980392156862745, 0.054901960784313725)",#ff7f0e80,255,127,14,107.70329614269008
301-0794,Gracehill Primary School ,BT422NL,Controlled,437.0,286.0,2.0,149.0,BT422NL,54.85338,-6.327438,"(1.0, 0.4980392156862745, 0.054901960784313725)",#ff7f0e80,255,127,14,209.04544960366874
301-0795,Landhead Primary School ,BT537HL,Controlled,58.0,39.0,2.0,17.0,BT537HL,55.072787,-6.489871,"(1.0, 0.4980392156862745, 0.054901960784313725)",#ff7f0e80,255,127,14,76.15773105863909
301-0796,Eden Primary School ,BT537PB,Controlled,86.0,55.0,2.0,29.0,BT537PB,55.03145,-6.56373,"(1.0, 0.4980392156862745, 0.054901960784313725)",#ff7f0e80,255,127,14,92.73618495495704
301-0802,Ballynure Primary School ,BT399UE,Controlled,151.0,94.0,2.0,55.0,BT399UE,54.778394,-5.955464,"(1.0, 0.4980392156862745, 0.054901960784313725)",#ff7f0e80,255,127,14,122.88205727444507
301-0804,Straidbilly Primary School ,BT538EE,Controlled,88.0,72.0,0.0,16.0,BT538EE,55.17219,-6.453421,"(1.0, 0.4980392156862745, 0.054901960784313725)",#ff7f0e80,255,127,14,93.8083151964686
301-0808,Glynn Primary School ,BT403HF,Controlled,89.0,63.0,0.0,26.0,BT403HF,54.827894,-5.8119,"(1.0, 0.4980392156862745, 0.054901960784313725)",#ff7f0e80,255,127,14,94.33981132056603
301-0809,Ballycarry Primary School ,BT389HE,Controlled,50.0,34.0,0.0,16.0,BT389HE,54.776248,-5.752936,"(1.0, 0.4980392156862745, 0.054901960784313725)",#ff7f0e80,255,127,14,70.71067811865476
301-0816,Randalstown Central Primary School ,BT413AJ,Controlled,171.0,107.0,2.0,62.0,BT413AJ,54.749065,-6.324768,"(1.0, 0.4980392156862745, 0.054901960784313725)",#ff7f0e80,255,127,14,130.7669683062202
301-0817,Greenisland Primary School ,BT388RA,Controlled,412.0,134.0,20.0,258.0,BT388RA,54.700702,-5.873986,"(1.0, 0.4980392156862745, 0.054901960784313725)",#ff7f0e80,255,127,14,202.9778313018444
301-0818,Moorfields Primary School ,BT423EF,Controlled,197.0,158.0,2.0,37.0,BT423EF,54.828612,-6.154571,"(1.0, 0.4980392156862745, 0.054901960784313725)",#ff7f0e80,255,127,14,140.356688476182
301-0822,Groggan Primary School ,BT413EU,Controlled,124.0,91.0,0.0,33.0,BT413EU,54.785559,-6.367003,"(1.0, 0.4980392156862745, 0.054901960784313725)",#ff7f0e80,255,127,14,111.35528725660043
301-0825,Carnaghts Primary School ,BT422LX,Controlled,95.0,69.0,2.0,24.0,BT422LX,54.815706,-6.268867,"(1.0, 0.4980392156862745, 0.054901960784313725)",#ff7f0e80,255,127,14,97.46794344808963
301-0826,The Diamond Primary School ,BT421EE,Controlled,155.0,123.0,2.0,30.0,BT421EE,54.882061,-6.377391,"(1.0, 0.4980392156862745, 0.054901960784313725)",#ff7f0e80,255,127,14,124.49899597988733
301-0827,Whitehouse Primary School ,BT379NZ,Controlled,448.0,196.0,18.0,234.0,BT379NZ,54.661514,-5.909372,"(1.0, 0.4980392156862745, 0.054901960784313725)",#ff7f0e80,255,127,14,211.66010488516724
301-0828,Kilbride Central Primary School,BT390SQ,Controlled,107.0,71.0,2.0,34.0,BT390SQ,54.760094,-6.052729,"(1.0, 0.4980392156862745, 0.054901960784313725)",#ff7f0e80,255,127,14,103.44080432788601
301-0829,Antrim Primary School ,BT414AB,Controlled,590.0,450.0,26.0,114.0,BT414AB,54.717316,-6.212895,"(1.0, 0.4980392156862745, 0.054901960784313725)",#ff7f0e80,255,127,14,242.89915602982236
301-0834,Clough Primary School ,BT449RY,Controlled,183.0,163.0,0.0,20.0,BT449RY,54.963365,-6.283272,"(1.0, 0.4980392156862745, 0.054901960784313725)",#ff7f0e80,255,127,14,135.27749258468683
301-0835,Kells & Connor Primary School ,BT423LS,Controlled,225.0,133.0,6.0,86.0,BT423LS,54.812475,-6.220689,"(1.0, 0.4980392156862745, 0.054901960784313725)",#ff7f0e80,255,127,14,150.0
301-0842,William Pinkerton Memorial Primary School,BT538BB,Controlled,85.0,65.0,0.0,20.0,BT538BB,55.123046,-6.471546,"(1.0, 0.4980392156862745, 0.054901960784313725)",#ff7f0e80,255,127,14,92.19544457292886
301-0846,Whiteabbey Primary School ,BT370RU,Controlled,418.0,181.0,62.0,175.0,BT370RU,54.679235,-5.893467,"(1.0, 0.4980392156862745, 0.054901960784313725)",#ff7f0e80,255,127,14,204.45048300260873
301-0847,Portrush Primary School ,BT568JW,Controlled,177.0,88.0,8.0,81.0,BT568JW,55.1997,-6.647891,"(1.0, 0.4980392156862745, 0.054901960784313725)",#ff7f0e80,255,127,14,133.04134695650072
301-0850,Upper Ballyboley Primary School ,BT399UW,Controlled,17.0,15.0,0.0,2.0,BT399UW,54.796784,-5.95536,"(1.0, 0.4980392156862745, 0.054901960784313725)",#ff7f0e80,255,127,14,41.23105625617661
301-0860,Sunnylands Primary School ,BT388JJ,Controlled,194.0,93.0,2.0,99.0,BT388JJ,54.72106,-5.815287,"(1.0, 0.4980392156862745, 0.054901960784313725)",#ff7f0e80,255,127,14,139.2838827718412
301-0862,Abbots Cross Primary School ,BT379QW,Controlled,318.0,202.0,2.0,114.0,BT379QW,54.669209,-5.91324,"(1.0, 0.4980392156862745, 0.054901960784313725)",#ff7f0e80,255,127,14,178.32554500127006
301-0870,Moyle Primary School ,BT401NS,Controlled,426.0,259.0,12.0,155.0,BT401NS,54.856238,-5.819227,"(1.0, 0.4980392156862745, 0.054901960784313725)",#ff7f0e80,255,127,14,206.39767440550293
301-0873,Bushmills Primary School ,BT578QW,Controlled,121.0,74.0,2.0,45.0,BT578QW,55.204966,-6.527832,"(1.0, 0.4980392156862745, 0.054901960784313725)",#ff7f0e80,255,127,14,110.0
301-0874,Whitehead Primary School ,BT389NE,Controlled,440.0,233.0,28.0,179.0,BT389NE,54.757729,-5.710212,"(1.0, 0.4980392156862745, 0.054901960784313725)",#ff7f0e80,255,127,14,209.76176963403032
301-0875,Ballymena Primary School ,BT435BX,Controlled,259.0,86.0,16.0,157.0,BT435BX,54.872475,-6.283945,"(1.0, 0.4980392156862745, 0.054901960784313725)",#ff7f0e80,255,127,14,160.93476939431082
301-0878,Kilmoyle Primary School ,BT536NS,Controlled,99.0,77.0,2.0,20.0,BT536NS,55.131635,-6.549567,"(1.0, 0.4980392156862745, 0.054901960784313725)",#ff7f0e80,255,127,14,99.498743710662
301-0879,Straidhavern Primary School ,BT294SN,Controlled,50.0,13.0,5.0,32.0,BT294SN,54.647027,-6.147504,"(1.0, 0.4980392156862745, 0.054901960784313725)",#ff7f0e80,255,127,14,70.71067811865476
301-0880,King's Park Primary School ,BT370DG,Controlled,316.0,239.0,6.0,71.0,BT370DG,54.677807,-5.913202,"(1.0, 0.4980392156862745, 0.054901960784313725)",#ff7f0e80,255,127,14,177.76388834631177
301-0883,Linn Primary School ,BT402HT,Controlled,412.0,250.0,6.0,156.0,BT402HT,54.863391,-5.840866,"(1.0, 0.4980392156862745, 0.054901960784313725)",#ff7f0e80,255,127,14,202.9778313018444
301-0891,Fourtowns Primary School ,BT421LA,Controlled,290.0,214.0,2.0,74.0,BT421LA,54.853382,-6.365883,"(1.0, 0.4980392156862745, 0.054901960784313725)",#ff7f0e80,255,127,14,170.29386365926402
301-0892,Ballytober Primary School ,BT578UR,Controlled,75.0,57.0,0.0,18.0,BT578UR,55.189198,-6.549391,"(1.0, 0.4980392156862745, 0.054901960784313725)",#ff7f0e80,255,127,14,86.60254037844388
301-0893,Knockahollet Primary School ,BT449BA,Controlled,74.0,50.0,0.0,24.0,BT449BA,55.046713,-6.361116,"(1.0, 0.4980392156862745, 0.054901960784313725)",#ff7f0e80,255,127,14,86.02325267042627
301-0895,Rathcoole Primary School ,BT379EL,Controlled,165.0,101.0,2.0,62.0,BT379EL,54.665168,-5.928049,"(1.0, 0.4980392156862745, 0.054901960784313725)",#ff7f0e80,255,127,14,128.4523257866513
301-2049,Carnalridge Primary School ,BT568PB,Controlled,128.0,56.0,8.0,64.0,BT568PB,55.181707,-6.658516,"(1.0, 0.4980392156862745, 0.054901960784313725)",#ff7f0e80,255,127,14,113.13708498984761
301-2065,Culcrow Primary School ,BT514BT,Controlled,98.0,69.0,2.0,27.0,BT514BT,55.053707,-6.606702,"(1.0, 0.4980392156862745, 0.054901960784313725)",#ff7f0e80,255,127,14,98.99494936611666
301-2225,Damhead Primary School ,BT521UF,Controlled,204.0,130.0,11.0,63.0,BT521UF,55.10324,-6.616839,"(1.0, 0.4980392156862745, 0.054901960784313725)",#ff7f0e80,255,127,14,142.82856857085702
301-2229,Hezlett Primary School ,BT514TZ,Controlled,193.0,111.0,5.0,77.0,BT514TZ,55.153828,-6.781233,"(1.0, 0.4980392156862745, 0.054901960784313725)",#ff7f0e80,255,127,14,138.92443989449805
301-2233,Tobermore Primary School ,BT455QB,Controlled,74.0,62.0,0.0,12.0,BT455QB,54.815827,-6.702548,"(1.0, 0.4980392156862745, 0.054901960784313725)",#ff7f0e80,255,127,14,86.02325267042627
301-2234,Ampertaine Primary School ,BT465SB,Controlled,120.0,80.0,2.0,38.0,BT465SB,54.884641,-6.629046,"(1.0, 0.4980392156862745, 0.054901960784313725)",#ff7f0e80,255,127,14,109.54451150103323
301-2237,Killowen Primary School ,BT513BZ,Controlled,203.0,75.0,7.0,121.0,BT513BZ,55.127567,-6.675885,"(1.0, 0.4980392156862745, 0.054901960784313725)",#ff7f0e80,255,127,14,142.47806848775008
301-2250,Portstewart Primary School ,BT557BT,Controlled,265.0,111.0,19.0,135.0,BT557BT,55.18539,-6.714378,"(1.0, 0.4980392156862745, 0.054901960784313725)",#ff7f0e80,255,127,14,162.78820596099706
301-2264,Millburn Primary School ,BT522AQ,Controlled,339.0,151.0,29.0,159.0,BT522AQ,55.138851,-6.66204,"(1.0, 0.4980392156862745, 0.054901960784313725)",#ff7f0e80,255,127,14,184.11952639521968
301-2267,Magherafelt Primary School,BT456PA,Controlled,217.0,133.0,18.0,66.0,BT456PA,54.75997,-6.599445,"(1.0, 0.4980392156862745, 0.054901960784313725)",#ff7f0e80,255,127,14,147.30919862656233
301-2269,Kilrea Primary School ,BT515SE,Controlled,92.0,70.0,0.0,22.0,BT515SE,54.94844,-6.553629,"(1.0, 0.4980392156862745, 0.054901960784313725)",#ff7f0e80,255,127,14,95.91663046625439
301-2284,D H Christie Memorial Primary School ,BT513HX,Controlled,358.0,169.0,57.0,132.0,BT513HX,55.139124,-6.682935,"(1.0, 0.4980392156862745, 0.054901960784313725)",#ff7f0e80,255,127,14,189.20887928424503
301-2288,Castleroe Primary School ,BT513RN,Controlled,96.0,38.0,2.0,56.0,BT513RN,55.107341,-6.657422,"(1.0, 0.4980392156862745, 0.054901960784313725)",#ff7f0e80,255,127,14,97.97958971132712
301-2290,Bellaghy Primary School ,BT458HZ,Controlled,46.0,38.0,2.0,6.0,BT458HZ,54.810154,-6.516423,"(1.0, 0.4980392156862745, 0.054901960784313725)",#ff7f0e80,255,127,14,67.82329983125268
301-2291,Maghera Primary School ,BT465BS,Controlled,76.0,39.0,0.0,37.0,BT465BS,54.845057,-6.666739,"(1.0, 0.4980392156862745, 0.054901960784313725)",#ff7f0e80,255,127,14,87.17797887081348
301-3301,Carnmoney Primary School ,BT366JS,Controlled,383.0,190.0,13.0,180.0,BT366JS,54.68306,-5.950925,"(1.0, 0.4980392156862745, 0.054901960784313725)",#ff7f0e80,255,127,14,195.70385790780927
301-3310,Broughshane Primary School ,BT424LB,Controlled,309.0,224.0,2.0,83.0,BT424LB,54.892277,-6.215488,"(1.0, 0.4980392156862745, 0.054901960784313725)",#ff7f0e80,255,127,14,175.78395831246948
301-3315,Ballykeel Primary School ,BT424DN,Controlled,427.0,295.0,2.0,130.0,BT424DN,54.858722,-6.258817,"(1.0, 0.4980392156862745, 0.054901960784313725)",#ff7f0e80,255,127,14,206.63978319771826
301-3322,Camphill Primary School ,BT422DG,Controlled,401.0,258.0,12.0,131.0,BT422DG,54.850952,-6.279737,"(1.0, 0.4980392156862745, 0.054901960784313725)",#ff7f0e80,255,127,14,200.24984394500788
301-3323,Mossgrove Primary School ,BT365DN,Controlled,229.0,85.0,29.0,115.0,BT365DN,54.675706,-5.971994,"(1.0, 0.4980392156862745, 0.054901960784313725)",#ff7f0e80,255,127,14,151.32745950421557
301-3325,Leaney Primary School ,BT537AL,Controlled,299.0,230.0,0.0,69.0,BT537AL,55.066464,-6.505247,"(1.0, 0.4980392156862745, 0.054901960784313725)",#ff7f0e80,255,127,14,172.91616465790582
301-3330,Victoria Primary School ,BT387EZ,Controlled,411.0,245.0,2.0,164.0,BT387EZ,54.724088,-5.79499,"(1.0, 0.4980392156862745, 0.054901960784313725)",#ff7f0e80,255,127,14,202.73134932713293
301-3331,Ballycraigy Primary School ,BT411PU,Controlled,133.0,26.0,0.0,107.0,BT411PU,54.707264,-6.188233,"(1.0, 0.4980392156862745, 0.054901960784313725)",#ff7f0e80,255,127,14,115.32562594670796
301-3332,Toreagh Primary School ,BT403DU,Controlled,120.0,89.0,2.0,29.0,BT403DU,54.80489,-5.860117,"(1.0, 0.4980392156862745, 0.054901960784313725)",#ff7f0e80,255,127,14,109.54451150103323
301-3700,Macosquin Primary School ,BT514ND,Controlled,188.0,51.0,2.0,135.0,BT514ND,55.103092,-6.701323,"(1.0, 0.4980392156862745, 0.054901960784313725)",#ff7f0e80,255,127,14,137.11309200802089
301-3704,Castledawson Primary School ,BT458AB,Controlled,141.0,89.0,2.0,50.0,BT458AB,54.778099,-6.558798,"(1.0, 0.4980392156862745, 0.054901960784313725)",#ff7f0e80,255,127,14,118.74342087037917
301-6005,Silverstream Primary School ,BT388XD,Controlled,148.0,67.0,5.0,76.0,BT388XD,54.691829,-5.869642,"(1.0, 0.4980392156862745, 0.054901960784313725)",#ff7f0e80,255,127,14,121.65525060596438
301-6014,Templepatrick Primary School ,BT390AQ,Controlled,450.0,265.0,35.0,150.0,BT390AQ,54.699951,-6.091665,"(1.0, 0.4980392156862745, 0.054901960784313725)",#ff7f0e80,255,127,14,212.13203435596427
301-6015,Mossley Primary School ,BT365NA,Controlled,570.0,329.0,2.0,239.0,BT365NA,54.692227,-5.946787,"(1.0, 0.4980392156862745, 0.054901960784313725)",#ff7f0e80,255,127,14,238.74672772626644
301-6037,Greystone Primary School ,BT411JW,Controlled,167.0,67.0,2.0,98.0,BT411JW,54.713521,-6.188451,"(1.0, 0.4980392156862745, 0.054901960784313725)",#ff7f0e80,255,127,14,129.22847983320085
301-6038,Hollybank Primary School ,BT370HF,Controlled,172.0,94.0,2.0,76.0,BT370HF,54.685744,-5.908716,"(1.0, 0.4980392156862745, 0.054901960784313725)",#ff7f0e80,255,127,14,131.14877048604
301-6040,Armoy Primary School ,BT538TD,Controlled,97.0,73.0,2.0,22.0,BT538TD,55.127342,-6.340615,"(1.0, 0.4980392156862745, 0.054901960784313725)",#ff7f0e80,255,127,14,98.48857801796103
301-6052,Harpur's Hill Primary School,BT522ER,Controlled,247.0,116.0,13.0,118.0,BT522ER,55.136238,-6.652296,"(1.0, 0.4980392156862745, 0.054901960784313725)",#ff7f0e80,255,127,14,157.1623364550171
301-6055,Gorran Primary School ,BT514HA,Controlled,87.0,64.0,5.0,18.0,BT514HA,55.023986,-6.692078,"(1.0, 0.4980392156862745, 0.054901960784313725)",#ff7f0e80,255,127,14,93.27379053088816
301-6058,Parkhall Primary School ,BT411AZ,Controlled,181.0,130.0,11.0,40.0,BT411AZ,54.721184,-6.201674,"(1.0, 0.4980392156862745, 0.054901960784313725)",#ff7f0e80,255,127,14,134.53624047073708
301-6063,Dunclug Primary School ,BT436SU,Controlled,127.0,23.0,15.0,89.0,BT436SU,54.878934,-6.276332,"(1.0, 0.4980392156862745, 0.054901960784313725)",#ff7f0e80,255,127,14,112.69427669584644
301-6119,Garvagh Primary School ,BT515HP,Controlled,97.0,80.0,2.0,15.0,BT515HP,54.987462,-6.685564,"(1.0, 0.4980392156862745, 0.054901960784313725)",#ff7f0e80,255,127,14,98.48857801796103
301-6125,Rasharkin Primary School ,BT448RX,Controlled,70.0,55.0,2.0,13.0,BT448RX,54.954926,-6.479279,"(1.0, 0.4980392156862745, 0.054901960784313725)",#ff7f0e80,255,127,14,83.66600265340756
301-6129,Carniny Primary School ,BT435JR,Controlled,285.0,152.0,2.0,131.0,BT435JR,54.872217,-6.298818,"(1.0, 0.4980392156862745, 0.054901960784313725)",#ff7f0e80,255,127,14,168.81943016134133
301-6170,Ballyhenry Primary School ,BT365AZ,Controlled,173.0,71.0,9.0,93.0,BT365AZ,54.680524,-5.970529,"(1.0, 0.4980392156862745, 0.054901960784313725)",#ff7f0e80,255,127,14,131.52946437965906
301-6225,Woodlawn Primary School ,BT388EZ,Controlled,149.0,40.0,2.0,107.0,BT388EZ,54.723673,-5.821712,"(1.0, 0.4980392156862745, 0.054901960784313725)",#ff7f0e80,255,127,14,122.06555615733703
301-6244,Ashgrove Primary School ,BT366LJ,Controlled,355.0,156.0,26.0,173.0,BT366LJ,54.675534,-5.951615,"(1.0, 0.4980392156862745, 0.054901960784313725)",#ff7f0e80,255,127,14,188.41443681416774
301-6249,Earlview Primary School ,BT365US,Controlled,219.0,91.0,2.0,126.0,BT365US,54.688617,-5.957531,"(1.0, 0.4980392156862745, 0.054901960784313725)",#ff7f0e80,255,127,14,147.9864858694874
301-6252,Ballysally Primary School ,BT522QU,Controlled,288.0,154.0,12.0,122.0,BT522QU,55.146392,-6.660737,"(1.0, 0.4980392156862745, 0.054901960784313725)",#ff7f0e80,255,127,14,169.70562748477138
301-6257,Oakfield Primary School ,BT387SP,Controlled,285.0,175.0,2.0,108.0,BT387SP,54.734919,-5.807569,"(1.0, 0.4980392156862745, 0.054901960784313725)",#ff7f0e80,255,127,14,168.81943016134133
301-6260,Cloughmills Primary School ,BT449LF,Controlled,82.0,58.0,2.0,22.0,BT449LF,54.997223,-6.330208,"(1.0, 0.4980392156862745, 0.054901960784313725)",#ff7f0e80,255,127,14,90.55385138137417
301-6264,Irish Society's Primary School ,BT521JL,Controlled,378.0,177.0,46.0,155.0,BT521JL,55.121472,-6.659095,"(1.0, 0.4980392156862745, 0.054901960784313725)",#ff7f0e80,255,127,14,194.42222095223582
301-6269,Cairncastle Primary School ,BT402RB,Controlled,65.0,35.0,2.0,28.0,BT402RB,54.897785,-5.871936,"(1.0, 0.4980392156862745, 0.054901960784313725)",#ff7f0e80,255,127,14,80.62257748298549
301-6283,Knockloughrim Primary School ,BT458QT,Controlled,124.0,98.0,2.0,24.0,BT458QT,54.810153,-6.604926,"(1.0, 0.4980392156862745, 0.054901960784313725)",#ff7f0e80,255,127,14,111.35528725660043
301-6414,Fairview Primary School ,BT399HS,Controlled,485.0,252.0,12.0,221.0,BT399HS,54.755107,-6.00624,"(1.0, 0.4980392156862745, 0.054901960784313725)",#ff7f0e80,255,127,14,220.2271554554524
301-6440,Portglenone Primary School ,BT448AF,Controlled,140.0,108.0,2.0,30.0,BT448AF,54.873626,-6.472325,"(1.0, 0.4980392156862745, 0.054901960784313725)",#ff7f0e80,255,127,14,118.32159566199232
301-6444,Hazelbank Primary School ,BT424LP,Controlled,161.0,133.0,6.0,22.0,BT424LP,54.903359,-6.111208,"(1.0, 0.4980392156862745, 0.054901960784313725)",#ff7f0e80,255,127,14,126.8857754044952
301-6447,Balnamore Primary School ,BT537PT,Controlled,29.0,18.0,0.0,11.0,BT537PT,55.064919,-6.563486,"(1.0, 0.4980392156862745, 0.054901960784313725)",#ff7f0e80,255,127,14,53.85164807134504
301-6594,Bushvalley Primary School ,BT538PR,Controlled,173.0,127.0,2.0,44.0,BT538PR,55.117606,-6.414263,"(1.0, 0.4980392156862745, 0.054901960784313725)",#ff7f0e80,255,127,14,131.52946437965906
301-6705,Islandmagee Primary School,BT403TQ,Controlled,135.0,60.0,0.0,75.0,BT403TQ,54.825414,-5.72974,"(1.0, 0.4980392156862745, 0.054901960784313725)",#ff7f0e80,255,127,14,116.1895003862225
303-0434,Creggan Primary School ,BT413LH,Roman Catholic Maintained,108.0,0.0,106.0,2.0,BT413LH,54.721371,-6.362539,"(0.17254901960784313, 0.6274509803921569, 0.17254901960784313)",#2ca02c80,44,160,44,103.92304845413264
303-0438,Millquarter Primary School ,BT413PY,Roman Catholic Maintained,134.0,0.0,132.0,2.0,BT413PY,54.795429,-6.432113,"(0.17254901960784313, 0.6274509803921569, 0.17254901960784313)",#2ca02c80,44,160,44,115.75836902790226
303-0547,St Patrick's Primary School ,BT568JE,Roman Catholic Maintained,57.0,2.0,47.0,8.0,BT568JE,55.202199,-6.64732,"(0.17254901960784313, 0.6274509803921569, 0.17254901960784313)",#2ca02c80,44,160,44,75.4983443527075
303-0588,St Mary's Primary School ,BT546RT,Roman Catholic Maintained,18.0,2.0,2.0,14.0,BT546RT,55.293389,-6.197745,"(0.17254901960784313, 0.6274509803921569, 0.17254901960784313)",#2ca02c80,44,160,44,42.426406871192846
303-0621,St Mary's Primary School ,BT448BL,Roman Catholic Maintained,234.0,2.0,223.0,9.0,BT448BL,54.871256,-6.47039,"(0.17254901960784313, 0.6274509803921569, 0.17254901960784313)",#2ca02c80,44,160,44,152.97058540778355
303-0688,Mount St Michael's Primary School ,BT412AF,Roman Catholic Maintained,395.0,2.0,375.0,18.0,BT412AF,54.750747,-6.310021,"(0.17254901960784313, 0.6274509803921569, 0.17254901960784313)",#2ca02c80,44,160,44,198.7460691435179
303-0708,Glenann Primary School ,BT440TG,Roman Catholic Maintained,59.0,0.0,57.0,2.0,BT440TG,55.093239,-6.101322,"(0.17254901960784313, 0.6274509803921569, 0.17254901960784313)",#2ca02c80,44,160,44,76.81145747868608
303-0719,St Olcan's Primary School ,BT538RJ,Roman Catholic Maintained,79.0,0.0,77.0,2.0,BT538RJ,55.13272,-6.320666,"(0.17254901960784313, 0.6274509803921569, 0.17254901960784313)",#2ca02c80,44,160,44,88.88194417315589
303-0815,Moneynick Primary School ,BT413HS,Roman Catholic Maintained,60.0,0.0,58.0,2.0,BT413HS,54.741456,-6.385782,"(0.17254901960784313, 0.6274509803921569, 0.17254901960784313)",#2ca02c80,44,160,44,77.45966692414834
303-0832,St Comgall's Primary School ,BT414JG,Roman Catholic Maintained,516.0,2.0,462.0,52.0,BT414JG,54.721867,-6.22179,"(0.17254901960784313, 0.6274509803921569, 0.17254901960784313)",#2ca02c80,44,160,44,227.15633383201094
303-0890,St Brigid's Primary School ,BT449LT,Roman Catholic Maintained,17.0,0.0,15.0,2.0,BT449LT,55.000401,-6.331951,"(0.17254901960784313, 0.6274509803921569, 0.17254901960784313)",#2ca02c80,44,160,44,41.23105625617661
303-0894,St Mary's Primary School ,BT440SQ,Roman Catholic Maintained,143.0,2.0,139.0,2.0,BT440SQ,55.076377,-6.060407,"(0.17254901960784313, 0.6274509803921569, 0.17254901960784313)",#2ca02c80,44,160,44,119.58260743101398
303-0898,St Anne's Primary School ,BT449JE,Roman Catholic Maintained,74.0,2.0,72.0,0.0,BT449JE,55.031928,-6.290085,"(0.17254901960784313, 0.6274509803921569, 0.17254901960784313)",#2ca02c80,44,160,44,86.02325267042627
303-0900,St Anthony's Primary School ,BT402BG,Roman Catholic Maintained,67.0,2.0,55.0,10.0,BT402BG,54.85511,-5.838505,"(0.17254901960784313, 0.6274509803921569, 0.17254901960784313)",#2ca02c80,44,160,44,81.85352771872451
303-2018,St Brigid's Primary School Tirkane,BT465NH,Roman Catholic Maintained,265.0,0.0,263.0,2.0,BT465NH,54.87443,-6.711321,"(0.17254901960784313, 0.6274509803921569, 0.17254901960784313)",#2ca02c80,44,160,44,162.78820596099706
303-2109,New Row St. Patrick's Primary School,BT458AP,Roman Catholic Maintained,199.0,2.0,185.0,12.0,BT458AP,54.776884,-6.554879,"(0.17254901960784313, 0.6274509803921569, 0.17254901960784313)",#2ca02c80,44,160,44,141.06735979665885
303-2185,St Trea's Primary School ,BT456LL,Roman Catholic Maintained,106.0,0.0,104.0,2.0,BT456LL,54.738229,-6.525932,"(0.17254901960784313, 0.6274509803921569, 0.17254901960784313)",#2ca02c80,44,160,44,102.95630140987001
303-2197,Knocknagin Primary School ,BT455LE,Roman Catholic Maintained,79.0,3.0,73.0,3.0,BT455LE,54.77469,-6.678379,"(0.17254901960784313, 0.6274509803921569, 0.17254901960784313)",#2ca02c80,44,160,44,88.88194417315589
303-2202,St Columba's Primary School ,BT515EQ,Roman Catholic Maintained,98.0,0.0,96.0,2.0,BT515EQ,55.016711,-6.735542,"(0.17254901960784313, 0.6274509803921569, 0.17254901960784313)",#2ca02c80,44,160,44,98.99494936611666
303-2205,St Columb's Primary School (Cullion),BT455NQ,Roman Catholic Maintained,81.0,0.0,79.0,2.0,BT455NQ,54.766304,-6.713828,"(0.17254901960784313, 0.6274509803921569, 0.17254901960784313)",#2ca02c80,44,160,44,90.0
303-2218,Crossroads Primary School ,BT515TW,Roman Catholic Maintained,118.0,2.0,109.0,7.0,BT515TW,54.919153,-6.59261,"(0.17254901960784313, 0.6274509803921569, 0.17254901960784313)",#2ca02c80,44,160,44,108.62780491200215
303-2231,St Colum's Primary School ,BT557EF,Roman Catholic Maintained,165.0,5.0,141.0,19.0,BT557EF,55.182763,-6.716504,"(0.17254901960784313, 0.6274509803921569, 0.17254901960784313)",#2ca02c80,44,160,44,128.4523257866513
303-2246,St John Bosco Primary School Ballynease,BT448NZ,Roman Catholic Maintained,105.0,0.0,103.0,2.0,BT448NZ,54.844974,-6.482157,"(0.17254901960784313, 0.6274509803921569, 0.17254901960784313)",#2ca02c80,44,160,44,102.46950765959598
303-2257,Anahorish Primary School ,BT413SS,Roman Catholic Maintained,188.0,0.0,186.0,2.0,BT413SS,54.769776,-6.50359,"(0.17254901960784313, 0.6274509803921569, 0.17254901960784313)",#2ca02c80,44,160,44,137.11309200802089
303-2268,St Columba's Primary School ,BT457BB,Roman Catholic Maintained,152.0,0.0,150.0,2.0,BT457BB,54.783686,-6.806025,"(0.17254901960784313, 0.6274509803921569, 0.17254901960784313)",#2ca02c80,44,160,44,123.28828005937952
303-2271,St Eoghan's Primary School ,BT457DZ,Roman Catholic Maintained,131.0,0.0,129.0,2.0,BT457DZ,54.816163,-6.830159,"(0.17254901960784313, 0.6274509803921569, 0.17254901960784313)",#2ca02c80,44,160,44,114.45523142259597
303-2273,St Mary's Primary School ,BT457AF,Roman Catholic Maintained,172.0,2.0,168.0,2.0,BT457AF,54.793383,-6.778392,"(0.17254901960784313, 0.6274509803921569, 0.17254901960784313)",#2ca02c80,44,160,44,131.14877048604
303-2274,St John's Primary School ,BT465PY,Roman Catholic Maintained,218.0,0.0,216.0,2.0,BT465PY,54.903513,-6.668346,"(0.17254901960784313, 0.6274509803921569, 0.17254901960784313)",#2ca02c80,44,160,44,147.648230602334
303-2275,"St Mary's Primary School, Greenlough",BT448NN,Roman Catholic Maintained,165.0,0.0,163.0,2.0,BT448NN,54.867799,-6.515397,"(0.17254901960784313, 0.6274509803921569, 0.17254901960784313)",#2ca02c80,44,160,44,128.4523257866513
303-2281,St Mary's Primary School ,BT458HX,Roman Catholic Maintained,208.0,0.0,206.0,2.0,BT458HX,54.809503,-6.519744,"(0.17254901960784313, 0.6274509803921569, 0.17254901960784313)",#2ca02c80,44,160,44,144.22205101855957
303-2285,St Patrick's & St Joseph's Primary School ,BT515BA,Roman Catholic Maintained,154.0,0.0,152.0,2.0,BT515BA,54.975286,-6.70286,"(0.17254901960784313, 0.6274509803921569, 0.17254901960784313)",#2ca02c80,44,160,44,124.09673645990857
303-2297,St Malachy's Primary School ,BT521HJ,Roman Catholic Maintained,159.0,2.0,137.0,20.0,BT521HJ,55.126048,-6.665965,"(0.17254901960784313, 0.6274509803921569, 0.17254901960784313)",#2ca02c80,44,160,44,126.09520212918491
303-3303,St Oliver Plunkett's Primary School ,BT413NJ,Roman Catholic Maintained,198.0,0.0,196.0,2.0,BT413NJ,54.75165,-6.460101,"(0.17254901960784313, 0.6274509803921569, 0.17254901960784313)",#2ca02c80,44,160,44,140.71247279470288
303-3313,St Bernard's Primary School ,BT366DW,Roman Catholic Maintained,623.0,0.0,614.0,9.0,BT366DW,54.667811,-5.949213,"(0.17254901960784313, 0.6274509803921569, 0.17254901960784313)",#2ca02c80,44,160,44,249.59967948697368
303-3317,St John's Primary School ,BT440HJ,Roman Catholic Maintained,139.0,2.0,129.0,8.0,BT440HJ,54.988616,-5.993239,"(0.17254901960784313, 0.6274509803921569, 0.17254901960784313)",#2ca02c80,44,160,44,117.89826122551595
303-3320,St Patrick's Primary School ,BT448SB,Roman Catholic Maintained,251.0,0.0,246.0,5.0,BT448SB,54.963076,-6.472304,"(0.17254901960784313, 0.6274509803921569, 0.17254901960784313)",#2ca02c80,44,160,44,158.42979517754858
303-3326,St Brigid's Primary School ,BT536JX,Roman Catholic Maintained,194.0,18.0,144.0,32.0,BT536JX,55.06696,-6.521633,"(0.17254901960784313, 0.6274509803921569, 0.17254901960784313)",#2ca02c80,44,160,44,139.2838827718412
303-3709,St John's Primary School ,BT513DX,Roman Catholic Maintained,171.0,2.0,160.0,9.0,BT513DX,55.130634,-6.682023,"(0.17254901960784313, 0.6274509803921569, 0.17254901960784313)",#2ca02c80,44,160,44,130.7669683062202
303-6026,St Joseph's Primary School ,BT294LA,Roman Catholic Maintained,562.0,2.0,539.0,21.0,BT294LA,54.611733,-6.221597,"(0.17254901960784313, 0.6274509803921569, 0.17254901960784313)",#2ca02c80,44,160,44,237.06539182259394
303-6039,St Mary's Primary School (Glenview),BT465AP,Roman Catholic Maintained,275.0,2.0,260.0,13.0,BT465AP,54.8455,-6.680112,"(0.17254901960784313, 0.6274509803921569, 0.17254901960784313)",#2ca02c80,44,160,44,165.83123951777
303-6046,St Mary's-on-the-Hill Primary School ,BT366JU,Roman Catholic Maintained,355.0,0.0,344.0,11.0,BT366JU,54.678031,-5.954776,"(0.17254901960784313, 0.6274509803921569, 0.17254901960784313)",#2ca02c80,44,160,44,188.41443681416774
303-6050,St Joseph's Primary School ,BT411JZ,Roman Catholic Maintained,346.0,8.0,261.0,77.0,BT411JZ,54.716743,-6.181665,"(0.17254901960784313, 0.6274509803921569, 0.17254901960784313)",#2ca02c80,44,160,44,186.01075237738274
303-6100,"St James's Primary School and Nursery, Newtownabbey",BT370AS,Roman Catholic Maintained,261.0,27.0,153.0,81.0,BT370AS,54.676553,-5.905607,"(0.17254901960784313, 0.6274509803921569, 0.17254901960784313)",#2ca02c80,44,160,44,161.55494421403512
303-6103,St Brigid's Primary School ,BT458PG,Roman Catholic Maintained,248.0,2.0,244.0,2.0,BT458PG,54.840127,-6.591284,"(0.17254901960784313, 0.6274509803921569, 0.17254901960784313)",#2ca02c80,44,160,44,157.48015748023622
303-6131,St Patrick's Primary School ,BT440RB,Roman Catholic Maintained,74.0,0.0,72.0,2.0,BT440RB,55.056884,-6.052131,"(0.17254901960784313, 0.6274509803921569, 0.17254901960784313)",#2ca02c80,44,160,44,86.02325267042627
303-6139,St Macnissi's Primary School ,BT366UE,Roman Catholic Maintained,181.0,2.0,174.0,5.0,BT366UE,54.692454,-5.94113,"(0.17254901960784313, 0.6274509803921569, 0.17254901960784313)",#2ca02c80,44,160,44,134.53624047073708
303-6147,St Columba's Primary School ,BT515UT,Roman Catholic Maintained,247.0,2.0,233.0,12.0,BT515UT,54.957934,-6.555754,"(0.17254901960784313, 0.6274509803921569, 0.17254901960784313)",#2ca02c80,44,160,44,157.1623364550171
303-6154,St Patrick's Primary School ,BT449JR,Roman Catholic Maintained,154.0,0.0,152.0,2.0,BT449JR,55.064334,-6.297939,"(0.17254901960784313, 0.6274509803921569, 0.17254901960784313)",#2ca02c80,44,160,44,124.09673645990857
303-6243,St Joseph's Primary School ,BT449EF,Roman Catholic Maintained,321.0,0.0,308.0,13.0,BT449EF,55.004747,-6.413046,"(0.17254901960784313, 0.6274509803921569, 0.17254901960784313)",#2ca02c80,44,160,44,179.16472867168918
303-6268,St Ciaran's Primary School ,BT440NJ,Roman Catholic Maintained,44.0,0.0,42.0,2.0,BT440NJ,55.117373,-6.05599,"(0.17254901960784313, 0.6274509803921569, 0.17254901960784313)",#2ca02c80,44,160,44,66.33249580710799
303-6292,St Patrick's Primary School (Glen),BT465JN,Roman Catholic Maintained,179.0,0.0,177.0,2.0,BT465JN,54.846555,-6.710591,"(0.17254901960784313, 0.6274509803921569, 0.17254901960784313)",#2ca02c80,44,160,44,133.79088160259653
303-6559,St Patrick's & St Brigid's Primary School ,BT546AN,Roman Catholic Maintained,445.0,2.0,420.0,23.0,BT546AN,55.204587,-6.252782,"(0.17254901960784313, 0.6274509803921569, 0.17254901960784313)",#2ca02c80,44,160,44,210.95023109728987
303-6562,Holy Family Primary School ,BT456AX,Roman Catholic Maintained,560.0,0.0,531.0,29.0,BT456AX,54.757521,-6.602947,"(0.17254901960784313, 0.6274509803921569, 0.17254901960784313)",#2ca02c80,44,160,44,236.64319132398464
303-6563,St Nicholas' Primary School ,BT388AU,Roman Catholic Maintained,149.0,16.0,103.0,30.0,BT388AU,54.714758,-5.814617,"(0.17254901960784313, 0.6274509803921569, 0.17254901960784313)",#2ca02c80,44,160,44,122.06555615733703
303-6575,St Macnissi's Primary School ,BT401RF,Roman Catholic Maintained,174.0,0.0,168.0,6.0,BT401RF,54.851954,-5.815331,"(0.17254901960784313, 0.6274509803921569, 0.17254901960784313)",#2ca02c80,44,160,44,131.90905958272918
303-6666,St Colmcille's Primary School ,BT435DG,Roman Catholic Maintained,435.0,2.0,346.0,87.0,BT435DG,54.867333,-6.285036,"(0.17254901960784313, 0.6274509803921569, 0.17254901960784313)",#2ca02c80,44,160,44,208.56653614614208
303-6679,St Brigid's Primary School,BT437DZ,Roman Catholic Maintained,389.0,0.0,348.0,41.0,BT437DZ,54.874855,-6.26493,"(0.17254901960784313, 0.6274509803921569, 0.17254901960784313)",#2ca02c80,44,160,44,197.2308292331602
303-6683,St Paul's Primary School,BT421LF,Roman Catholic Maintained,27.0,0.0,25.0,2.0,BT421LF,54.847007,-6.374844,"(0.17254901960784313, 0.6274509803921569, 0.17254901960784313)",#2ca02c80,44,160,44,51.96152422706632
303-6704,Mary Queen of Peace Primary School,BT436QH,Roman Catholic Maintained,229.0,0.0,224.0,5.0,BT436QH,54.968881,-6.22938,"(0.17254901960784313, 0.6274509803921569, 0.17254901960784313)",#2ca02c80,44,160,44,151.32745950421557
304-6653,Gaelscoil an Chaistil,BT546QQ,Other Maintained,113.0,0.0,15.0,98.0,BT546QQ,55.197932,-6.257298,"(0.17254901960784313, 0.6274509803921569, 0.17254901960784313)",#2ca02c80,44,160,44,106.3014581273465
304-6678,Gaelscoil na Speiríní,BT457BB,Other Maintained,79.0,0.0,77.0,2.0,BT457BB,54.783686,-6.806025,"(0.17254901960784313, 0.6274509803921569, 0.17254901960784313)",#2ca02c80,44,160,44,88.88194417315589
304-6684,Gaelscoil Ghleann Darach ,BT294LA,Other Maintained,93.0,0.0,83.0,10.0,BT294LA,54.611733,-6.221597,"(0.17254901960784313, 0.6274509803921569, 0.17254901960784313)",#2ca02c80,44,160,44,96.43650760992955
304-6685,Gaelscoil Éanna,BT367AU,Other Maintained,221.0,2.0,199.0,20.0,BT367AU,54.666554,-5.968451,"(0.17254901960784313, 0.6274509803921569, 0.17254901960784313)",#2ca02c80,44,160,44,148.66068747318505
304-6691,Gaelscoil an tSeanchaí,BT456BW,Other Maintained,121.0,0.0,109.0,12.0,BT456BW,54.752971,-6.60562,"(0.17254901960784313, 0.6274509803921569, 0.17254901960784313)",#2ca02c80,44,160,44,110.0
305-0519,Carnlough Controlled Integrated Primary School ,BT440EU,Controlled Integrated,31.0,6.0,19.0,6.0,BT440EU,54.992713,-5.989925,"(0.12156862745098039, 0.4666666666666667, 0.7058823529411765)",#1f77b480,31,119,180,55.67764362830022
305-0791,Glengormley Integrated Primary School ,BT366HJ,Controlled Integrated,279.0,28.0,103.0,148.0,BT366HJ,54.670971,-5.954371,"(0.12156862745098039, 0.4666666666666667, 0.7058823529411765)",#1f77b480,31,119,180,167.03293088490068
305-0841,Central Integrated Primary School ,BT388AL,Controlled Integrated,146.0,96.0,13.0,37.0,BT388AL,54.716722,-5.810895,"(0.12156862745098039, 0.4666666666666667, 0.7058823529411765)",#1f77b480,31,119,180,120.83045973594572
305-0859,Crumlin Integrated Primary School,BT294XL,Controlled Integrated,162.0,36.0,22.0,104.0,BT294XL,54.621432,-6.21461,"(0.12156862745098039, 0.4666666666666667, 0.7058823529411765)",#1f77b480,31,119,180,127.27922061357856
305-0866,Ballymoney Model Integrated Primary School,BT536BW,Controlled Integrated,376.0,233.0,21.0,122.0,BT536BW,55.071794,-6.523146,"(0.12156862745098039, 0.4666666666666667, 0.7058823529411765)",#1f77b480,31,119,180,193.9071942966532
305-0899,Seaview Integrated Primary School ,BT440AA,Controlled Integrated,97.0,29.0,44.0,24.0,BT440AA,54.967977,-5.95215,"(0.12156862745098039, 0.4666666666666667, 0.7058823529411765)",#1f77b480,31,119,180,98.48857801796103
305-2071,Carhill Integrated Primary School ,BT515PQ,Controlled Integrated,82.0,42.0,16.0,24.0,BT515PQ,54.94365,-6.680612,"(0.12156862745098039, 0.4666666666666667, 0.7058823529411765)",#1f77b480,31,119,180,90.55385138137417
305-3333,Ballycastle Integrated Primary School ,BT546BJ,Controlled Integrated,195.0,51.0,103.0,41.0,BT546BJ,55.202617,-6.246365,"(0.12156862745098039, 0.4666666666666667, 0.7058823529411765)",#1f77b480,31,119,180,139.64240043768942
305-6231,Six Mile Integrated Primary School,BT412TA,Controlled Integrated,226.0,56.0,73.0,97.0,BT412TA,54.720976,-6.188956,"(0.12156862745098039, 0.4666666666666667, 0.7058823529411765)",#1f77b480,31,119,180,150.33296378372907
305-6248,Round Tower Integrated Primary School ,BT412TH,Controlled Integrated,264.0,73.0,77.0,114.0,BT412TH,54.732487,-6.221869,"(0.12156862745098039, 0.4666666666666667, 0.7058823529411765)",#1f77b480,31,119,180,162.48076809271922
305-6708,Mallusk Integrated Primary School,BT364QE,Controlled Integrated,114.0,24.0,32.0,58.0,BT364QE,54.678923,-6.003356,"(0.12156862745098039, 0.4666666666666667, 0.7058823529411765)",#1f77b480,31,119,180,106.7707825203131
306-6544,Millstrand Integrated Primary School ,BT568EW,Grant Maintained Integrated,411.0,102.0,79.0,230.0,BT568EW,55.197652,-6.663398,"(0.12156862745098039, 0.4666666666666667, 0.7058823529411765)",#1f77b480,31,119,180,202.73134932713293
306-6551,Braidside Integrated Primary School ,BT437EN,Grant Maintained Integrated,321.0,68.0,101.0,152.0,BT437EN,54.877536,-6.257056,"(0.12156862745098039, 0.4666666666666667, 0.7058823529411765)",#1f77b480,31,119,180,179.16472867168918
306-6561,Corran Integrated Primary School ,BT401TP,Grant Maintained Integrated,218.0,69.0,72.0,77.0,BT401TP,54.871247,-5.822981,"(0.12156862745098039, 0.4666666666666667, 0.7058823529411765)",#1f77b480,31,119,180,147.648230602334
306-6568,Acorn Integrated Primary School ,BT387JL,Grant Maintained Integrated,226.0,115.0,48.0,63.0,BT387JL,54.725719,-5.793737,"(0.12156862745098039, 0.4666666666666667, 0.7058823529411765)",#1f77b480,31,119,180,150.33296378372907
306-6613,Spires Integrated Primary School ,BT456HH,Grant Maintained Integrated,208.0,56.0,94.0,58.0,BT456HH,54.741074,-6.621168,"(0.12156862745098039, 0.4666666666666667, 0.7058823529411765)",#1f77b480,31,119,180,144.22205101855957
306-6652,Maine Integrated Primary School ,BT413EH,Grant Maintained Integrated,171.0,22.0,62.0,87.0,BT413EH,54.756122,-6.329665,"(0.12156862745098039, 0.4666666666666667, 0.7058823529411765)",#1f77b480,31,119,180,130.7669683062202
401-0512,McKinney Primary School  Dundrod,BT294HX,Controlled,166.0,100.0,2.0,64.0,BT294HX,54.61365,-6.121373,"(1.0, 0.4980392156862745, 0.054901960784313725)",#ff7f0e80,255,127,14,128.84098726725125
401-0720,Ballycarrickmaddy Primary School ,BT282NX,Controlled,191.0,127.0,6.0,58.0,BT282NX,54.552823,-6.149273,"(1.0, 0.4980392156862745, 0.054901960784313725)",#ff7f0e80,255,127,14,138.20274961085255
401-0743,Largymore Primary School ,BT275BT,Controlled,193.0,63.0,0.0,130.0,BT275BT,54.509093,-6.026521,"(1.0, 0.4980392156862745, 0.054901960784313725)",#ff7f0e80,255,127,14,138.92443989449805
401-0762,Brownlee Primary School ,BT274AA,Controlled,200.0,105.0,11.0,84.0,BT274AA,54.513033,-6.042298,"(1.0, 0.4980392156862745, 0.054901960784313725)",#ff7f0e80,255,127,14,141.4213562373095
401-0788,Dunmurry Primary School ,BT179AN,Controlled,207.0,76.0,12.0,119.0,BT179AN,54.54738,-6.004209,"(1.0, 0.4980392156862745, 0.054901960784313725)",#ff7f0e80,255,127,14,143.87494569938158
401-0807,Lisburn Central Primary School ,BT281JJ,Controlled,212.0,79.0,25.0,108.0,BT281JJ,54.50666,-6.047637,"(1.0, 0.4980392156862745, 0.054901960784313725)",#ff7f0e80,255,127,14,145.60219778561037
401-0882,Seymour Hill Primary School ,BT179QX,Controlled,251.0,133.0,6.0,112.0,BT179QX,54.542758,-6.011065,"(1.0, 0.4980392156862745, 0.054901960784313725)",#ff7f0e80,255,127,14,158.42979517754858
401-0885,Tonagh Primary School ,BT281DQ,Controlled,229.0,175.0,23.0,31.0,BT281DQ,54.510269,-6.055278,"(1.0, 0.4980392156862745, 0.054901960784313725)",#ff7f0e80,255,127,14,151.32745950421557
401-1265,Ballyvester Primary School ,BT210NF,Controlled,109.0,42.0,6.0,61.0,BT210NF,54.624764,-5.561653,"(1.0, 0.4980392156862745, 0.054901960784313725)",#ff7f0e80,255,127,14,104.40306508910551
401-1300,Grey Abbey Primary School ,BT222QA,Controlled,78.0,41.0,0.0,37.0,BT222QA,54.534315,-5.560855,"(1.0, 0.4980392156862745, 0.054901960784313725)",#ff7f0e80,255,127,14,88.31760866327848
401-1310,Carrickmannon Primary School ,BT236JJ,Controlled,87.0,64.0,2.0,21.0,BT236JJ,54.481438,-5.779138,"(1.0, 0.4980392156862745, 0.054901960784313725)",#ff7f0e80,255,127,14,93.27379053088816
401-1345,Newtownards Model Primary School ,BT234NW,Controlled,386.0,215.0,12.0,159.0,BT234NW,54.590302,-5.709097,"(1.0, 0.4980392156862745, 0.054901960784313725)",#ff7f0e80,255,127,14,196.468827043885
401-1373,Kirkistown Primary School ,BT221JA,Controlled,57.0,23.0,0.0,34.0,BT221JA,54.438402,-5.470164,"(1.0, 0.4980392156862745, 0.054901960784313725)",#ff7f0e80,255,127,14,75.4983443527075
401-1462,Castle Gardens Primary School ,BT238SH,Controlled,343.0,175.0,11.0,157.0,BT238SH,54.58927,-5.675735,"(1.0, 0.4980392156862745, 0.054901960784313725)",#ff7f0e80,255,127,14,185.20259177452135
401-1488,Victoria Primary School (Ballyhalbert),BT221DQ,Controlled,119.0,66.0,0.0,53.0,BT221DQ,54.491214,-5.466748,"(1.0, 0.4980392156862745, 0.054901960784313725)",#ff7f0e80,255,127,14,109.08712114635713
401-1507,Portavogie Primary School ,BT221EE,Controlled,231.0,175.0,2.0,54.0,BT221EE,54.456661,-5.446211,"(1.0, 0.4980392156862745, 0.054901960784313725)",#ff7f0e80,255,127,14,151.98684153570665
401-1566,Ballywalter Primary School ,BT222NT,Controlled,161.0,69.0,2.0,90.0,BT222NT,54.545489,-5.489073,"(1.0, 0.4980392156862745, 0.054901960784313725)",#ff7f0e80,255,127,14,126.8857754044952
401-1567,Ballynahinch Primary School ,BT248BB,Controlled,235.0,151.0,9.0,75.0,BT248BB,54.399625,-5.905841,"(1.0, 0.4980392156862745, 0.054901960784313725)",#ff7f0e80,255,127,14,153.29709716755892
401-1578,Derryboy Primary School ,BT309LY,Controlled,63.0,53.0,0.0,10.0,BT309LY,54.438527,-5.731501,"(1.0, 0.4980392156862745, 0.054901960784313725)",#ff7f0e80,255,127,14,79.37253933193772
401-1584,Carr Primary School ,BT276TB,Controlled,79.0,30.0,2.0,47.0,BT276TB,54.499381,-5.933577,"(1.0, 0.4980392156862745, 0.054901960784313725)",#ff7f0e80,255,127,14,88.88194417315589
401-1587,Dundonald Primary School ,BT162LP,Controlled,852.0,419.0,48.0,385.0,BT162LP,54.593022,-5.804927,"(1.0, 0.4980392156862745, 0.054901960784313725)",#ff7f0e80,255,127,14,291.89039038652845
401-1588,Comber Primary School ,BT235BX,Controlled,355.0,221.0,2.0,132.0,BT235BX,54.553579,-5.741611,"(1.0, 0.4980392156862745, 0.054901960784313725)",#ff7f0e80,255,127,14,188.41443681416774
401-1606,Gilnahirk Primary School ,BT57QQ,Controlled,411.0,257.0,14.0,140.0,BT57QQ,54.58328,-5.839252,"(1.0, 0.4980392156862745, 0.054901960784313725)",#ff7f0e80,255,127,14,202.73134932713293
401-1608,Anahilt Primary School ,BT266BP,Controlled,139.0,56.0,2.0,81.0,BT266BP,54.436158,-5.995735,"(1.0, 0.4980392156862745, 0.054901960784313725)",#ff7f0e80,255,127,14,117.89826122551595
401-1619,Dromara Primary School ,BT252BL,Controlled,177.0,93.0,13.0,71.0,BT252BL,54.381024,-6.017972,"(1.0, 0.4980392156862745, 0.054901960784313725)",#ff7f0e80,255,127,14,133.04134695650072
401-1631,Holywood Primary School ,BT189DL,Controlled,441.0,209.0,17.0,215.0,BT189DL,54.639408,-5.832077,"(1.0, 0.4980392156862745, 0.054901960784313725)",#ff7f0e80,255,127,14,210.0
401-1632,Cregagh Primary School ,BT60FL,Controlled,159.0,96.0,17.0,46.0,BT60FL,54.575815,-5.902118,"(1.0, 0.4980392156862745, 0.054901960784313725)",#ff7f0e80,255,127,14,126.09520212918491
401-1645,Crawfordsburn Primary School ,BT191JA,Controlled,207.0,90.0,2.0,115.0,BT191JA,54.657216,-5.725294,"(1.0, 0.4980392156862745, 0.054901960784313725)",#ff7f0e80,255,127,14,143.87494569938158
401-1646,Victoria Primary School ,BT237DD,Controlled,457.0,267.0,13.0,177.0,BT237DD,54.594511,-5.688976,"(1.0, 0.4980392156862745, 0.054901960784313725)",#ff7f0e80,255,127,14,213.7755832643195
401-1650,Ballyholme Primary School ,BT205RG,Controlled,628.0,238.0,43.0,347.0,BT205RG,54.663737,-5.638807,"(1.0, 0.4980392156862745, 0.054901960784313725)",#ff7f0e80,255,127,14,250.59928172283335
401-1654,Donaghadee Primary School ,BT210BD,Controlled,439.0,160.0,14.0,265.0,BT210BD,54.63977,-5.538089,"(1.0, 0.4980392156862745, 0.054901960784313725)",#ff7f0e80,255,127,14,209.52326839756964
401-1657,Lisnasharragh Primary School ,BT69LS,Controlled,380.0,230.0,17.0,133.0,BT69LS,54.573232,-5.886924,"(1.0, 0.4980392156862745, 0.054901960784313725)",#ff7f0e80,255,127,14,194.93588689617926
401-1670,Clandeboye Primary School ,BT203JW,Controlled,300.0,148.0,6.0,146.0,BT203JW,54.651943,-5.68223,"(1.0, 0.4980392156862745, 0.054901960784313725)",#ff7f0e80,255,127,14,173.20508075688775
401-1674,Knockbreda Primary School ,BT60JJ,Controlled,129.0,74.0,13.0,42.0,BT60JJ,54.567645,-5.903512,"(1.0, 0.4980392156862745, 0.054901960784313725)",#ff7f0e80,255,127,14,113.57816691600547
401-1681,Millisle Primary School ,BT222DD,Controlled,221.0,122.0,2.0,97.0,BT222DD,54.606886,-5.530788,"(1.0, 0.4980392156862745, 0.054901960784313725)",#ff7f0e80,255,127,14,148.66068747318505
401-1683,Braniel Primary School ,BT57JU,Controlled,436.0,133.0,2.0,301.0,BT57JU,54.578406,-5.861274,"(1.0, 0.4980392156862745, 0.054901960784313725)",#ff7f0e80,255,127,14,208.80613017821102
401-1698,Newcastle Primary School ,BT330AS,Controlled,221.0,77.0,47.0,97.0,BT330AS,54.215296,-5.890331,"(1.0, 0.4980392156862745, 0.054901960784313725)",#ff7f0e80,255,127,14,148.66068747318505
401-1699,Moneyrea Primary School ,BT236BB,Controlled,256.0,127.0,2.0,127.0,BT236BB,54.53365,-5.827986,"(1.0, 0.4980392156862745, 0.054901960784313725)",#ff7f0e80,255,127,14,160.0
401-3013,Belvoir Park Primary School ,BT87DL,Controlled,261.0,114.0,26.0,121.0,BT87DL,54.551432,-5.930961,"(1.0, 0.4980392156862745, 0.054901960784313725)",#ff7f0e80,255,127,14,161.55494421403512
401-3023,Bloomfield Primary School ,BT197PN,Controlled,445.0,132.0,8.0,305.0,BT197PN,54.642995,-5.657145,"(1.0, 0.4980392156862745, 0.054901960784313725)",#ff7f0e80,255,127,14,210.95023109728987
401-3024,Cairnshill Primary School ,BT86RT,Controlled,546.0,241.0,45.0,260.0,BT86RT,54.552642,-5.902086,"(1.0, 0.4980392156862745, 0.054901960784313725)",#ff7f0e80,255,127,14,233.66642891095847
401-3043,Leadhill Primary School,BT69RD,Controlled,159.0,68.0,10.0,81.0,BT69RD,54.57455,-5.873431,"(1.0, 0.4980392156862745, 0.054901960784313725)",#ff7f0e80,255,127,14,126.09520212918491
401-3044,Carryduff Primary School ,BT88EE,Controlled,177.0,99.0,13.0,65.0,BT88EE,54.514043,-5.883604,"(1.0, 0.4980392156862745, 0.054901960784313725)",#ff7f0e80,255,127,14,133.04134695650072
401-3045,Grange Park Primary School ,BT203QG,Controlled,394.0,173.0,17.0,204.0,BT203QG,54.658678,-5.687224,"(1.0, 0.4980392156862745, 0.054901960784313725)",#ff7f0e80,255,127,14,198.49433241279206
401-3046,Alexander Dickson Primary School ,BT235TN,Controlled,88.0,73.0,2.0,13.0,BT235TN,54.502587,-5.789307,"(1.0, 0.4980392156862745, 0.054901960784313725)",#ff7f0e80,255,127,14,93.8083151964686
401-3305,Harmony Hill Primary School ,BT274ES,Controlled,642.0,284.0,43.0,315.0,BT274ES,54.524155,-6.034413,"(1.0, 0.4980392156862745, 0.054901960784313725)",#ff7f0e80,255,127,14,253.37718918639854
401-3334,Knockmore Primary School ,BT281SA,Controlled,244.0,85.0,39.0,120.0,BT281SA,54.508933,-6.076217,"(1.0, 0.4980392156862745, 0.054901960784313725)",#ff7f0e80,255,127,14,156.20499351813308
401-6002,Kilcooley Primary School ,BT191QS,Controlled,212.0,93.0,0.0,119.0,BT191QS,54.64734,-5.698591,"(1.0, 0.4980392156862745, 0.054901960784313725)",#ff7f0e80,255,127,14,145.60219778561037
401-6004,Londonderry Primary School ,BT234EY,Controlled,404.0,200.0,6.0,198.0,BT234EY,54.601296,-5.701283,"(1.0, 0.4980392156862745, 0.054901960784313725)",#ff7f0e80,255,127,14,200.9975124224178
401-6020,Carrowdore Primary School ,BT222JJ,Controlled,166.0,81.0,2.0,83.0,BT222JJ,54.577901,-5.553502,"(1.0, 0.4980392156862745, 0.054901960784313725)",#ff7f0e80,255,127,14,128.84098726725125
401-6067,Rathmore Primary School ,BT191DJ,Controlled,583.0,302.0,17.0,264.0,BT191DJ,54.65743,-5.70329,"(1.0, 0.4980392156862745, 0.054901960784313725)",#ff7f0e80,255,127,14,241.45392935299273
401-6083,West Winds Primary School and Nursery Unit,BT234RQ,Controlled,179.0,105.0,2.0,72.0,BT234RQ,54.580548,-5.701756,"(1.0, 0.4980392156862745, 0.054901960784313725)",#ff7f0e80,255,127,14,133.79088160259653
401-6104,Moira Primary School ,BT670LJ,Controlled,416.0,213.0,46.0,157.0,BT670LJ,54.48574,-6.241099,"(1.0, 0.4980392156862745, 0.054901960784313725)",#ff7f0e80,255,127,14,203.9607805437114
401-6111,Towerview Primary School ,BT196AZ,Controlled,456.0,232.0,8.0,216.0,BT196AZ,54.662489,-5.621875,"(1.0, 0.4980392156862745, 0.054901960784313725)",#ff7f0e80,255,127,14,213.5415650406262
401-6123,Spa Primary School ,BT248QB,Controlled,200.0,127.0,5.0,68.0,BT248QB,54.377049,-5.892661,"(1.0, 0.4980392156862745, 0.054901960784313725)",#ff7f0e80,255,127,14,141.4213562373095
401-6126,Andrews Memorial Primary School ,BT235PG,Controlled,376.0,224.0,5.0,147.0,BT235PG,54.54411,-5.766368,"(1.0, 0.4980392156862745, 0.054901960784313725)",#ff7f0e80,255,127,14,193.9071942966532
401-6144,Old Warren Primary School ,BT281QP,Controlled,155.0,86.0,15.0,54.0,BT281QP,54.502595,-6.059131,"(1.0, 0.4980392156862745, 0.054901960784313725)",#ff7f0e80,255,127,14,124.49899597988733
401-6145,Killowen Primary School ,BT282UH,Controlled,435.0,186.0,23.0,226.0,BT282UH,54.520005,-6.06629,"(1.0, 0.4980392156862745, 0.054901960784313725)",#ff7f0e80,255,127,14,208.56653614614208
401-6192,Kilmaine Primary School ,BT196EF,Controlled,662.0,208.0,15.0,439.0,BT196EF,54.654145,-5.631661,"(1.0, 0.4980392156862745, 0.054901960784313725)",#ff7f0e80,255,127,14,257.29360660537213
401-6201,Academy Primary School ,BT247JA,Controlled,455.0,223.0,44.0,188.0,BT247JA,54.454743,-5.831135,"(1.0, 0.4980392156862745, 0.054901960784313725)",#ff7f0e80,255,127,14,213.3072900770154
401-6202,Ballinderry Primary School ,BT282BF,Controlled,277.0,163.0,23.0,91.0,BT282BF,54.548012,-6.255343,"(1.0, 0.4980392156862745, 0.054901960784313725)",#ff7f0e80,255,127,14,166.43316977093238
401-6235,Downpatrick Primary School ,BT306AF,Controlled,213.0,56.0,91.0,66.0,BT306AF,54.329499,-5.718368,"(1.0, 0.4980392156862745, 0.054901960784313725)",#ff7f0e80,255,127,14,145.94519519326423
401-6396,Killinchy Primary School ,BT236PN,Controlled,331.0,208.0,9.0,114.0,BT236PN,54.471712,-5.675311,"(1.0, 0.4980392156862745, 0.054901960784313725)",#ff7f0e80,255,127,14,181.93405398660252
401-6399,Abbey Primary School ,BT238RQ,Controlled,606.0,316.0,10.0,280.0,BT238RQ,54.594647,-5.666144,"(1.0, 0.4980392156862745, 0.054901960784313725)",#ff7f0e80,255,127,14,246.17067250182342
401-6401,Pond Park Primary School ,BT283BF,Controlled,625.0,333.0,70.0,222.0,BT283BF,54.525469,-6.067453,"(1.0, 0.4980392156862745, 0.054901960784313725)",#ff7f0e80,255,127,14,250.0
401-6417,Maghaberry Primary School ,BT670JE,Controlled,309.0,172.0,7.0,130.0,BT670JE,54.50412,-6.192249,"(1.0, 0.4980392156862745, 0.054901960784313725)",#ff7f0e80,255,127,14,175.78395831246948
401-6430,Ballymagee Primary School ,BT196ZG,Controlled,417.0,202.0,27.0,188.0,BT196ZG,54.64445,-5.637199,"(1.0, 0.4980392156862745, 0.054901960784313725)",#ff7f0e80,255,127,14,204.20577856662138
401-6441,Ballymacash Primary School ,BT282EE,Controlled,458.0,220.0,21.0,217.0,BT282EE,54.519768,-6.086365,"(1.0, 0.4980392156862745, 0.054901960784313725)",#ff7f0e80,255,127,14,214.00934559032694
401-6503,Brooklands Primary School ,BT162PA,Controlled,576.0,528.0,6.0,42.0,BT162PA,54.593596,-5.793972,"(1.0, 0.4980392156862745, 0.054901960784313725)",#ff7f0e80,255,127,14,240.0
401-6615,Riverdale Primary School ,BT275LX,Controlled,204.0,121.0,9.0,74.0,BT275LX,54.477051,-6.011664,"(1.0, 0.4980392156862745, 0.054901960784313725)",#ff7f0e80,255,127,14,142.82856857085702
401-6636,Meadow Bridge Primary School ,BT266JR,Controlled,296.0,201.0,10.0,85.0,BT266JR,54.473119,-6.146935,"(1.0, 0.4980392156862745, 0.054901960784313725)",#ff7f0e80,255,127,14,172.04650534085255
401-6649,Downshire Primary School Hillsborough,BT266AR,Controlled,646.0,344.0,77.0,225.0,BT266AR,54.464066,-6.079264,"(1.0, 0.4980392156862745, 0.054901960784313725)",#ff7f0e80,255,127,14,254.1653005427767
401-6650,Cumran Primary School ,BT308RB,Controlled,209.0,138.0,20.0,51.0,BT308RB,54.290849,-5.8387,"(1.0, 0.4980392156862745, 0.054901960784313725)",#ff7f0e80,255,127,14,144.5683229480096
401-6681,Glasswater Primary School ,BT309EG,Controlled,88.0,51.0,8.0,29.0,BT309EG,54.396368,-5.757559,"(1.0, 0.4980392156862745, 0.054901960784313725)",#ff7f0e80,255,127,14,93.8083151964686
403-0573,Ballymacward Primary School ,BT283SU,Roman Catholic Maintained,84.0,2.0,77.0,5.0,BT283SU,54.577994,-6.10549,"(0.17254901960784313, 0.6274509803921569, 0.17254901960784313)",#2ca02c80,44,160,44,91.6515138991168
403-0823,Ballymacrickett Primary School ,BT294NE,Roman Catholic Maintained,375.0,2.0,355.0,18.0,BT294NE,54.574743,-6.220379,"(0.17254901960784313, 0.6274509803921569, 0.17254901960784313)",#2ca02c80,44,160,44,193.64916731037084
403-0897,St Joseph's Primary School ,BT274XE,Roman Catholic Maintained,388.0,2.0,344.0,42.0,BT274XE,54.511731,-6.041233,"(0.17254901960784313, 0.6274509803921569, 0.17254901960784313)",#2ca02c80,44,160,44,196.97715603592206
403-1328,Christ the King Primary School ,BT248NG,Roman Catholic Maintained,65.0,0.0,65.0,0.0,BT248NG,54.353849,-5.872713,"(0.17254901960784313, 0.6274509803921569, 0.17254901960784313)",#2ca02c80,44,160,44,80.62257748298549
403-1350,St Malachy's Primary School ,BT307PA,Roman Catholic Maintained,40.0,2.0,33.0,5.0,BT307PA,54.325962,-5.561969,"(0.17254901960784313, 0.6274509803921569, 0.17254901960784313)",#2ca02c80,44,160,44,63.24555320336759
403-1485,St Caolan's Primary School ,BT247EQ,Roman Catholic Maintained,91.0,0.0,89.0,2.0,BT247EQ,54.450018,-5.763215,"(0.17254901960784313, 0.6274509803921569, 0.17254901960784313)",#2ca02c80,44,160,44,95.39392014169457
403-1526,St Patrick's Primary School ,BT307JQ,Roman Catholic Maintained,175.0,2.0,171.0,2.0,BT307JQ,54.350441,-5.651708,"(0.17254901960784313, 0.6274509803921569, 0.17254901960784313)",#2ca02c80,44,160,44,132.2875655532295
403-1531,St Francis' Primary School ,BT319PQ,Roman Catholic Maintained,90.0,0.0,88.0,2.0,BT319PQ,54.321795,-5.896595,"(0.17254901960784313, 0.6274509803921569, 0.17254901960784313)",#2ca02c80,44,160,44,94.86832980505139
403-1550,St Joseph's Primary School ,BT309HS,Roman Catholic Maintained,132.0,2.0,125.0,5.0,BT309HS,54.399452,-5.771698,"(0.17254901960784313, 0.6274509803921569, 0.17254901960784313)",#2ca02c80,44,160,44,114.89125293076057
403-1628,St Patrick's Primary School ,BT189LN,Roman Catholic Maintained,296.0,15.0,204.0,77.0,BT189LN,54.638682,-5.836175,"(0.17254901960784313, 0.6274509803921569, 0.17254901960784313)",#2ca02c80,44,160,44,172.04650534085255
403-1660,St Joseph's Primary School ,BT88EX,Roman Catholic Maintained,520.0,2.0,486.0,32.0,BT88EX,54.529884,-5.885194,"(0.17254901960784313, 0.6274509803921569, 0.17254901960784313)",#2ca02c80,44,160,44,228.0350850198276
403-1662,St Mary's Primary School ,BT235AP,Roman Catholic Maintained,91.0,21.0,42.0,28.0,BT235AP,54.548288,-5.744129,"(0.17254901960784313, 0.6274509803921569, 0.17254901960784313)",#2ca02c80,44,160,44,95.39392014169457
403-1663,St Joseph's Primary School ,BT330JS,Roman Catholic Maintained,196.0,2.0,186.0,8.0,BT330JS,54.234949,-5.909483,"(0.17254901960784313, 0.6274509803921569, 0.17254901960784313)",#2ca02c80,44,160,44,140.0
403-1665,St Patrick's Primary School ,BT248DN,Roman Catholic Maintained,265.0,13.0,228.0,24.0,BT248DN,54.403366,-5.896179,"(0.17254901960784313, 0.6274509803921569, 0.17254901960784313)",#2ca02c80,44,160,44,162.78820596099706
403-1671,St Patrick's Primary School ,BT319HH,Roman Catholic Maintained,48.0,0.0,48.0,0.0,BT319HH,54.241911,-5.952807,"(0.17254901960784313, 0.6274509803921569, 0.17254901960784313)",#2ca02c80,44,160,44,69.28203230275508
403-1673,St Mary's Primary School ,BT307SS,Roman Catholic Maintained,88.0,2.0,84.0,2.0,BT307SS,54.294562,-5.570324,"(0.17254901960784313, 0.6274509803921569, 0.17254901960784313)",#2ca02c80,44,160,44,93.8083151964686
403-1676,St Bernard's Primary School ,BT60JS,Roman Catholic Maintained,437.0,2.0,416.0,19.0,BT60JS,54.567873,-5.902185,"(0.17254901960784313, 0.6274509803921569, 0.17254901960784313)",#2ca02c80,44,160,44,209.04544960366874
403-3002,St Mary's Aughlisnafin,BT319JP,Roman Catholic Maintained,91.0,0.0,91.0,0.0,BT319JP,54.275735,-5.894014,"(0.17254901960784313, 0.6274509803921569, 0.17254901960784313)",#2ca02c80,44,160,44,95.39392014169457
403-3005,St Joseph's Primary School ,BT307LZ,Roman Catholic Maintained,85.0,6.0,70.0,9.0,BT307LZ,54.369645,-5.557641,"(0.17254901960784313, 0.6274509803921569, 0.17254901960784313)",#2ca02c80,44,160,44,92.19544457292886
403-3007,St Macartan's Primary School ,BT308PZ,Roman Catholic Maintained,174.0,0.0,174.0,0.0,BT308PZ,54.338235,-5.820514,"(0.17254901960784313, 0.6274509803921569, 0.17254901960784313)",#2ca02c80,44,160,44,131.90905958272918
403-3012,The Holy Family Primary School ,BT309AN,Roman Catholic Maintained,186.0,0.0,184.0,2.0,BT309AN,54.369514,-5.790895,"(0.17254901960784313, 0.6274509803921569, 0.17254901960784313)",#2ca02c80,44,160,44,136.38181696985856
403-3017,St Finian's Primary School ,BT237AD,Roman Catholic Maintained,163.0,10.0,90.0,63.0,BT237AD,54.594971,-5.694258,"(0.17254901960784313, 0.6274509803921569, 0.17254901960784313)",#2ca02c80,44,160,44,127.67145334803703
403-3028,St Patrick's Primary School ,BT221NE,Roman Catholic Maintained,119.0,2.0,115.0,2.0,BT221NE,54.406776,-5.496683,"(0.17254901960784313, 0.6274509803921569, 0.17254901960784313)",#2ca02c80,44,160,44,109.08712114635713
403-3036,St Mary's Primary School ,BT309RB,Roman Catholic Maintained,69.0,0.0,60.0,9.0,BT309RB,54.405495,-5.649301,"(0.17254901960784313, 0.6274509803921569, 0.17254901960784313)",#2ca02c80,44,160,44,83.06623862918075
403-3037,St Joseph's Primary School ,BT308DF,Roman Catholic Maintained,67.0,2.0,63.0,2.0,BT308DF,54.268804,-5.784604,"(0.17254901960784313, 0.6274509803921569, 0.17254901960784313)",#2ca02c80,44,160,44,81.85352771872451
403-3040,St Brigid's Primary School ,BT306NL,Roman Catholic Maintained,271.0,0.0,258.0,13.0,BT306NL,54.33415,-5.705394,"(0.17254901960784313, 0.6274509803921569, 0.17254901960784313)",#2ca02c80,44,160,44,164.6207763315433
403-3306,St Aloysius Primary School ,BT281TB,Roman Catholic Maintained,443.0,18.0,368.0,57.0,BT281TB,54.509904,-6.066166,"(0.17254901960784313, 0.6274509803921569, 0.17254901960784313)",#2ca02c80,44,160,44,210.47565179849187
403-3307,St Colman's Primary School ,BT274QS,Roman Catholic Maintained,393.0,2.0,372.0,19.0,BT274QS,54.529525,-6.030401,"(0.17254901960784313, 0.6274509803921569, 0.17254901960784313)",#2ca02c80,44,160,44,198.2422760159901
403-6016,St Joseph's Primary School ,BT307QD,Roman Catholic Maintained,50.0,0.0,48.0,2.0,BT307QD,54.254928,-5.645171,"(0.17254901960784313, 0.6274509803921569, 0.17254901960784313)",#2ca02c80,44,160,44,70.71067811865476
403-6036,St Malachy's Primary School ,BT345HU,Roman Catholic Maintained,188.0,0.0,188.0,0.0,BT345HU,54.235801,-6.029298,"(0.17254901960784313, 0.6274509803921569, 0.17254901960784313)",#2ca02c80,44,160,44,137.11309200802089
403-6113,St Nicholas' Primary School ,BT307SF,Roman Catholic Maintained,166.0,0.0,166.0,0.0,BT307SF,54.263986,-5.613217,"(0.17254901960784313, 0.6274509803921569, 0.17254901960784313)",#2ca02c80,44,160,44,128.84098726725125
403-6133,Sacred Heart Primary School ,BT330LU,Roman Catholic Maintained,121.0,2.0,109.0,10.0,BT330LU,54.260199,-5.84121,"(0.17254901960784313, 0.6274509803921569, 0.17254901960784313)",#2ca02c80,44,160,44,110.0
403-6146,St Comgall's Primary School ,BT203DS,Roman Catholic Maintained,303.0,7.0,236.0,60.0,BT203DS,54.658608,-5.681649,"(0.17254901960784313, 0.6274509803921569, 0.17254901960784313)",#2ca02c80,44,160,44,174.0689518552921
403-6148,St Malachy's Primary School ,BT191AA,Roman Catholic Maintained,399.0,84.0,105.0,210.0,BT191AA,54.645514,-5.690498,"(0.17254901960784313, 0.6274509803921569, 0.17254901960784313)",#2ca02c80,44,160,44,199.74984355438178
403-6182,St Colmcille's Primary School ,BT306PZ,Roman Catholic Maintained,366.0,2.0,345.0,19.0,BT306PZ,54.31617,-5.71159,"(0.17254901960784313, 0.6274509803921569, 0.17254901960784313)",#2ca02c80,44,160,44,191.3112646970899
403-6285,The Good Shepherd Primary School ,BT170PJ,Roman Catholic Maintained,354.0,2.0,343.0,9.0,BT170PJ,54.567054,-6.026504,"(0.17254901960784313, 0.6274509803921569, 0.17254901960784313)",#2ca02c80,44,160,44,188.1488772222678
403-6428,St Mary's Primary School ,BT222SU,Roman Catholic Maintained,148.0,6.0,123.0,19.0,BT222SU,54.486281,-5.535827,"(0.17254901960784313, 0.6274509803921569, 0.17254901960784313)",#2ca02c80,44,160,44,121.65525060596438
403-6454,St Malachy's Primary School ,BT319DN,Roman Catholic Maintained,395.0,3.0,389.0,3.0,BT319DN,54.257448,-5.944932,"(0.17254901960784313, 0.6274509803921569, 0.17254901960784313)",#2ca02c80,44,160,44,198.7460691435179
403-6455,St Patrick's Primary School ,BT308AR,Roman Catholic Maintained,161.0,0.0,159.0,2.0,BT308AR,54.286634,-5.719203,"(0.17254901960784313, 0.6274509803921569, 0.17254901960784313)",#2ca02c80,44,160,44,126.8857754044952
403-6480,St Kieran's Primary School ,BT170PB,Roman Catholic Maintained,397.0,2.0,387.0,8.0,BT170PB,54.561768,-6.02962,"(0.17254901960784313, 0.6274509803921569, 0.17254901960784313)",#2ca02c80,44,160,44,199.24858845171275
403-6530,St Mary's Primary School ,BT221RH,Roman Catholic Maintained,177.0,2.0,170.0,5.0,BT221RH,54.379978,-5.542988,"(0.17254901960784313, 0.6274509803921569, 0.17254901960784313)",#2ca02c80,44,160,44,133.04134695650072
403-6591,Our Lady Queen of Peace Primary School ,BT170RW,Roman Catholic Maintained,383.0,7.0,360.0,16.0,BT170RW,54.556017,-6.012537,"(0.17254901960784313, 0.6274509803921569, 0.17254901960784313)",#2ca02c80,44,160,44,195.70385790780927
403-6618,Christ the Redeemer Primary School ,BT170TG,Roman Catholic Maintained,704.0,0.0,702.0,2.0,BT170TG,54.550806,-6.031246,"(0.17254901960784313, 0.6274509803921569, 0.17254901960784313)",#2ca02c80,44,160,44,265.32998322843196
403-6635,St Mary's Primary School ,BT330BA,Roman Catholic Maintained,384.0,2.0,366.0,16.0,BT330BA,54.216485,-5.8951,"(0.17254901960784313, 0.6274509803921569, 0.17254901960784313)",#2ca02c80,44,160,44,195.95917942265424
403-6642,St Ita's Primary School,BT86YY,Roman Catholic Maintained,701.0,2.0,613.0,86.0,BT86YY,54.543169,-5.915972,"(0.17254901960784313, 0.6274509803921569, 0.17254901960784313)",#2ca02c80,44,160,44,264.76404589747455
403-6693,Our Lady and St Patrick Primary School,BT306JD,Roman Catholic Maintained,408.0,2.0,364.0,42.0,BT306JD,54.326459,-5.708743,"(0.17254901960784313, 0.6274509803921569, 0.17254901960784313)",#2ca02c80,44,160,44,201.99009876724153
403-6702,Holy Evangelists' Primary School and Nursery Unit,BT170DB,Roman Catholic Maintained,538.0,0.0,524.0,14.0,BT170DB,54.5558,-6.023956,"(0.17254901960784313, 0.6274509803921569, 0.17254901960784313)",#2ca02c80,44,160,44,231.94827009486403
404-6600,Scoil na Fuiseoige,BT170DF,Other Maintained,170.0,0.0,170.0,0.0,BT170DF,54.550147,-6.026069,"(0.17254901960784313, 0.6274509803921569, 0.17254901960784313)",#2ca02c80,44,160,44,130.384048104053
404-6648,Bunscoil Bheanna Boirche,BT319EB,Other Maintained,150.0,2.0,111.0,37.0,BT319EB,54.254314,-5.938197,"(0.17254901960784313, 0.6274509803921569, 0.17254901960784313)",#2ca02c80,44,160,44,122.4744871391589
405-1569,Kircubbin Integrated Primary School ,BT222SQ,Controlled Integrated,196.0,85.0,30.0,81.0,BT222SQ,54.487014,-5.532558,"(0.12156862745098039, 0.4666666666666667, 0.7058823529411765)",#1f77b480,31,119,180,140.0
405-1601,Portaferry Integrated Primary School ,BT221QU,Controlled Integrated,71.0,18.0,29.0,24.0,BT221QU,54.383369,-5.542231,"(0.12156862745098039, 0.4666666666666667, 0.7058823529411765)",#1f77b480,31,119,180,84.2614977317636
405-1680,Bangor Central Integrated Primary School ,BT204TF,Controlled Integrated,496.0,205.0,58.0,233.0,BT204TF,54.657316,-5.663062,"(0.12156862745098039, 0.4666666666666667, 0.7058823529411765)",#1f77b480,31,119,180,222.71057451320087
405-3009,Annsborough Integrated Primary School ,BT319NN,Controlled Integrated,35.0,2.0,20.0,13.0,BT319NN,54.26607,-5.919589,"(0.12156862745098039, 0.4666666666666667, 0.7058823529411765)",#1f77b480,31,119,180,59.16079783099616
405-3020,Glencraig Integrated Primary School ,BT180DJ,Controlled Integrated,235.0,95.0,83.0,57.0,BT180DJ,54.662205,-5.766415,"(0.12156862745098039, 0.4666666666666667, 0.7058823529411765)",#1f77b480,31,119,180,153.29709716755892
405-3308,Fort Hill Integrated Primary School ,BT274TJ,Controlled Integrated,231.0,97.0,54.0,80.0,BT274TJ,54.514623,-6.031767,"(0.12156862745098039, 0.4666666666666667, 0.7058823529411765)",#1f77b480,31,119,180,151.98684153570665
405-6541,All Childrens Integrated Primary  School,BT330HD,Controlled Integrated,217.0,34.0,99.0,84.0,BT330HD,54.198921,-5.890629,"(0.12156862745098039, 0.4666666666666667, 0.7058823529411765)",#1f77b480,31,119,180,147.30919862656233
405-6709,Killyleagh Integrated Primary School ,BT309SR,Controlled Integrated,140.0,65.0,28.0,47.0,BT309SR,54.405781,-5.657495,"(0.12156862745098039, 0.4666666666666667, 0.7058823529411765)",#1f77b480,31,119,180,118.32159566199232
405-6710,Loughries Integrated Primary School ,BT238SR,Controlled Integrated,89.0,49.0,5.0,35.0,BT238SR,54.57981,-5.64334,"(0.12156862745098039, 0.4666666666666667, 0.7058823529411765)",#1f77b480,31,119,180,94.33981132056603
406-6579,Lough View Integrated Primary & Nursery School,BT69SA,Grant Maintained Integrated,469.0,163.0,177.0,129.0,BT69SA,54.569028,-5.875698,"(0.12156862745098039, 0.4666666666666667, 0.7058823529411765)",#1f77b480,31,119,180,216.56407827707713
406-6588,Cedar Integrated Primary School ,BT309HJ,Grant Maintained Integrated,229.0,60.0,95.0,74.0,BT309HJ,54.393736,-5.764832,"(0.12156862745098039, 0.4666666666666667, 0.7058823529411765)",#1f77b480,31,119,180,151.32745950421557
406-6611,Oakwood Integrated Primary School ,BT179HN,Grant Maintained Integrated,213.0,41.0,92.0,80.0,BT179HN,54.543357,-6.020215,"(0.12156862745098039, 0.4666666666666667, 0.7058823529411765)",#1f77b480,31,119,180,145.94519519326423
406-6644,Millennium  Integrated Primary School ,BT247HF,Grant Maintained Integrated,422.0,155.0,132.0,135.0,BT247HF,54.494062,-5.85571,"(0.12156862745098039, 0.4666666666666667, 0.7058823529411765)",#1f77b480,31,119,180,205.4263858417414
406-6668,Drumlins Integrated Primary School ,BT248EU,Grant Maintained Integrated,212.0,78.0,73.0,61.0,BT248EU,54.402701,-5.891038,"(0.12156862745098039, 0.4666666666666667, 0.7058823529411765)",#1f77b480,31,119,180,145.60219778561037
406-6682,Rowandale Integrated Primary School,BT670PB,Grant Maintained Integrated,345.0,97.0,137.0,111.0,BT670PB,54.475958,-6.210093,"(0.12156862745098039, 0.4666666666666667, 0.7058823529411765)",#1f77b480,31,119,180,185.74175621006708
501-0909,Foley Primary School,BT602QS,Controlled,134.0,0.0,134.0,0.0,BT602QS,54.283032,-6.625275,"(1.0, 0.4980392156862745, 0.054901960784313725)",#ff7f0e80,255,127,14,115.75836902790226
501-0992,Lurgan Model Primary School ,BT679AT,Controlled,228.0,13.0,139.0,76.0,BT679AT,54.467144,-6.336403,"(1.0, 0.4980392156862745, 0.054901960784313725)",#ff7f0e80,255,127,14,150.996688705415
501-1019,Mullaglass Primary School ,BT356PZ,Controlled,73.0,69.0,2.0,2.0,BT356PZ,54.208004,-6.365751,"(1.0, 0.4980392156862745, 0.054901960784313725)",#ff7f0e80,255,127,14,85.44003745317531
501-1095,Mullavilly Primary School ,BT622LX,Controlled,107.0,88.0,2.0,17.0,BT622LX,54.372004,-6.447525,"(1.0, 0.4980392156862745, 0.054901960784313725)",#ff7f0e80,255,127,14,103.44080432788601
501-1112,Hardy Memorial Primary School ,BT619QR,Controlled,460.0,342.0,13.0,105.0,BT619QR,54.371225,-6.550269,"(1.0, 0.4980392156862745, 0.054901960784313725)",#ff7f0e80,255,127,14,214.47610589527216
501-1115,Armstrong Primary School ,BT619DF,Controlled,510.0,235.0,75.0,200.0,BT619DF,54.352234,-6.647959,"(1.0, 0.4980392156862745, 0.054901960784313725)",#ff7f0e80,255,127,14,225.8317958127243
501-1116,Tandragee Primary School ,BT622BB,Controlled,376.0,263.0,11.0,102.0,BT622BB,54.356521,-6.414822,"(1.0, 0.4980392156862745, 0.054901960784313725)",#ff7f0e80,255,127,14,193.9071942966532
501-1119,Darkley Primary School ,BT603BG,Controlled,117.0,2.0,115.0,0.0,BT603BG,54.222541,-6.680857,"(1.0, 0.4980392156862745, 0.054901960784313725)",#ff7f0e80,255,127,14,108.16653826391969
501-1124,King's Park Primary School Lurgan,BT667BB,Controlled,695.0,353.0,82.0,260.0,BT667BB,54.458206,-6.321591,"(1.0, 0.4980392156862745, 0.054901960784313725)",#ff7f0e80,255,127,14,263.6285265292814
501-1127,Carrick Primary School ,BT668NY,Controlled,469.0,99.0,192.0,178.0,BT668NY,54.458024,-6.342232,"(1.0, 0.4980392156862745, 0.054901960784313725)",#ff7f0e80,255,127,14,216.56407827707713
501-1129,Hart Memorial Primary School ,BT624BD,Controlled,457.0,257.0,37.0,163.0,BT624BD,54.423677,-6.457575,"(1.0, 0.4980392156862745, 0.054901960784313725)",#ff7f0e80,255,127,14,213.7755832643195
501-1132,Killylea Primary School ,BT604LN,Controlled,93.0,81.0,0.0,12.0,BT604LN,54.347678,-6.774013,"(1.0, 0.4980392156862745, 0.054901960784313725)",#ff7f0e80,255,127,14,96.43650760992955
501-1137,Newtownhamilton Primary School ,BT350DQ,Controlled,57.0,50.0,2.0,5.0,BT350DQ,54.197201,-6.579446,"(1.0, 0.4980392156862745, 0.054901960784313725)",#ff7f0e80,255,127,14,75.4983443527075
501-1142,Clare Primary School ,BT622HB,Controlled,133.0,107.0,0.0,26.0,BT622HB,54.327557,-6.452383,"(1.0, 0.4980392156862745, 0.054901960784313725)",#ff7f0e80,255,127,14,115.32562594670796
501-1153,Lisnadill Primary School ,BT602PS,Controlled,144.0,110.0,0.0,34.0,BT602PS,54.308496,-6.646167,"(1.0, 0.4980392156862745, 0.054901960784313725)",#ff7f0e80,255,127,14,120.0
501-1157,Derryhale Primary School ,BT623SR,Controlled,79.0,50.0,2.0,27.0,BT623SR,54.380828,-6.479376,"(1.0, 0.4980392156862745, 0.054901960784313725)",#ff7f0e80,255,127,14,88.88194417315589
501-1161,Mountnorris Primary School ,BT602TR,Controlled,111.0,97.0,2.0,12.0,BT602TR,54.253005,-6.475123,"(1.0, 0.4980392156862745, 0.054901960784313725)",#ff7f0e80,255,127,14,105.35653752852738
501-1165,Richmount Primary School,BT621QP,Controlled,91.0,65.0,6.0,20.0,BT621QP,54.440441,-6.508335,"(1.0, 0.4980392156862745, 0.054901960784313725)",#ff7f0e80,255,127,14,95.39392014169457
501-1174,Birches Primary School ,BT621LR,Controlled,181.0,153.0,5.0,23.0,BT621LR,54.487602,-6.54907,"(1.0, 0.4980392156862745, 0.054901960784313725)",#ff7f0e80,255,127,14,134.53624047073708
501-1175,Cortamlet Primary School ,BT350EE,Controlled,71.0,67.0,2.0,2.0,BT350EE,54.179965,-6.626385,"(1.0, 0.4980392156862745, 0.054901960784313725)",#ff7f0e80,255,127,14,84.2614977317636
501-1179,Bessbrook Primary School ,BT357AQ,Controlled,116.0,48.0,30.0,38.0,BT357AQ,54.195438,-6.398134,"(1.0, 0.4980392156862745, 0.054901960784313725)",#ff7f0e80,255,127,14,107.70329614269008
501-1189,Edenderry Primary School ,BT635EP,Controlled,411.0,241.0,29.0,141.0,BT635EP,54.422688,-6.415904,"(1.0, 0.4980392156862745, 0.054901960784313725)",#ff7f0e80,255,127,14,202.73134932713293
501-1190,Tullygally Primary School ,BT655AA,Controlled,259.0,2.0,191.0,66.0,BT655AA,54.45219,-6.357161,"(1.0, 0.4980392156862745, 0.054901960784313725)",#ff7f0e80,255,127,14,160.93476939431082
501-1520,Dromore Road Primary School ,BT343JH,Controlled,87.0,22.0,29.0,36.0,BT343JH,54.103439,-6.252096,"(1.0, 0.4980392156862745, 0.054901960784313725)",#ff7f0e80,255,127,14,93.27379053088816
501-1575,Dromore Central Primary School ,BT251DG,Controlled,727.0,478.0,41.0,208.0,BT251DG,54.414912,-6.14263,"(1.0, 0.4980392156862745, 0.054901960784313725)",#ff7f0e80,255,127,14,269.62937525425525
501-1594,Abercorn Primary School ,BT323HR,Controlled,330.0,190.0,11.0,129.0,BT323HR,54.344856,-6.273866,"(1.0, 0.4980392156862745, 0.054901960784313725)",#ff7f0e80,255,127,14,181.6590212458495
501-1596,Gilford Primary School ,BT636HH,Controlled,95.0,33.0,10.0,52.0,BT636HH,54.374592,-6.358616,"(1.0, 0.4980392156862745, 0.054901960784313725)",#ff7f0e80,255,127,14,97.46794344808963
501-1598,Waringstown Primary School ,BT667QH,Controlled,425.0,269.0,18.0,138.0,BT667QH,54.435168,-6.300278,"(1.0, 0.4980392156862745, 0.054901960784313725)",#ff7f0e80,255,127,14,206.15528128088303
501-1602,Bleary Primary School ,BT668TD,Controlled,170.0,114.0,19.0,37.0,BT668TD,54.425225,-6.34123,"(1.0, 0.4980392156862745, 0.054901960784313725)",#ff7f0e80,255,127,14,130.384048104053
501-1611,Iveagh Primary School ,BT345NH,Controlled,284.0,197.0,12.0,75.0,BT345NH,54.239189,-6.155873,"(1.0, 0.4980392156862745, 0.054901960784313725)",#ff7f0e80,255,127,14,168.5229954635272
501-1617,Ballydown Primary School ,BT324JN,Controlled,338.0,221.0,20.0,97.0,BT324JN,54.353995,-6.242227,"(1.0, 0.4980392156862745, 0.054901960784313725)",#ff7f0e80,255,127,14,183.84776310850236
501-1649,Kilkeel Primary School ,BT344AT,Controlled,527.0,390.0,14.0,123.0,BT344AT,54.061128,-6.001778,"(1.0, 0.4980392156862745, 0.054901960784313725)",#ff7f0e80,255,127,14,229.56480566497993
501-1651,Milltown Primary School ,BT324NR,Controlled,53.0,29.0,0.0,24.0,BT324NR,54.37512,-6.289895,"(1.0, 0.4980392156862745, 0.054901960784313725)",#ff7f0e80,255,127,14,72.80109889280519
501-1664,Scarva Primary School ,BT636NS,Controlled,61.0,54.0,0.0,7.0,BT636NS,54.329048,-6.361891,"(1.0, 0.4980392156862745, 0.054901960784313725)",#ff7f0e80,255,127,14,78.10249675906654
501-1684,Annalong Primary School ,BT344TH,Controlled,198.0,143.0,13.0,42.0,BT344TH,54.107157,-5.901271,"(1.0, 0.4980392156862745, 0.054901960784313725)",#ff7f0e80,255,127,14,140.71247279470288
501-1687,Maralin Village Primary School ,BT670QZ,Controlled,260.0,158.0,8.0,94.0,BT670QZ,54.464659,-6.252662,"(1.0, 0.4980392156862745, 0.054901960784313725)",#ff7f0e80,255,127,14,161.24515496597098
501-2280,Moneymore Primary School ,BT457QT,Controlled,244.0,203.0,2.0,39.0,BT457QT,54.695445,-6.667649,"(1.0, 0.4980392156862745, 0.054901960784313725)",#ff7f0e80,255,127,14,156.20499351813308
501-2538,Churchill Primary School ,BT684UY,Controlled,106.0,97.0,0.0,9.0,BT684UY,54.36203,-6.832383,"(1.0, 0.4980392156862745, 0.054901960784313725)",#ff7f0e80,255,127,14,102.95630140987001
501-2615,Ballytrea Primary School ,BT715NY,Controlled,51.0,36.0,0.0,15.0,BT715NY,54.607676,-6.645322,"(1.0, 0.4980392156862745, 0.054901960784313725)",#ff7f0e80,255,127,14,71.41428428542851
501-2621,Aughnacloy Primary School ,BT696DU,Controlled,165.0,156.0,0.0,9.0,BT696DU,54.418131,-6.968014,"(1.0, 0.4980392156862745, 0.054901960784313725)",#ff7f0e80,255,127,14,128.4523257866513
501-2632,Donaghmore Primary School ,BT703EZ,Controlled,70.0,59.0,0.0,11.0,BT703EZ,54.531094,-6.812546,"(1.0, 0.4980392156862745, 0.054901960784313725)",#ff7f0e80,255,127,14,83.66600265340756
501-2635,Augher Central Primary School ,BT770BE,Controlled,79.0,49.0,2.0,28.0,BT770BE,54.43226,-7.137212,"(1.0, 0.4980392156862745, 0.054901960784313725)",#ff7f0e80,255,127,14,88.88194417315589
501-2636,Moy Regional Primary School ,BT717SN,Controlled,80.0,45.0,2.0,33.0,BT717SN,54.448949,-6.698685,"(1.0, 0.4980392156862745, 0.054901960784313725)",#ff7f0e80,255,127,14,89.44271909999159
501-2643,Stewartstown Primary School ,BT715HY,Controlled,49.0,39.0,2.0,8.0,BT715HY,54.575386,-6.676813,"(1.0, 0.4980392156862745, 0.054901960784313725)",#ff7f0e80,255,127,14,70.0
501-2646,Howard Primary School ,BT717QR,Controlled,325.0,210.0,31.0,84.0,BT717QR,54.487834,-6.748219,"(1.0, 0.4980392156862745, 0.054901960784313725)",#ff7f0e80,255,127,14,180.27756377319946
501-2649,Coagh Primary School ,BT800DW,Controlled,115.0,104.0,0.0,11.0,BT800DW,54.64696,-6.619632,"(1.0, 0.4980392156862745, 0.054901960784313725)",#ff7f0e80,255,127,14,107.23805294763608
501-2657,Walker Memorial Primary School ,BT703DQ,Controlled,69.0,37.0,2.0,30.0,BT703DQ,54.508296,-6.838713,"(1.0, 0.4980392156862745, 0.054901960784313725)",#ff7f0e80,255,127,14,83.06623862918075
501-2696,Carntall Primary School ,BT760UY,Controlled,96.0,88.0,0.0,8.0,BT760UY,54.422115,-7.220108,"(1.0, 0.4980392156862745, 0.054901960784313725)",#ff7f0e80,255,127,14,97.97958971132712
501-2719,Newmills Primary School ,BT714DX,Controlled,111.0,88.0,2.0,21.0,BT714DX,54.550052,-6.739993,"(1.0, 0.4980392156862745, 0.054901960784313725)",#ff7f0e80,255,127,14,105.35653752852738
501-2720,Dungannon Primary School ,BT716BE,Controlled,317.0,25.0,193.0,99.0,BT716BE,54.50699,-6.764152,"(1.0, 0.4980392156862745, 0.054901960784313725)",#ff7f0e80,255,127,14,178.04493814764857
501-2726,Cookstown Primary School ,BT808PF,Controlled,484.0,264.0,47.0,173.0,BT808PF,54.643381,-6.741274,"(1.0, 0.4980392156862745, 0.054901960784313725)",#ff7f0e80,255,127,14,220.0
501-3019,Edenderry Primary School ,BT324AF,Controlled,412.0,238.0,29.0,145.0,BT324AF,54.354997,-6.268626,"(1.0, 0.4980392156862745, 0.054901960784313725)",#ff7f0e80,255,127,14,202.9778313018444
501-3702,Woods Primary School ,BT456HX,Controlled,190.0,158.0,8.0,24.0,BT456HX,54.720014,-6.546365,"(1.0, 0.4980392156862745, 0.054901960784313725)",#ff7f0e80,255,127,14,137.84048752090223
501-6007,Millington Primary School ,BT623HQ,Controlled,630.0,340.0,108.0,182.0,BT623HQ,54.419051,-6.450631,"(1.0, 0.4980392156862745, 0.054901960784313725)",#ff7f0e80,255,127,14,250.99800796022265
501-6027,Drumhillery Primary School ,BT603QB,Controlled,63.0,61.0,0.0,2.0,BT603QB,54.26998,-6.78791,"(1.0, 0.4980392156862745, 0.054901960784313725)",#ff7f0e80,255,127,14,79.37253933193772
501-6065,Dickson Primary School ,BT668LJ,Controlled,229.0,93.0,19.0,117.0,BT668LJ,54.451997,-6.333918,"(1.0, 0.4980392156862745, 0.054901960784313725)",#ff7f0e80,255,127,14,151.32745950421557
501-6078,Poyntzpass Primary School ,BT356SL,Controlled,150.0,111.0,5.0,34.0,BT356SL,54.295921,-6.373774,"(1.0, 0.4980392156862745, 0.054901960784313725)",#ff7f0e80,255,127,14,122.4744871391589
501-6079,The Cope Primary School ,BT618HY,Controlled,103.0,68.0,0.0,35.0,BT618HY,54.407689,-6.611158,"(1.0, 0.4980392156862745, 0.054901960784313725)",#ff7f0e80,255,127,14,101.4889156509222
501-6080,Drumgor Primary School ,BT655BP,Controlled,306.0,79.0,117.0,110.0,BT655BP,54.446059,-6.376862,"(1.0, 0.4980392156862745, 0.054901960784313725)",#ff7f0e80,255,127,14,174.928556845359
501-6088,Fivemiletown Primary School & Nursery Unit,BT750QP,Controlled,213.0,160.0,21.0,32.0,BT750QP,54.379165,-7.308689,"(1.0, 0.4980392156862745, 0.054901960784313725)",#ff7f0e80,255,127,14,145.94519519326423
501-6098,Brackenagh West Primary School ,BT344QB,Controlled,146.0,131.0,0.0,15.0,BT344QB,54.098937,-5.974795,"(1.0, 0.4980392156862745, 0.054901960784313725)",#ff7f0e80,255,127,14,120.83045973594572
501-6117,Ballyoran Primary School ,BT621JY,Controlled,277.0,6.0,201.0,70.0,BT621JY,54.432812,-6.4525,"(1.0, 0.4980392156862745, 0.054901960784313725)",#ff7f0e80,255,127,14,166.43316977093238
501-6138,Bocombra Primary School ,BT635SG,Controlled,363.0,197.0,24.0,142.0,BT635SG,54.430348,-6.408104,"(1.0, 0.4980392156862745, 0.054901960784313725)",#ff7f0e80,255,127,14,190.5255888325765
501-6141,Churchtown Primary School ,BT809XA,Controlled,50.0,43.0,0.0,7.0,BT809XA,54.685318,-6.743124,"(1.0, 0.4980392156862745, 0.054901960784313725)",#ff7f0e80,255,127,14,70.71067811865476
501-6178,Donacloney Primary School ,BT667LP,Controlled,231.0,168.0,2.0,61.0,BT667LP,54.419887,-6.258188,"(1.0, 0.4980392156862745, 0.054901960784313725)",#ff7f0e80,255,127,14,151.98684153570665
501-6179,Hamiltonsbawn Primary School ,BT619SA,Controlled,138.0,101.0,2.0,35.0,BT619SA,54.343988,-6.543893,"(1.0, 0.4980392156862745, 0.054901960784313725)",#ff7f0e80,255,127,14,117.4734012447073
501-6200,"Queen Elizabeth II Primary School, Pomeroy",BT702RW,Controlled,41.0,39.0,0.0,2.0,BT702RW,54.599411,-6.913408,"(1.0, 0.4980392156862745, 0.054901960784313725)",#ff7f0e80,255,127,14,64.03124237432849
501-6221,Orritor Primary School ,BT809NE,Controlled,219.0,179.0,0.0,40.0,BT809NE,54.658738,-6.822043,"(1.0, 0.4980392156862745, 0.054901960784313725)",#ff7f0e80,255,127,14,147.9864858694874
501-6224,Donaghey Primary School ,BT714DA,Controlled,102.0,78.0,2.0,22.0,BT714DA,54.585548,-6.746043,"(1.0, 0.4980392156862745, 0.054901960784313725)",#ff7f0e80,255,127,14,100.99504938362077
501-6391,Bush Primary School ,BT716QU,Controlled,209.0,120.0,50.0,39.0,BT716QU,54.519223,-6.727445,"(1.0, 0.4980392156862745, 0.054901960784313725)",#ff7f0e80,255,127,14,144.5683229480096
501-6436,Markethill Primary School ,BT601RQ,Controlled,310.0,226.0,21.0,63.0,BT601RQ,54.290793,-6.519739,"(1.0, 0.4980392156862745, 0.054901960784313725)",#ff7f0e80,255,127,14,176.0681686165901
501-6451,Windsor Hill Primary School ,BT341DY,Controlled,209.0,65.0,43.0,101.0,BT341DY,54.180579,-6.332108,"(1.0, 0.4980392156862745, 0.054901960784313725)",#ff7f0e80,255,127,14,144.5683229480096
501-6543,Moyallon Primary School ,BT635JY,Controlled,203.0,145.0,2.0,56.0,BT635JY,54.399498,-6.38865,"(1.0, 0.4980392156862745, 0.054901960784313725)",#ff7f0e80,255,127,14,142.47806848775008
501-6599,Fair Hill Primary School ,BT252PJ,Controlled,265.0,219.0,8.0,38.0,BT252PJ,54.379512,-6.083477,"(1.0, 0.4980392156862745, 0.054901960784313725)",#ff7f0e80,255,127,14,162.78820596099706
501-6612,Bronte Primary School ,BT325BL,Controlled,187.0,135.0,10.0,42.0,BT325BL,54.264082,-6.239072,"(1.0, 0.4980392156862745, 0.054901960784313725)",#ff7f0e80,255,127,14,136.74794331177344
501-6616,Drumadonnell Primary School ,BT325EY,Controlled,222.0,187.0,2.0,33.0,BT325EY,54.283604,-6.095336,"(1.0, 0.4980392156862745, 0.054901960784313725)",#ff7f0e80,255,127,14,148.9966442575134
501-6643,Richmond Primary School ,BT702EZ,Controlled,112.0,94.0,2.0,16.0,BT702EZ,54.465845,-7.041288,"(1.0, 0.4980392156862745, 0.054901960784313725)",#ff7f0e80,255,127,14,105.83005244258362
501-6658,Orchard County Primary School,BT621NH,Controlled,171.0,142.0,2.0,27.0,BT621NH,54.465232,-6.612664,"(1.0, 0.4980392156862745, 0.054901960784313725)",#ff7f0e80,255,127,14,130.7669683062202
501-6680,Killyman Primary School ,BT716RL,Controlled,188.0,145.0,6.0,37.0,BT716RL,54.489921,-6.700763,"(1.0, 0.4980392156862745, 0.054901960784313725)",#ff7f0e80,255,127,14,137.11309200802089
503-0958,"St John's Eglish Primary School, Annaghmore",BT621NL,Roman Catholic Maintained,83.0,0.0,83.0,0.0,BT621NL,54.458813,-6.564615,"(0.17254901960784313, 0.6274509803921569, 0.17254901960784313)",#2ca02c80,44,160,44,91.10433579144299
503-0972,St Oliver Plunkett's Primary School ,BT359SN,Roman Catholic Maintained,140.0,2.0,133.0,5.0,BT359SN,54.082521,-6.452746,"(0.17254901960784313, 0.6274509803921569, 0.17254901960784313)",#2ca02c80,44,160,44,118.32159566199232
503-0975,St Malachy's Primary School ,BT602LA,Roman Catholic Maintained,76.0,2.0,72.0,2.0,BT602LA,54.216897,-6.518383,"(0.17254901960784313, 0.6274509803921569, 0.17254901960784313)",#2ca02c80,44,160,44,87.17797887081348
503-1070,St Michael's Primary School ,BT350PB,Roman Catholic Maintained,77.0,0.0,50.0,27.0,BT350PB,54.18973,-6.575995,"(0.17254901960784313, 0.6274509803921569, 0.17254901960784313)",#2ca02c80,44,160,44,87.74964387392123
503-1080,Clintyclay Primary School ,BT716HX,Roman Catholic Maintained,90.0,0.0,73.0,17.0,BT716HX,54.478881,-6.640466,"(0.17254901960784313, 0.6274509803921569, 0.17254901960784313)",#2ca02c80,44,160,44,94.86832980505139
503-1086,Clonalig Primary School ,BT359JE,Roman Catholic Maintained,173.0,0.0,171.0,2.0,BT359JE,54.057183,-6.626516,"(0.17254901960784313, 0.6274509803921569, 0.17254901960784313)",#2ca02c80,44,160,44,131.52946437965906
503-1088,Dromintee Primary School ,BT358TD,Roman Catholic Maintained,163.0,0.0,161.0,2.0,BT358TD,54.088459,-6.41878,"(0.17254901960784313, 0.6274509803921569, 0.17254901960784313)",#2ca02c80,44,160,44,127.67145334803703
503-1103,Tannaghmore Primary School ,BT679DY,Roman Catholic Maintained,622.0,2.0,615.0,5.0,BT679DY,54.474816,-6.33245,"(0.17254901960784313, 0.6274509803921569, 0.17254901960784313)",#2ca02c80,44,160,44,249.39927826679852
503-1107,St Teresa's Primary School ,BT602UF,Roman Catholic Maintained,54.0,0.0,52.0,2.0,BT602UF,54.240271,-6.474888,"(0.17254901960784313, 0.6274509803921569, 0.17254901960784313)",#2ca02c80,44,160,44,73.48469228349535
503-1108,Clea Primary School ,BT603QX,Roman Catholic Maintained,120.0,0.0,120.0,0.0,BT603QX,54.227251,-6.712663,"(0.17254901960784313, 0.6274509803921569, 0.17254901960784313)",#2ca02c80,44,160,44,109.54451150103323
503-1110,Christian Brothers' Primary School ,BT604AB,Roman Catholic Maintained,558.0,0.0,551.0,7.0,BT604AB,54.342137,-6.660192,"(0.17254901960784313, 0.6274509803921569, 0.17254901960784313)",#2ca02c80,44,160,44,236.2202362203543
503-1126,Mount St Catherine's Primary School ,BT604BR,Roman Catholic Maintained,180.0,2.0,91.0,87.0,BT604BR,54.34772,-6.661287,"(0.17254901960784313, 0.6274509803921569, 0.17254901960784313)",#2ca02c80,44,160,44,134.1640786499874
503-1130,"St.Moninna's Primary School, Cloughoge",BT358NG,Roman Catholic Maintained,461.0,2.0,448.0,11.0,BT358NG,54.161846,-6.356272,"(0.17254901960784313, 0.6274509803921569, 0.17254901960784313)",#2ca02c80,44,160,44,214.7091055358389
503-1133,St Malachy's Primary School ,BT617EG,Roman Catholic Maintained,200.0,2.0,186.0,12.0,BT617EG,54.346384,-6.655871,"(0.17254901960784313, 0.6274509803921569, 0.17254901960784313)",#2ca02c80,44,160,44,141.4213562373095
503-1135,St Oliver's Primary School (Carrickrovaddy),BT350QJ,Roman Catholic Maintained,54.0,0.0,54.0,0.0,BT350QJ,54.149697,-6.546116,"(0.17254901960784313, 0.6274509803921569, 0.17254901960784313)",#2ca02c80,44,160,44,73.48469228349535
503-1138,St Joseph's Primary School ,BT603LR,Roman Catholic Maintained,181.0,0.0,181.0,0.0,BT603LR,54.286748,-6.740967,"(0.17254901960784313, 0.6274509803921569, 0.17254901960784313)",#2ca02c80,44,160,44,134.53624047073708
503-1148,St Patrick's Primary School ,BT359JL,Roman Catholic Maintained,504.0,0.0,504.0,0.0,BT359JL,54.079347,-6.609206,"(0.17254901960784313, 0.6274509803921569, 0.17254901960784313)",#2ca02c80,44,160,44,224.4994432064365
503-1154,Killean Primary School ,BT358RX,Roman Catholic Maintained,127.0,0.0,127.0,0.0,BT358RX,54.116605,-6.34046,"(0.17254901960784313, 0.6274509803921569, 0.17254901960784313)",#2ca02c80,44,160,44,112.69427669584644
503-1158,St Patrick's Primary School ,BT356EX,Roman Catholic Maintained,457.0,5.0,432.0,20.0,BT356EX,54.185338,-6.34817,"(0.17254901960784313, 0.6274509803921569, 0.17254901960784313)",#2ca02c80,44,160,44,213.7755832643195
503-1160,St Teresa's Primary School ,BT679LQ,Roman Catholic Maintained,187.0,2.0,181.0,4.0,BT679LQ,54.482574,-6.321087,"(0.17254901960784313, 0.6274509803921569, 0.17254901960784313)",#2ca02c80,44,160,44,136.74794331177344
503-1163,St Brigid's Primary School ,BT359DY,Roman Catholic Maintained,201.0,0.0,199.0,2.0,BT359DY,54.072087,-6.536486,"(0.17254901960784313, 0.6274509803921569, 0.17254901960784313)",#2ca02c80,44,160,44,141.77446878757826
503-1164,St Mary's Primary School ,BT716PA,Roman Catholic Maintained,54.0,0.0,52.0,2.0,BT716PA,54.510463,-6.572161,"(0.17254901960784313, 0.6274509803921569, 0.17254901960784313)",#2ca02c80,44,160,44,73.48469228349535
503-1166,St Michael's Primary School ,BT602EP,Roman Catholic Maintained,73.0,0.0,71.0,2.0,BT602EP,54.257872,-6.564915,"(0.17254901960784313, 0.6274509803921569, 0.17254901960784313)",#2ca02c80,44,160,44,85.44003745317531
503-1168,St Patrick's Primary School ,BT666LG,Roman Catholic Maintained,215.0,2.0,211.0,2.0,BT666LG,54.469752,-6.38629,"(0.17254901960784313, 0.6274509803921569, 0.17254901960784313)",#2ca02c80,44,160,44,146.6287829861518
503-1169,"St Brigid's Primary School, Drumilly",BT357QL,Roman Catholic Maintained,121.0,0.0,121.0,0.0,BT357QL,54.188883,-6.452039,"(0.17254901960784313, 0.6274509803921569, 0.17254901960784313)",#2ca02c80,44,160,44,110.0
503-1172,St Mary's Primary School ,BT602NJ,Roman Catholic Maintained,216.0,0.0,216.0,0.0,BT602NJ,54.252678,-6.65194,"(0.17254901960784313, 0.6274509803921569, 0.17254901960784313)",#2ca02c80,44,160,44,146.9693845669907
503-1176,St Peter's Primary School ,BT357DN,Roman Catholic Maintained,366.0,0.0,359.0,7.0,BT357DN,54.19401,-6.386758,"(0.17254901960784313, 0.6274509803921569, 0.17254901960784313)",#2ca02c80,44,160,44,191.3112646970899
503-1183,St Patrick's Primary School ,BT617NN,Roman Catholic Maintained,429.0,5.0,398.0,26.0,BT617NN,54.361943,-6.657378,"(0.17254901960784313, 0.6274509803921569, 0.17254901960784313)",#2ca02c80,44,160,44,207.1231517720798
503-1184,St Anthony's Primary School ,BT655BL,Roman Catholic Maintained,684.0,9.0,634.0,41.0,BT655BL,54.450753,-6.368505,"(0.17254901960784313, 0.6274509803921569, 0.17254901960784313)",#2ca02c80,44,160,44,261.5339366124404
503-1188,St Joseph's Primary School ,BT358LA,Roman Catholic Maintained,197.0,0.0,192.0,5.0,BT358LA,54.13816,-6.389405,"(0.17254901960784313, 0.6274509803921569, 0.17254901960784313)",#2ca02c80,44,160,44,140.356688476182
503-1318,Killowen Primary School ,BT343AE,Roman Catholic Maintained,41.0,2.0,33.0,6.0,BT343AE,54.073538,-6.155954,"(0.17254901960784313, 0.6274509803921569, 0.17254901960784313)",#2ca02c80,44,160,44,64.03124237432849
503-1340,St Joseph's Convent Primary School ,BT356AN,Roman Catholic Maintained,494.0,2.0,426.0,66.0,BT356AN,54.178202,-6.339525,"(0.17254901960784313, 0.6274509803921569, 0.17254901960784313)",#2ca02c80,44,160,44,222.2611077089287
503-1558,Ballyholland Primary School ,BT342ND,Roman Catholic Maintained,198.0,2.0,194.0,2.0,BT342ND,54.154125,-6.29348,"(0.17254901960784313, 0.6274509803921569, 0.17254901960784313)",#2ca02c80,44,160,44,140.71247279470288
503-1589,Grange Primary School ,BT344LL,Roman Catholic Maintained,109.0,0.0,107.0,2.0,BT344LL,54.039803,-6.056462,"(0.17254901960784313, 0.6274509803921569, 0.17254901960784313)",#2ca02c80,44,160,44,104.40306508910551
503-1609,Carrick Primary School ,BT343QA,Roman Catholic Maintained,388.0,0.0,381.0,7.0,BT343QA,54.133375,-6.25746,"(0.17254901960784313, 0.6274509803921569, 0.17254901960784313)",#2ca02c80,44,160,44,196.97715603592206
503-1653,St Matthew's Primary School Magheramayo,BT319AZ,Roman Catholic Maintained,93.0,0.0,93.0,0.0,BT319AZ,54.268963,-6.00888,"(0.17254901960784313, 0.6274509803921569, 0.17254901960784313)",#2ca02c80,44,160,44,96.43650760992955
503-1667,St Patrick's Primary School ,BT670QU,Roman Catholic Maintained,120.0,0.0,120.0,0.0,BT670QU,54.467283,-6.277136,"(0.17254901960784313, 0.6274509803921569, 0.17254901960784313)",#2ca02c80,44,160,44,109.54451150103323
503-1669,St John's Primary School ,BT636HH,Roman Catholic Maintained,133.0,0.0,127.0,6.0,BT636HH,54.374592,-6.358616,"(0.17254901960784313, 0.6274509803921569, 0.17254901960784313)",#2ca02c80,44,160,44,115.32562594670796
503-1694,Holy Cross Primary School ,BT344HT,Roman Catholic Maintained,103.0,2.0,99.0,2.0,BT344HT,54.111795,-6.03823,"(0.17254901960784313, 0.6274509803921569, 0.17254901960784313)",#2ca02c80,44,160,44,101.4889156509222
503-1695,St Mary's Primary School ,BT341SX,Roman Catholic Maintained,158.0,0.0,149.0,9.0,BT341SX,54.231618,-6.339574,"(0.17254901960784313, 0.6274509803921569, 0.17254901960784313)",#2ca02c80,44,160,44,125.69805089976535
503-1697,St Patrick's Primary School ,BT342EX,Roman Catholic Maintained,348.0,2.0,332.0,14.0,BT342EX,54.172562,-6.236087,"(0.17254901960784313, 0.6274509803921569, 0.17254901960784313)",#2ca02c80,44,160,44,186.54758106177633
503-2208,Ballylifford Primary School ,BT800AY,Roman Catholic Maintained,78.0,0.0,78.0,0.0,BT800AY,54.669682,-6.547529,"(0.17254901960784313, 0.6274509803921569, 0.17254901960784313)",#2ca02c80,44,160,44,88.31760866327848
503-2262,Lissan Primary School ,BT809XE,Roman Catholic Maintained,122.0,0.0,120.0,2.0,BT809XE,54.688843,-6.755607,"(0.17254901960784313, 0.6274509803921569, 0.17254901960784313)",#2ca02c80,44,160,44,110.45361017187261
503-2306,St Malachy's Primary School  Glencull,BT702DB,Roman Catholic Maintained,107.0,0.0,107.0,0.0,BT702DB,54.477604,-7.068781,"(0.17254901960784313, 0.6274509803921569, 0.17254901960784313)",#2ca02c80,44,160,44,103.44080432788601
503-2387,Derrylatinee Primary School ,BT701PS,Roman Catholic Maintained,99.0,0.0,97.0,2.0,BT701PS,54.450426,-6.84954,"(0.17254901960784313, 0.6274509803921569, 0.17254901960784313)",#2ca02c80,44,160,44,99.498743710662
503-2463,Blessed Patrick O'loughran Primary School ,BT703NQ,Roman Catholic Maintained,105.0,0.0,105.0,0.0,BT703NQ,54.506638,-6.829883,"(0.17254901960784313, 0.6274509803921569, 0.17254901960784313)",#2ca02c80,44,160,44,102.46950765959598
503-2558,Laghey Primary School ,BT716RJ,Roman Catholic Maintained,103.0,2.0,94.0,7.0,BT716RJ,54.493223,-6.688759,"(0.17254901960784313, 0.6274509803921569, 0.17254901960784313)",#2ca02c80,44,160,44,101.4889156509222
503-2585,Edendork Primary School ,BT714DP,Roman Catholic Maintained,287.0,0.0,280.0,7.0,BT714DP,54.529539,-6.738864,"(0.17254901960784313, 0.6274509803921569, 0.17254901960784313)",#2ca02c80,44,160,44,169.41074346097417
503-2591,Roan St Patrick's Primary School ,BT701LE,Roman Catholic Maintained,168.0,2.0,164.0,2.0,BT701LE,54.453508,-6.797896,"(0.17254901960784313, 0.6274509803921569, 0.17254901960784313)",#2ca02c80,44,160,44,129.6148139681572
503-2592,St Mary's Primary School ,BT703LH,Roman Catholic Maintained,78.0,0.0,76.0,2.0,BT703LH,54.549227,-6.786644,"(0.17254901960784313, 0.6274509803921569, 0.17254901960784313)",#2ca02c80,44,160,44,88.31760866327848
503-2624,St Macartan's Primary School ,BT760HE,Roman Catholic Maintained,119.0,2.0,108.0,9.0,BT760HE,54.408656,-7.172544,"(0.17254901960784313, 0.6274509803921569, 0.17254901960784313)",#2ca02c80,44,160,44,109.08712114635713
503-2678,St Patrick's Primary School ,BT703HG,Roman Catholic Maintained,214.0,0.0,206.0,8.0,BT703HG,54.533009,-6.816368,"(0.17254901960784313, 0.6274509803921569, 0.17254901960784313)",#2ca02c80,44,160,44,146.28738838327794
503-2692,St Mary's Primary School ,BT715HT,Roman Catholic Maintained,90.0,0.0,88.0,2.0,BT715HT,54.57751,-6.678816,"(0.17254901960784313, 0.6274509803921569, 0.17254901960784313)",#2ca02c80,44,160,44,94.86832980505139
503-2697,St Patrick's Primary School ,BT770ET,Roman Catholic Maintained,90.0,0.0,90.0,0.0,BT770ET,54.391605,-7.103474,"(0.17254901960784313, 0.6274509803921569, 0.17254901960784313)",#2ca02c80,44,160,44,94.86832980505139
503-2698,St Brigid's Primary School ,BT715DY,Roman Catholic Maintained,128.0,0.0,126.0,2.0,BT715DY,54.558216,-6.603959,"(0.17254901960784313, 0.6274509803921569, 0.17254901960784313)",#2ca02c80,44,160,44,113.13708498984761
503-2699,St Mary's Primary School ,BT809NT,Roman Catholic Maintained,179.0,0.0,179.0,0.0,BT809NT,54.672154,-6.936996,"(0.17254901960784313, 0.6274509803921569, 0.17254901960784313)",#2ca02c80,44,160,44,133.79088160259653
503-2703,St Peter's Primary School ,BT800HT,Roman Catholic Maintained,169.0,0.0,167.0,2.0,BT800HT,54.628994,-6.515733,"(0.17254901960784313, 0.6274509803921569, 0.17254901960784313)",#2ca02c80,44,160,44,130.0
503-2713,Derrychrin Primary School ,BT800BX,Roman Catholic Maintained,172.0,2.0,170.0,0.0,BT800BX,54.655621,-6.563277,"(0.17254901960784313, 0.6274509803921569, 0.17254901960784313)",#2ca02c80,44,160,44,131.14877048604
503-2714,"Holy Family Primary School, Aughamullan",BT715DR,Roman Catholic Maintained,57.0,0.0,55.0,2.0,BT715DR,54.540383,-6.625118,"(0.17254901960784313, 0.6274509803921569, 0.17254901960784313)",#2ca02c80,44,160,44,75.4983443527075
503-2715,St John's Primary School ,BT717SQ,Roman Catholic Maintained,206.0,0.0,197.0,9.0,BT717SQ,54.44543,-6.696438,"(0.17254901960784313, 0.6274509803921569, 0.17254901960784313)",#2ca02c80,44,160,44,143.52700094407322
503-2717,St Patrick's Primary School ,BT715AU,Roman Catholic Maintained,234.0,3.5,227.0,3.5,BT715AU,54.613832,-6.558373,"(0.17254901960784313, 0.6274509803921569, 0.17254901960784313)",#2ca02c80,44,160,44,152.97058540778355
503-2729,St John's Primary School ,BT714QN,Roman Catholic Maintained,222.0,0.0,220.0,2.0,BT714QN,54.52326,-6.625987,"(0.17254901960784313, 0.6274509803921569, 0.17254901960784313)",#2ca02c80,44,160,44,148.9966442575134
503-2734,St Mary's Primary School ,BT703AN,Roman Catholic Maintained,214.0,2.0,210.0,2.0,BT703AN,54.491316,-6.923115,"(0.17254901960784313, 0.6274509803921569, 0.17254901960784313)",#2ca02c80,44,160,44,146.28738838327794
503-2735,St Mary's Primary School ,BT702JH,Roman Catholic Maintained,144.0,0.0,142.0,2.0,BT702JH,54.470546,-7.030304,"(0.17254901960784313, 0.6274509803921569, 0.17254901960784313)",#2ca02c80,44,160,44,120.0
503-2736,St Mary's Primary School ,BT750SA,Roman Catholic Maintained,42.0,2.0,38.0,2.0,BT750SA,54.373774,-7.325891,"(0.17254901960784313, 0.6274509803921569, 0.17254901960784313)",#2ca02c80,44,160,44,64.8074069840786
503-3003,St Paul's Primary School ,BT345RH,Roman Catholic Maintained,95.0,0.0,95.0,0.0,BT345RH,54.225088,-6.091653,"(0.17254901960784313, 0.6274509803921569, 0.17254901960784313)",#2ca02c80,44,160,44,97.46794344808963
503-3004,St Mary's Primary School ,BT345DQ,Roman Catholic Maintained,97.0,0.0,95.0,2.0,BT345DQ,54.236355,-6.158009,"(0.17254901960784313, 0.6274509803921569, 0.17254901960784313)",#2ca02c80,44,160,44,98.48857801796103
503-3006,St Michael's Primary School (Finnis),BT252EE,Roman Catholic Maintained,75.0,0.0,73.0,2.0,BT252EE,54.361572,-6.024079,"(0.17254901960784313, 0.6274509803921569, 0.17254901960784313)",#2ca02c80,44,160,44,86.60254037844388
503-3011,St Marys Primary School Dechomet,BT319QE,Roman Catholic Maintained,100.0,2.0,96.0,2.0,BT319QE,54.304704,-6.075725,"(0.17254901960784313, 0.6274509803921569, 0.17254901960784313)",#2ca02c80,44,160,44,100.0
503-3025,St Patrick's Primary School ,BT345UY,Roman Catholic Maintained,320.0,3.0,317.0,0.0,BT345UY,54.201049,-6.131519,"(0.17254901960784313, 0.6274509803921569, 0.17254901960784313)",#2ca02c80,44,160,44,178.88543819998318
503-3324,St Patrick's Primary School ,BT670AR,Roman Catholic Maintained,90.0,2.0,86.0,2.0,BT670AR,54.50992,-6.292033,"(0.17254901960784313, 0.6274509803921569, 0.17254901960784313)",#2ca02c80,44,160,44,94.86832980505139
503-6000,St Colman's Primary School ,BT251BD,Roman Catholic Maintained,92.0,7.0,74.0,11.0,BT251BD,54.416662,-6.147188,"(0.17254901960784313, 0.6274509803921569, 0.17254901960784313)",#2ca02c80,44,160,44,95.91663046625439
503-6006,St Mary's Primary School ,BT670BW,Roman Catholic Maintained,140.0,0.0,138.0,2.0,BT670BW,54.533881,-6.32927,"(0.17254901960784313, 0.6274509803921569, 0.17254901960784313)",#2ca02c80,44,160,44,118.32159566199232
503-6009,St Mary's Primary School ,BT666NR,Roman Catholic Maintained,102.0,0.0,97.0,5.0,BT666NR,54.502464,-6.462774,"(0.17254901960784313, 0.6274509803921569, 0.17254901960784313)",#2ca02c80,44,160,44,100.99504938362077
503-6031,St Patrick's Primary School Loup,BT457TS,Roman Catholic Maintained,148.0,0.0,146.0,2.0,BT457TS,54.696485,-6.597492,"(0.17254901960784313, 0.6274509803921569, 0.17254901960784313)",#2ca02c80,44,160,44,121.65525060596438
503-6033,St Joseph's Primary School ,BT702NX,Roman Catholic Maintained,223.0,0.0,223.0,0.0,BT702NX,54.541528,-6.898353,"(0.17254901960784313, 0.6274509803921569, 0.17254901960784313)",#2ca02c80,44,160,44,149.33184523068078
503-6043,St Mary's Primary School ,BT323DJ,Roman Catholic Maintained,503.0,6.0,474.0,23.0,BT323DJ,54.351114,-6.276096,"(0.17254901960784313, 0.6274509803921569, 0.17254901960784313)",#2ca02c80,44,160,44,224.27661492005802
503-6047,St Patrick's Primary School ,BT714QZ,Roman Catholic Maintained,192.0,0.0,184.0,8.0,BT714QZ,54.527787,-6.661099,"(0.17254901960784313, 0.6274509803921569, 0.17254901960784313)",#2ca02c80,44,160,44,138.56406460551017
503-6057,St Malachy's Primary School ,BT457XR,Roman Catholic Maintained,49.0,0.0,49.0,0.0,BT457XR,54.652693,-6.663796,"(0.17254901960784313, 0.6274509803921569, 0.17254901960784313)",#2ca02c80,44,160,44,70.0
503-6061,St Colman's Primary School and All Saints' Nursery Unit ,BT325LS,Roman Catholic Maintained,206.0,2.0,202.0,2.0,BT325LS,54.300222,-6.190122,"(0.17254901960784313, 0.6274509803921569, 0.17254901960784313)",#2ca02c80,44,160,44,143.52700094407322
503-6064,St Malachy's Primary School ,BT357HF,Roman Catholic Maintained,321.0,0.0,319.0,2.0,BT357HF,54.181298,-6.419359,"(0.17254901960784313, 0.6274509803921569, 0.17254901960784313)",#2ca02c80,44,160,44,179.16472867168918
503-6087,St Mary's Primary School ,BT359TP,Roman Catholic Maintained,304.0,0.0,295.0,9.0,BT359TP,54.108591,-6.476347,"(0.17254901960784313, 0.6274509803921569, 0.17254901960784313)",#2ca02c80,44,160,44,174.35595774162695
503-6099,St Patrick's Primary School ,BT350PZ,Roman Catholic Maintained,230.0,0.0,228.0,2.0,BT350PZ,54.124708,-6.578272,"(0.17254901960784313, 0.6274509803921569, 0.17254901960784313)",#2ca02c80,44,160,44,151.65750888103102
503-6101,St Brendan's Primary School ,BT655HS,Roman Catholic Maintained,410.0,0.0,374.0,36.0,BT655HS,54.437648,-6.364741,"(0.17254901960784313, 0.6274509803921569, 0.17254901960784313)",#2ca02c80,44,160,44,202.48456731316588
503-6108,St Joseph's Primary School ,BT809JB,Roman Catholic Maintained,85.0,0.0,83.0,2.0,BT809JB,54.646472,-6.878507,"(0.17254901960784313, 0.6274509803921569, 0.17254901960784313)",#2ca02c80,44,160,44,92.19544457292886
503-6110,St Joseph's Primary School ,BT357AW,Roman Catholic Maintained,390.0,2.0,380.0,8.0,BT357AW,54.196834,-6.404454,"(0.17254901960784313, 0.6274509803921569, 0.17254901960784313)",#2ca02c80,44,160,44,197.48417658131498
503-6118,St Mary's Primary School ,BT702RD,Roman Catholic Maintained,188.0,2.0,182.0,4.0,BT702RD,54.594967,-6.933902,"(0.17254901960784313, 0.6274509803921569, 0.17254901960784313)",#2ca02c80,44,160,44,137.11309200802089
503-6120,St Patrick's Primary School ,BT457NG,Roman Catholic Maintained,96.0,2.0,83.0,11.0,BT457NG,54.690036,-6.663531,"(0.17254901960784313, 0.6274509803921569, 0.17254901960784313)",#2ca02c80,44,160,44,97.97958971132712
503-6121,St Jarlath's Primary School ,BT717HH,Roman Catholic Maintained,168.0,0.0,157.0,11.0,BT717HH,54.414748,-6.697967,"(0.17254901960784313, 0.6274509803921569, 0.17254901960784313)",#2ca02c80,44,160,44,129.6148139681572
503-6122,Jonesborough Primary School ,BT358HR,Roman Catholic Maintained,91.0,0.0,86.0,5.0,BT358HR,54.089508,-6.370841,"(0.17254901960784313, 0.6274509803921569, 0.17254901960784313)",#2ca02c80,44,160,44,95.39392014169457
503-6130,St Laurence O'Toole's Primary School ,BT357PH,Roman Catholic Maintained,77.0,0.0,77.0,0.0,BT357PH,54.184426,-6.48733,"(0.17254901960784313, 0.6274509803921569, 0.17254901960784313)",#2ca02c80,44,160,44,87.74964387392123
503-6136,Sacred Heart Primary School ,BT703JE,Roman Catholic Maintained,121.0,0.0,119.0,2.0,BT703JE,54.601068,-6.838394,"(0.17254901960784313, 0.6274509803921569, 0.17254901960784313)",#2ca02c80,44,160,44,110.0
503-6173,St John the Baptist Primary School ,BT621EB,Roman Catholic Maintained,459.0,2.0,402.0,55.0,BT621EB,54.43443,-6.461039,"(0.17254901960784313, 0.6274509803921569, 0.17254901960784313)",#2ca02c80,44,160,44,214.24285285628548
503-6180,St Oliver Plunkett Primary School ,BT618PF,Roman Catholic Maintained,121.0,2.0,117.0,2.0,BT618PF,54.410412,-6.56358,"(0.17254901960784313, 0.6274509803921569, 0.17254901960784313)",#2ca02c80,44,160,44,110.0
503-6363,St Mary's Primary School  Aughnacloy,BT696AJ,Roman Catholic Maintained,110.0,6.0,95.0,9.0,BT696AJ,54.411067,-6.973058,"(0.17254901960784313, 0.6274509803921569, 0.17254901960784313)",#2ca02c80,44,160,44,104.88088481701516
503-6400,St Colman's (Bann) Primary School ,BT636DU,Roman Catholic Maintained,130.0,2.0,123.0,5.0,BT636DU,54.38468,-6.309062,"(0.17254901960784313, 0.6274509803921569, 0.17254901960784313)",#2ca02c80,44,160,44,114.0175425099138
503-6409,St Ronan's Primary School ,BT341PR,Roman Catholic Maintained,432.0,2.0,415.0,15.0,BT341PR,54.187118,-6.327418,"(0.17254901960784313, 0.6274509803921569, 0.17254901960784313)",#2ca02c80,44,160,44,207.84609690826528
503-6433,St Malachy's Primary School ,BT358PJ,Roman Catholic Maintained,291.0,2.0,278.0,11.0,BT358PJ,54.175243,-6.355649,"(0.17254901960784313, 0.6274509803921569, 0.17254901960784313)",#2ca02c80,44,160,44,170.5872210923198
503-6457,St Francis' Primary School  Aghderg,BT323LN,Roman Catholic Maintained,159.0,2.0,146.0,11.0,BT323LN,54.317647,-6.30917,"(0.17254901960784313, 0.6274509803921569, 0.17254901960784313)",#2ca02c80,44,160,44,126.09520212918491
503-6463,St Joseph's Primary School ,BT684UF,Roman Catholic Maintained,27.0,0.0,27.0,0.0,BT684UF,54.350536,-6.840445,"(0.17254901960784313, 0.6274509803921569, 0.17254901960784313)",#2ca02c80,44,160,44,51.96152422706632
503-6504,St Patrick's Primary School Dungannon,BT716DE,Roman Catholic Maintained,842.0,2.0,815.0,25.0,BT716DE,54.504123,-6.759607,"(0.17254901960784313, 0.6274509803921569, 0.17254901960784313)",#2ca02c80,44,160,44,290.17236257093816
503-6545,St Colman's Primary School ,BT344DE,Roman Catholic Maintained,221.0,2.0,202.0,17.0,BT344DE,54.05884,-6.012273,"(0.17254901960784313, 0.6274509803921569, 0.17254901960784313)",#2ca02c80,44,160,44,148.66068747318505
503-6567,Holy Trinity Primary School ,BT808AG,Roman Catholic Maintained,700.0,2.0,655.0,43.0,BT808AG,54.644326,-6.747549,"(0.17254901960784313, 0.6274509803921569, 0.17254901960784313)",#2ca02c80,44,160,44,264.575131106459
503-6572,St Colman's Primary School ,BT342LA,Roman Catholic Maintained,219.0,0.0,219.0,0.0,BT342LA,54.197561,-6.28792,"(0.17254901960784313, 0.6274509803921569, 0.17254901960784313)",#2ca02c80,44,160,44,147.9864858694874
503-6583,St Dallan's Primary School ,BT343RP,Roman Catholic Maintained,461.0,2.0,431.0,28.0,BT343RP,54.1022,-6.246598,"(0.17254901960784313, 0.6274509803921569, 0.17254901960784313)",#2ca02c80,44,160,44,214.7091055358389
503-6586,Presentation Primary School ,BT623AH,Roman Catholic Maintained,306.0,5.0,269.0,32.0,BT623AH,54.418598,-6.442699,"(0.17254901960784313, 0.6274509803921569, 0.17254901960784313)",#2ca02c80,44,160,44,174.928556845359
503-6590,Primate Dixon Primary School ,BT714NW,Roman Catholic Maintained,579.0,0.0,553.0,26.0,BT714NW,54.545939,-6.706926,"(0.17254901960784313, 0.6274509803921569, 0.17254901960784313)",#2ca02c80,44,160,44,240.6241883103193
503-6595,St Peter's Primary School ,BT716SW,Roman Catholic Maintained,139.0,0.0,137.0,2.0,BT716SW,54.434818,-6.66418,"(0.17254901960784313, 0.6274509803921569, 0.17254901960784313)",#2ca02c80,44,160,44,117.89826122551595
503-6598,Our Lady's Primary School ,BT717NJ,Roman Catholic Maintained,190.0,0.0,190.0,0.0,BT717NJ,54.394017,-6.751154,"(0.17254901960784313, 0.6274509803921569, 0.17254901960784313)",#2ca02c80,44,160,44,137.84048752090223
503-6605,St Patrick's Primary School ,BT345BT,Roman Catholic Maintained,86.0,0.0,84.0,2.0,BT345BT,54.233456,-6.202831,"(0.17254901960784313, 0.6274509803921569, 0.17254901960784313)",#2ca02c80,44,160,44,92.73618495495704
503-6610,St Francis of Assisi Primary School ,BT603RW,Roman Catholic Maintained,200.0,2.0,163.0,35.0,BT603RW,54.248931,-6.706817,"(0.17254901960784313, 0.6274509803921569, 0.17254901960784313)",#2ca02c80,44,160,44,141.4213562373095
503-6622,St Johns Primary School ,BT604HT,Roman Catholic Maintained,184.0,2.0,180.0,2.0,BT604HT,54.28681,-6.835557,"(0.17254901960784313, 0.6274509803921569, 0.17254901960784313)",#2ca02c80,44,160,44,135.64659966250537
503-6633,St Francis Primary School ,BT666DN,Roman Catholic Maintained,821.0,5.0,781.0,35.0,BT666DN,54.463861,-6.347934,"(0.17254901960784313, 0.6274509803921569, 0.17254901960784313)",#2ca02c80,44,160,44,286.53097563788805
503-6634,St Clare’s Abbey Primary School ,BT341HD,Roman Catholic Maintained,510.0,2.0,454.0,54.0,BT341HD,54.174498,-6.334819,"(0.17254901960784313, 0.6274509803921569, 0.17254901960784313)",#2ca02c80,44,160,44,225.8317958127243
503-6639,Our Lady's and St Mochua's Primary School ,BT603EZ,Roman Catholic Maintained,168.0,0.0,166.0,2.0,BT603EZ,54.228504,-6.775985,"(0.17254901960784313, 0.6274509803921569, 0.17254901960784313)",#2ca02c80,44,160,44,129.6148139681572
503-6673,St Bronagh's Primary School,BT343DY,Roman Catholic Maintained,209.0,0.0,209.0,0.0,BT343DY,54.102164,-6.197951,"(0.17254901960784313, 0.6274509803921569, 0.17254901960784313)",#2ca02c80,44,160,44,144.5683229480096
503-6675,St Josephs and St James Primary School ,BT356SY,Roman Catholic Maintained,108.0,0.0,106.0,2.0,BT356SY,54.294298,-6.374714,"(0.17254901960784313, 0.6274509803921569, 0.17254901960784313)",#2ca02c80,44,160,44,103.92304845413264
503-6706,St Columban's Primary School ,BT344NL,Roman Catholic Maintained,211.0,0.0,209.0,2.0,BT344NL,54.072161,-5.982333,"(0.17254901960784313, 0.6274509803921569, 0.17254901960784313)",#2ca02c80,44,160,44,145.25839046333948
504-6137,Seagoe Primary School ,BT635HS,Other Maintained,392.0,269.0,22.0,101.0,BT635HS,54.435637,-6.426393,"(0.17254901960784313, 0.6274509803921569, 0.17254901960784313)",#2ca02c80,44,160,44,197.9898987322333
504-6241,The Drelincourt School,BT601EE,Other Maintained,12.0,2.0,2.0,8.0,BT601EE,54.34502,-6.636847,"(0.17254901960784313, 0.6274509803921569, 0.17254901960784313)",#2ca02c80,44,160,44,34.64101615137754
504-6597,Bunscoil an Iúir,BT342DH,Other Maintained,108.0,2.0,97.0,9.0,BT342DH,54.169731,-6.335118,"(0.17254901960784313, 0.6274509803921569, 0.17254901960784313)",#2ca02c80,44,160,44,103.92304845413264
504-6637,Gaelscoil Uí Néill,BT714PU,Other Maintained,135.0,0.0,133.0,2.0,BT714PU,54.536519,-6.684853,"(0.17254901960784313, 0.6274509803921569, 0.17254901960784313)",#2ca02c80,44,160,44,116.1895003862225
504-6692,Gaelscoil na mBeann & Naíscoil na mBeann,BT344NL,Other Maintained,85.0,2.0,77.0,6.0,BT344NL,54.072161,-5.982333,"(0.17254901960784313, 0.6274509803921569, 0.17254901960784313)",#2ca02c80,44,160,44,92.19544457292886
504-6695,Gaelscoil Aodha Rua ,BT701HD,Other Maintained,133.0,0.0,133.0,0.0,BT701HD,54.508629,-6.779495,"(0.17254901960784313, 0.6274509803921569, 0.17254901960784313)",#2ca02c80,44,160,44,115.32562594670796
504-6699,Naíscoil & Gaelscoil Eoghain,BT808QD,Other Maintained,136.0,0.0,134.0,2.0,BT808QD,54.641027,-6.743902,"(0.17254901960784313, 0.6274509803921569, 0.17254901960784313)",#2ca02c80,44,160,44,116.61903789690601
505-6013,Kilbroney Integrated Primary School ,BT343EL,Controlled Integrated,134.0,17.0,68.0,49.0,BT343EL,54.099592,-6.195387,"(0.12156862745098039, 0.4666666666666667, 0.7058823529411765)",#1f77b480,31,119,180,115.75836902790226
506-6540,Bridge Integrated Primary School ,BT323EL,Grant Maintained Integrated,411.0,162.0,171.0,78.0,BT323EL,54.347145,-6.280614,"(0.12156862745098039, 0.4666666666666667, 0.7058823529411765)",#1f77b480,31,119,180,202.73134932713293
506-6553,Portadown Integrated Primary School ,BT635RR,Grant Maintained Integrated,474.0,88.0,152.0,234.0,BT635RR,54.438126,-6.419532,"(0.12156862745098039, 0.4666666666666667, 0.7058823529411765)",#1f77b480,31,119,180,217.7154105707724
506-6554,Windmill Integrated Primary School ,BT717BE,Grant Maintained Integrated,248.0,61.0,127.0,60.0,BT717BE,54.497259,-6.771916,"(0.12156862745098039, 0.4666666666666667, 0.7058823529411765)",#1f77b480,31,119,180,157.48015748023622
506-6578,Saints & Scholars Int Primary School ,BT619HG,Grant Maintained Integrated,305.0,67.0,130.0,108.0,BT619HG,54.354615,-6.628115,"(0.12156862745098039, 0.4666666666666667, 0.7058823529411765)",#1f77b480,31,119,180,174.6424919657298
506-6657,Phoenix Integrated Primary School ,BT808QF,Grant Maintained Integrated,221.0,64.0,106.0,51.0,BT808QF,54.639542,-6.740169,"(0.12156862745098039, 0.4666666666666667, 0.7058823529411765)",#1f77b480,31,119,180,148.66068747318505
